display_name,type,lat,lon,alamat,provinsi,kota,zip,bank
"Bank Mandiri, 5, Jalan Haji Agus Salim, RW 01, Kebon Sirih, Menteng, Jakarta Pusat, Daerah Khusus Ibukota Jakarta, 10340, Indonesia",bank,-6.1840198,106.8241168643947,Jalan Haji Agus Salim,Jakarta Pusat,Menteng,10340,BANK MANDIRI
"Bank Mandiri, Jalan Dharma Kencana, RW 11, Taman Semanan Indah, Cengkareng, Jakarta Barat, Daerah Khusus Ibukota Jakarta, Jawa, 11850, Indonesia",bank,-6.1638516,106.7235732,Jalan Dharma Kencana,Daerah Khusus Ibukota Jakarta,Jakarta Barat,11850,BANK MANDIRI
"Bank Mandiri, Jalan Jenderal Sudirman, RW 02, Karet Tengsin, Tanah Abang, Jakarta Pusat, Daerah Khusus Ibukota Jakarta, 10220, Indonesia",bank,-6.2146251,106.8176507,Jalan Jenderal Sudirman,Daerah Khusus Ibukota Jakarta,Jakarta Pusat,10220,BANK MANDIRI
"Bank Mandiri, Jalan Ambengan Batu II, RW 04, Tambaksari, Surabaya, Jawa Timur, 60136, Indonesia",bank,-7.2550123,112.750517,Jalan Ambengan Batu II,Jawa Timur,Surabaya,60136,BANK MANDIRI
"Bank Mandiri, Jalan Mergoyoso, RW 10, Kedungdoro, Tegalsari, Surabaya, Jawa Timur, 60011, Indonesia",bank,-7.2627411,112.7405152,Jalan Mergoyoso,Jawa Timur,Surabaya,60011,BANK MANDIRI
"Bank Mandiri, Jalan Yos Sudarso, SORONG, Klaligi, Sorong, Papua Barat Daya, 98411, Indonesia",bank,-0.8833952,131.27734738611014,Jalan Yos Sudarso,Papua Barat Daya,Sorong,98411,BANK MANDIRI
"Bank Mandiri, Jalan Basuki Rahmat, SORONG, Malaingkedi, Sorong, Papua Barat Daya, 98412, Indonesia",bank,-0.8843733,131.286568350132,Jalan Basuki Rahmat,Papua Barat Daya,Sorong,98412,BANK MANDIRI
"Bank Mandiri, Jalan Merpati, Singkawang Barat, Singkawang, Kalimantan Barat, 79113, Indonesia",bank,0.9117382,108.98906325913244,Jalan Merpati,Kalimantan Barat,Singkawang,79113,BANK MANDIRI
"Bank Mandiri, Jalan Kyai Maja, RW 01, Kramat Pela, Kebayoran Baru, Jakarta Selatan, Daerah Khusus Ibukota Jakarta, 12120, Indonesia",bank,-6.2421455,106.7909657,Jalan Kyai Maja,Daerah Khusus Ibukota Jakarta,Jakarta Selatan,12120,BANK MANDIRI
"Bank Mandiri, Jalan Kali Sekertariat, RW 01, Tanjung Duren Utara, Grogol Petamburan, Jakarta Barat, Daerah Khusus Ibukota Jakarta, 11450, Indonesia",bank,-6.1668058,106.7853755,Jalan Kali Sekertariat,Daerah Khusus Ibukota Jakarta,Jakarta Barat,11450,BANK MANDIRI
"Bank Mandiri, Jalan Imam Bonjol, Little India, Petisah, Medan Petisah, Kota Medan, Sumatera Utara, 20111, Indonesia",bank,3.5873374,98.67420657480304,Jalan Imam Bonjol,Sumatera Utara,Kota Medan,20111,BANK MANDIRI
"Bank Mandiri, Jalan S. Parman, Petisah Tengah, Petisah, Medan Petisah, Kota Medan, Sumatera Utara, 20112, Indonesia",bank,3.5865129,98.6672647,Jalan S. Parman,Sumatera Utara,Kota Medan,20112,BANK MANDIRI
"Bank Mandiri, Jalan Gereja, Belakang Tangsi, Padang, Sumatera Barat, 25119, Indonesia",bank,-0.95727125,100.35648994390378,Jalan Gereja,Sumatera Barat,Padang,25119,BANK MANDIRI
"Bank Mandiri, Jalan Merpati, Singkawang Barat, Singkawang, Kalimantan Barat, 79113, Indonesia",bank,0.9117382,108.98906325913244,Jalan Merpati,Kalimantan Barat,Singkawang,79113,BANK MANDIRI
"Bank Mandiri, Jalan Citra Megah Raya I, Loktabat Selatan, Banjarbaru, Kalimantan Selatan, Kalimantan, 70712, Indonesia",bank,-3.4424728,114.8224404,Jalan Citra Megah Raya I,Kalimantan Selatan,Banjarbaru,70712,BANK MANDIRI
"Bank Mandiri, Gang Jubleg, RW 05, Paseban, Senen, Jakarta Pusat, Daerah Khusus Ibukota Jakarta, 10440, Indonesia",bank,-6.1938301,106.8507816,Gang Jubleg,Daerah Khusus Ibukota Jakarta,Jakarta Pusat,10440,BANK MANDIRI
"Bank Mandiri, Jalan Jatinegara Timur, RW 04, Bali Mester, Jatinegara, Jakarta Timur, Daerah Khusus Ibukota Jakarta, 13310, Indonesia",bank,-6.21810375,106.86775374999999,Jalan Jatinegara Timur,Daerah Khusus Ibukota Jakarta,Jakarta Timur,13310,BANK MANDIRI
"Bank Mandiri, Jalan Arif Rahman Hakim, Sukaramai, Medan Area, Kota Medan, Sumatera Utara, 20143, Indonesia",bank,3.5859123,98.7054449,Jalan Arif Rahman Hakim,Sumatera Utara,Kota Medan,20143,BANK MANDIRI
"Bank Mandiri, Jalan Sisingamangaraja, Darat Sekip, Pontianak Kota, Pontianak, Kalimantan Barat, 78117, Indonesia",bank,-0.02637005,109.34212009485174,Jalan Sisingamangaraja,Kalimantan Barat,Pontianak,78117,BANK MANDIRI
"Bank Mandiri, Jalan Shortcut Citarum, Tegal Gede, Jember, Jawa Timur, Jawa, 68118, Indonesia",bank,-8.1690081,113.70338274160672,Jalan Shortcut Citarum,Jawa Timur,Jember,68118,BANK MANDIRI
"Bank Mandiri, Jalan Jenderal Sudirman, RT 01, RW 03, Kota Kulon, Ciamis, Jawa Barat, Jawa, 46211, Indonesia",bank,-7.326201,108.34217672640756,Jalan Jenderal Sudirman,Jawa Barat,Ciamis,46211,BANK MANDIRI
"BANK MANDIRI, Jalan Lamreung, Doi, Krueng Barona Jaya, Aceh Besar, Aceh, Sumatera, 23111, Indonesia",bank,5.5516562,95.3551175,Jalan Lamreung,Aceh Besar,Krueng Barona Jaya,23111,BANK MANDIRI
"Bank Mandiri, Jalan Gajah Mada, RW 08, Petojo Utara, Gambir, Jakarta Pusat, Daerah Khusus Ibukota Jakarta, 10160, Indonesia",bank,-6.1659127,106.8199339,Jalan Gajah Mada,Daerah Khusus Ibukota Jakarta,Jakarta Pusat,10160,BANK MANDIRI
"Bank Mandiri, Jalan Tanjung Duren Raya, RW 04, Tanjung Duren Utara, Grogol Petamburan, Jakarta Barat, Daerah Khusus Ibukota Jakarta, 11470, Indonesia",bank,-6.1742303,106.78338425000001,Jalan Tanjung Duren Raya,Daerah Khusus Ibukota Jakarta,Jakarta Barat,11470,BANK MANDIRI
"Bank Mandiri, Jalan Jenderal Sudirman, Cokrodiningratan, Jetis, Kota Yogyakarta, Daerah Istimewa Yogyakarta, Jawa, 55233, Indonesia",bank,-7.7831043,110.3682896,Jalan Jenderal Sudirman,Daerah Istimewa Yogyakarta,Kota Yogyakarta,55233,BANK MANDIRI
"Bank Mandiri, Jalan Jenderal Sudirman, Olo, Padang, Sumatera Barat, 25112, Indonesia",bank,-0.947578,100.36320484937802,Jalan Jenderal Sudirman,Sumatera Barat,Padang,25112,BANK MANDIRI
"Bank Mandiri, Jalan Sultan Agung, Jember Lor, Jember, Jawa Timur, 68131, Indonesia",bank,-8.170087,113.6982016,Jalan Sultan Agung,Jawa Timur,Jember,68131,BANK MANDIRI
"Bank Mandiri, Jalan Taman Jeruk Utama, RW 10, Srengseng, Kembangan, Jakarta Barat, Daerah Khusus Ibukota Jakarta, 11620, Indonesia",bank,-6.197707,106.7473054,Jalan Taman Jeruk Utama,Daerah Khusus Ibukota Jakarta,Jakarta Barat,11620,BANK MANDIRI
"Bank Mandiri, Jalan Cikini IV, RW 05, Cikini, Menteng, Jakarta Pusat, Daerah Khusus Ibukota Jakarta, 10330, Indonesia",bank,-6.19314195,106.83854953398875,Jalan Cikini IV,Daerah Khusus Ibukota Jakarta,Jakarta Pusat,10330,BANK MANDIRI
"Bank Mandiri, Jalan Paradise 12, RW 12, Sunter Agung, Tanjung Priok, Jakarta Utara, Daerah Khusus Ibukota Jakarta, 14350, Indonesia",bank,-6.138999849999999,106.86575955,Jalan Paradise 12,Daerah Khusus Ibukota Jakarta,Jakarta Utara,14350,BANK MANDIRI
"Bank Mandiri, Jalan Jenderal Basuki Rachmat, RW 07, Embong Kaliasin, Genteng, Surabaya, Jawa Timur, Jawa, 60271, Indonesia",bank,-7.2718619,112.7419014,Jalan Jenderal Basuki Rachmat,Jawa Timur,Surabaya,60271,BANK MANDIRI
"Bank Mandiri, Jalan Ahmad Yani VII, Kesawan, Medan Barat, Kota Medan, Sumatera Utara, Sumatera, 20111, Indonesia",bank,3.58889515,98.67789255161921,Jalan Ahmad Yani VII,Sumatera Utara,Kota Medan,20111,BANK MANDIRI
"Bank Mandiri, Pandan Kasturi, Rijali, Ambon, Maluku, 97123, Indonesia",bank,-3.6869226,128.1845096,Pandan Kasturi,Maluku,Ambon,97123,BANK MANDIRI
"Bank Mandiri, Jalan Imam Bonjol, Pemecutan Kelod, Denpasar Barat, Bali, 80119, Indonesia",bank,-8.6872915,115.19256071103796,Jalan Imam Bonjol,Bali,Denpasar Barat,80119,BANK MANDIRI
"Bank Mandiri, Jalan Senen Dalam Gang I, RW 04, Senen, Jakarta Pusat, Daerah Khusus Ibukota Jakarta, 10410, Indonesia",bank,-6.17294395,106.84282540000001,Jalan Senen Dalam Gang I,Daerah Khusus Ibukota Jakarta,Jakarta Pusat,10410,BANK MANDIRI
"Bank Mandiri, Jalan Siliwangi, Lebak Siliwangi, Coblong, Bandung, Jawa Barat, 40132, Indonesia",bank,-6.8853176000000005,107.61235289999999,Jalan Siliwangi,Jawa Barat,Bandung,40132,BANK MANDIRI
"BANK MANDIRI, Jalan Soekarno-Hatta, Sekejati, Buahbatu, Bandung, Jawa Barat, Jawa, 40286, Indonesia",bank,-6.9419097,107.6592655,Jalan Soekarno-Hatta,Jawa Barat,Bandung,40286,BANK MANDIRI
"Bank Mandiri, Jalan Letdjen Mas Tirtodarmo Haryono, Pasar Baru, Medan Kota, Kota Medan, Sumatera Utara, 20212, Indonesia",bank,3.584936,98.68068070377787,Jalan Letdjen Mas Tirtodarmo Haryono,Sumatera Utara,Kota Medan,20212,BANK MANDIRI
"Bank Mandiri, Jalan Kauman, 06, Kel Kauman, Kec Klojen, Kota Malang, Kidul Dalem, Kota Malang, Jawa Timur, 65139, Indonesia",bank,-7.9829375,112.6297133,Jalan Kauman,Jawa Timur,Kota Malang,65139,BANK MANDIRI
"Bank Mandiri KCP Gowa, Jalan K.H. Wahid Hasyim, Sungguminasa, Somba Opu, Gowa, Tompobalang, Sulawesi Selatan, Sulawesi, 92111, Indonesia",bank,-5.2088493499999995,119.4538552743006,Jalan K.H. Wahid Hasyim,Sulawesi Selatan,Tompobalang,92111,BANK MANDIRI KCP GOWA
"Bank Mandiri, Jalan Hang Tuah, Duri, Kecamatan Mandau, Kabupaten Bengkalis, Riau, 28784, Indonesia",bank,1.2767937,101.18293188572423,Jalan Hang Tuah,Kabupaten Bengkalis,Kecamatan Mandau,28784,BANK MANDIRI
"Bank Mandiri, Jalan Letnan Jenderal S. Parman, RW 04, Slipi, Palmerah, Jakarta Barat, Daerah Khusus Ibukota Jakarta, Jawa, 10260, Indonesia",bank,-6.1972076,106.798395,Jalan Letnan Jenderal S. Parman,Daerah Khusus Ibukota Jakarta,Jakarta Barat,10260,BANK MANDIRI
"Bank Mandiri, Jalan Kapten A. Rivai, Ilir Timur I, Palembang, Sumatera Selatan, Sumatera, 30113, Indonesia",bank,-2.9769586,104.751978,Jalan Kapten A. Rivai,Sumatera Selatan,Palembang,30113,BANK MANDIRI
"Bank Mandiri, 10, Jalan Putri Hijau, Kesawan, Medan Barat, Kota Medan, Sumatera Utara, 20111, Indonesia",bank,3.5960351,98.6761313,10,Sumatera Utara,Kota Medan,20111,BANK MANDIRI
"Bank Mandiri, Jalan Sumba, Pattunuang, Wajo, Makassar, Sulawesi Selatan, 90174, Indonesia",bank,-5.1294844,119.40724079990544,Jalan Sumba,Sulawesi Selatan,Makassar,90174,BANK MANDIRI
"Bank Mandiri, Jalan Imam Bonjol, Pemecutan Kelod, Denpasar Barat, Bali, 80119, Indonesia",bank,-8.6872915,115.19256071103796,Jalan Imam Bonjol,Bali,Denpasar Barat,80119,BANK MANDIRI
"Bank Mandiri, Jalan Jendral Sudirman, Bantul, Daerah Istimewa Yogyakarta, 55712, Indonesia",bank,-7.8881512,110.328117,Jalan Jendral Sudirman,Daerah Istimewa Yogyakarta,Bantul,55712,BANK MANDIRI
"Bank Mandiri, Jalan Pisangan Lama III, RW 04, Pisangan Timur, Pulo Gadung, Jakarta Timur, Daerah Khusus Ibukota Jakarta, Jawa, 13230, Indonesia",bank,-6.2109448,106.8785667,Jalan Pisangan Lama III,Daerah Khusus Ibukota Jakarta,Jakarta Timur,13230,BANK MANDIRI
"Bank Mandiri, Jalan Podomoro Avenue, RW 05, Tanjung Duren Selatan, Grogol Petamburan, Jakarta Barat, Daerah Khusus Ibukota Jakarta, 11470, Indonesia",bank,-6.1764471,106.7896656,Jalan Podomoro Avenue,Daerah Khusus Ibukota Jakarta,Jakarta Barat,11470,BANK MANDIRI
"Bank Mandiri, Jalan Haji Agus Salim, RW 04, Gondangdia, Menteng, Jakarta Pusat, Daerah Khusus Ibukota Jakarta, 10350, Indonesia",bank,-6.188749250000001,106.82497462484761,Jalan Haji Agus Salim,Daerah Khusus Ibukota Jakarta,Jakarta Pusat,10350,BANK MANDIRI
"Bank Mandiri, Jalan Gereja Theresia, RW 04, Gondangdia, Menteng, Jakarta Pusat, Daerah Khusus Ibukota Jakarta, 10350, Indonesia",bank,-6.19094735,106.8284040419691,Jalan Gereja Theresia,Daerah Khusus Ibukota Jakarta,Jakarta Pusat,10350,BANK MANDIRI
"Bank Mandiri, Jalan Lintas Jabar Selatan, Dusun Cilutung, Desa Cikalong, Desa Cikalong, Tasikmalaya, Jawa Barat, Jawa, Indonesia",bank,-7.76567555,108.17225394526784,Jalan Lintas Jabar Selatan,Jawa Barat,Tasikmalaya,Jawa,BANK MANDIRI
"Bank Mandiri, Jalan Panglima Besar Sudirman, Kampungdalem, Tulungagung, Jawa Timur, Jawa, 66212, Indonesia",bank,-8.0628758,111.9075178,Jalan Panglima Besar Sudirman,Jawa Timur,Tulungagung,66212,BANK MANDIRI
"Bank Mandiri, Jalan Dirgantara II, Catur Tunggal, Depok, Sleman, Daerah Istimewa Yogyakarta, 55821, Indonesia",bank,-7.7812799,110.4141948,Jalan Dirgantara II,Daerah Istimewa Yogyakarta,Sleman,55821,BANK MANDIRI
"Bank Mandiri, Jalan Metro Pondok Indah, RW 14, Pondok Pinang, Kebayoran Lama, Jakarta Selatan, Daerah Khusus Ibukota Jakarta, 12310, Indonesia",bank,-6.2843239,106.78059265264227,Jalan Metro Pondok Indah,Daerah Khusus Ibukota Jakarta,Jakarta Selatan,12310,BANK MANDIRI
"Bank Mandiri, Jalan Dahliah, RW 04, Meruya Utara, Kembangan, Jakarta Barat, Daerah Khusus Ibukota Jakarta, 11620, Indonesia",bank,-6.2002196,106.7388184,Jalan Dahliah,Daerah Khusus Ibukota Jakarta,Jakarta Barat,11620,BANK MANDIRI
"Bank Mandiri, Jalan Jenderal Ahmad Yani, Cicaheum, Kiaracondong, Bandung, Jawa Barat, 40125, Indonesia",bank,-6.90464075,107.65126315782723,Jalan Jenderal Ahmad Yani,Jawa Barat,Bandung,40125,BANK MANDIRI
"Bank Mandiri, Jalan Jenderal Achmad Yani Utara, Purwodadi, Kota Malang, Jawa Timur, 65126, Indonesia",bank,-7.9413907,112.6426002,Jalan Jenderal Achmad Yani Utara,Jawa Timur,Kota Malang,65126,BANK MANDIRI
"Bank Mandiri, Jalan Raya Cijulang, Dusun Haurseah, Desa Cijulang, Pangandaran, Jawa Barat, Jawa, 46394, Indonesia",bank,-7.72957965,108.47359950066944,Jalan Raya Cijulang,Jawa Barat,Pangandaran,46394,BANK MANDIRI
"Bank Mandiri, Jalan Persatuan, Catur Tunggal, Depok, Sleman, Daerah Istimewa Yogyakarta, 55281, Indonesia",bank,-7.773483,110.37507574924493,Jalan Persatuan,Daerah Istimewa Yogyakarta,Sleman,55281,BANK MANDIRI
"Bank Mandiri, Jalan Imam Bonjol, Pemecutan Kelod, Denpasar Barat, Bali, 80119, Indonesia",bank,-8.68655575,115.19362548015202,Jalan Imam Bonjol,Bali,Denpasar Barat,80119,BANK MANDIRI
"Bank Mandiri, Jalan Balai Kota, Kesawan, Medan Barat, Kota Medan, Sumatera Utara, 20111, Indonesia",bank,3.5895836,98.67770068209029,Jalan Balai Kota,Sumatera Utara,Kota Medan,20111,BANK MANDIRI
"Bank Mandiri, Jalan Brawijaya, Kota, Kediri, Jawa Timur, Jawa, 64123, Indonesia",bank,-7.81363065,112.00935656344053,Jalan Brawijaya,Jawa Timur,Kediri,64123,BANK MANDIRI
"Bank Mandiri, Jalan Laksda Adisucipto, Catur Tunggal, Demangan, Gondokusuman, Catur Tunggal, Depok, Sleman, Daerah Istimewa Yogyakarta, Jawa, 55281, Indonesia",bank,-7.782965450000001,110.3912505723479,Jalan Laksda Adisucipto,Daerah Istimewa Yogyakarta,Sleman,55281,BANK MANDIRI
"Bank Mandiri, Jalan Imam Bonjol, Pemecutan Kelod, Denpasar Barat, Bali, 80119, Indonesia",bank,-8.68655575,115.19362548015202,Jalan Imam Bonjol,Bali,Denpasar Barat,80119,BANK MANDIRI
"Bank Mandiri, Jalan Jendral Sudirman, Bantul, Daerah Istimewa Yogyakarta, 55712, Indonesia",bank,-7.8881512,110.328117,Jalan Jendral Sudirman,Daerah Istimewa Yogyakarta,Bantul,55712,BANK MANDIRI
"Bank Mandiri, Jalan Imam Mahbud, RW 04, Duri Pulo, Gambir, Jakarta Pusat, Daerah Khusus Ibukota Jakarta, 10140, Indonesia",bank,-6.16472595,106.80792065,Jalan Imam Mahbud,Daerah Khusus Ibukota Jakarta,Jakarta Pusat,10140,BANK MANDIRI
"Bank Mandiri, Jalan Tebet Timur Dalam Raya, RW 06, Tebet Timur, Tebet, Jakarta Selatan, Daerah Khusus Ibukota Jakarta, 12820, Indonesia",bank,-6.23758555,106.8570565,Jalan Tebet Timur Dalam Raya,Daerah Khusus Ibukota Jakarta,Jakarta Selatan,12820,BANK MANDIRI
"Bank Mandiri, Jalan Bendungan Hilir Gang 11, RW 03, Bendungan Hilir, Tanah Abang, Jakarta Pusat, Daerah Khusus Ibukota Jakarta, 10210, Indonesia",bank,-6.2121669,106.81222905,Jalan Bendungan Hilir Gang 11,Daerah Khusus Ibukota Jakarta,Jakarta Pusat,10210,BANK MANDIRI
"Bank Mandiri, Jalan Jamika, Jamika, Bojongloa Kaler, Bandung, Jawa Barat, 40182, Indonesia",bank,-6.92058905,107.58648269253865,Jalan Jamika,Jawa Barat,Bandung,40182,BANK MANDIRI
"Bank Mandiri, Jalan Asia Afrika, Kebon Pisang, Sumur Bandung, Bandung, Jawa Barat, 40261, Indonesia",bank,-6.9215035,107.61344525,Jalan Asia Afrika,Jawa Barat,Bandung,40261,BANK MANDIRI
"Bank Mandiri, Jalan Lambung Mangkurat, Kertak Baru Ulu, Banjarmasin Tengah, Banjarmasin, Kalimantan Selatan, Kalimantan, 70111, Indonesia",bank,-3.3210127,114.59198629772271,Jalan Lambung Mangkurat,Kalimantan,Kalimantan Selatan,70111,BANK MANDIRI
"Bank Mandiri, Jalan Jendral Sudirman, Bantul, Daerah Istimewa Yogyakarta, 55712, Indonesia",bank,-7.8881512,110.328117,Jalan Jendral Sudirman,Daerah Istimewa Yogyakarta,Bantul,55712,BANK MANDIRI
"Bank Mandiri, Jalan Baladewa, banjar sakenan baleran, Delod Peken, desa delod peken, Tabanan, Bali, 08351, Indonesia",bank,-8.5402275,115.1348941,Jalan Baladewa,Tabanan,desa delod peken,08351,BANK MANDIRI
"Bank Mandiri, Jalan Pancasila, RT 03 Desa Pelaihari, Pelaihari, Tanah Laut, Kalimantan Selatan, 70814, Indonesia",bank,-3.8016875499999996,114.76586870174187,Jalan Pancasila,Kalimantan Selatan,Tanah Laut,70814,BANK MANDIRI
"Bank Mandiri, Jalan Lapangan Ros I, RW 05, Bukit Duri, Tebet, Jakarta Selatan, Daerah Khusus Ibukota Jakarta, 12840, Indonesia",bank,-6.22453755,106.85447442391344,Jalan Lapangan Ros I,Daerah Khusus Ibukota Jakarta,Jakarta Selatan,12840,BANK MANDIRI
"Bank Mandiri, Jalan KH. Samanhudi, RW 02, Pasar Baru, Sawah Besar, Jakarta Pusat, Daerah Khusus Ibukota Jakarta, 10120, Indonesia",bank,-6.1617538,106.83197172587926,Jalan KH. Samanhudi,Daerah Khusus Ibukota Jakarta,Jakarta Pusat,10120,BANK MANDIRI
"Bank Mandiri, Jalan Puri Indah, RW 06, Kembangan Selatan, Kembangan, Jakarta Barat, Daerah Khusus Ibukota Jakarta, 11610, Indonesia",bank,-6.1852181,106.7537492,Jalan Puri Indah,Daerah Khusus Ibukota Jakarta,Jakarta Barat,11610,BANK MANDIRI
"Bank Mandiri, Jalan Doktor Ide Anak Agung Gde Agung, RW 01, Kuningan Timur, Setiabudi, Jakarta Selatan, Daerah Khusus Ibukota Jakarta, 12950, Indonesia",bank,-6.227615,106.8254855,Jalan Doktor Ide Anak Agung Gde Agung,Daerah Khusus Ibukota Jakarta,Jakarta Selatan,12950,BANK MANDIRI
"Bank Mandiri, Jalan Mega Kuningan Barat, RW 01, Kuningan Timur, Setiabudi, Jakarta Selatan, Daerah Khusus Ibukota Jakarta, 12950, Indonesia",bank,-6.227853,106.8252712,Jalan Mega Kuningan Barat,Daerah Khusus Ibukota Jakarta,Jakarta Selatan,12950,BANK MANDIRI
"Bank Mandiri, Jalan Kawung Gang Masum, RW 01, Kemayoran, Krembangan, Surabaya, Jawa Timur, 60175, Indonesia",bank,-7.23616445,112.73059723587488,Jalan Kawung Gang Masum,Jawa Timur,Surabaya,60175,BANK MANDIRI
"Bank Mandiri, Jalan Jenderal Sudirman, Cokrodiningratan, Jetis, Kota Yogyakarta, Daerah Istimewa Yogyakarta, Jawa, 55233, Indonesia",bank,-7.78317935,110.369532225,Jalan Jenderal Sudirman,Daerah Istimewa Yogyakarta,Kota Yogyakarta,55233,BANK MANDIRI
"Bank Mandiri, Jalan Pancasila, RT 03 Desa Pelaihari, Pelaihari, Tanah Laut, Kalimantan Selatan, 70814, Indonesia",bank,-3.8016875499999996,114.76586870174187,Jalan Pancasila,Kalimantan Selatan,Tanah Laut,70814,BANK MANDIRI
"Bank Mandiri, Jalan Hang Lekir XII, RW 06, Gunung, Kebayoran Baru, Jakarta Selatan, Daerah Khusus Ibukota Jakarta, 12180, Indonesia",bank,-6.2326594,106.7964917,Jalan Hang Lekir XII,Daerah Khusus Ibukota Jakarta,Jakarta Selatan,12180,BANK MANDIRI
"Bank Mandiri, Jalan Kota Bambu Selatan, RW 09, Kota Bambu Selatan, Palmerah, Jakarta Barat, Daerah Khusus Ibukota Jakarta, Jawa, 11420, Indonesia",bank,-6.1854435,106.7977899,Jalan Kota Bambu Selatan,Daerah Khusus Ibukota Jakarta,Jakarta Barat,11420,BANK MANDIRI
"Bank Mandiri, Jalan Asia Afrika, Braga, Sumur Bandung, Bandung, Jawa Barat, Jawa, 40251, Indonesia",bank,-6.92063395,107.60664375007593,Jalan Asia Afrika,Jawa Barat,Bandung,40251,BANK MANDIRI
"Bank Mandiri, Wahid Hasyim, Panjunan, Astanaanyar, Bandung, Jawa Barat, 40232, Indonesia",bank,-6.9292022499999995,107.59733604528407,Wahid Hasyim,Jawa Barat,Bandung,40232,BANK MANDIRI
"Bank Mandiri, Jalan Punta Dewa, Catur Tunggal, Depok, Sleman, Daerah Istimewa Yogyakarta, 55821, Indonesia",bank,-7.7700086,110.4100587,Jalan Punta Dewa,Daerah Istimewa Yogyakarta,Sleman,55821,BANK MANDIRI
"Bank Mandiri, Jalan Lama, Pancur Batu, Deli Serdang, Sumatera Utara, 20138, Indonesia",bank,3.48081,98.5967815,Jalan Lama,Sumatera Utara,Deli Serdang,20138,BANK MANDIRI
"Bank Mandiri, Jalan Izak Telussa, Kel. Fakfak Selatan, Fakfak, Papua Barat, 98100, Indonesia",bank,-2.93165215,132.30714799999998,Jalan Izak Telussa,Papua Barat,Fakfak,98100,BANK MANDIRI
"Bank Mandiri, Jalan Kota Bambu Selatan, RW 09, Kota Bambu Selatan, Palmerah, Jakarta Barat, Daerah Khusus Ibukota Jakarta, Jawa, 11420, Indonesia",bank,-6.1864008,106.7979884,Jalan Kota Bambu Selatan,Daerah Khusus Ibukota Jakarta,Jakarta Barat,11420,BANK MANDIRI
"Bank Mandiri, Jalan Kyai Haji Mangun Sarkoro, RW 07, Menteng, Jakarta Pusat, Daerah Khusus Ibukota Jakarta, Jawa, 10310, Indonesia",bank,-6.20188195,106.83832544614268,Jalan Kyai Haji Mangun Sarkoro,Daerah Khusus Ibukota Jakarta,Jakarta Pusat,10310,BANK MANDIRI
"Bank Mandiri, Jalan Sisingamangaraja, Mesjid, Teladan, Medan Kota, Kota Medan, Sumatera Utara, 20215, Indonesia",bank,3.5644655,98.6926951,Jalan Sisingamangaraja,Sumatera Utara,Kota Medan,20215,BANK MANDIRI
"Bank Mandiri, 99S, Jalan Universitas, Merdeka, Padang Bulan, Medan Baru, Kota Medan, Sumatera Utara, 20155, Indonesia",bank,3.5565986,98.6605994,99S,Kota Medan,Medan Baru,20155,BANK MANDIRI
"Bank Mandiri, Gang Anggrek I, Sopalan Rejosari, Maguwoharjo, Depok, Sleman, Daerah Istimewa Yogyakarta, 55282, Indonesia",bank,-7.75903195,110.43305150003788,Gang Anggrek I,Daerah Istimewa Yogyakarta,Sleman,55282,BANK MANDIRI
"Bank Mandiri, 3, Jalan Gajah Mada, Dauh Puri Kangin, Denpasar Barat, Bali, 80232, Indonesia",bank,-8.656117049999999,115.21566162733306,3,Denpasar Barat,Dauh Puri Kangin,80232,BANK MANDIRI
"Bank Mandiri, Jalan Izak Telussa, Kel. Fakfak Selatan, Fakfak, Papua Barat, 98100, Indonesia",bank,-2.93165215,132.30714799999998,Jalan Izak Telussa,Papua Barat,Fakfak,98100,BANK MANDIRI
"Bank Mandiri, Jalan Teuku Umar, Dauh Puri Kauh, Denpasar Barat, Bali, 80114, Indonesia",bank,-8.6774175,115.20540037420727,Jalan Teuku Umar,Bali,Denpasar Barat,80114,BANK MANDIRI
"Bank Mandiri, 1, Jalan Veteran, Dauh Puri Kaja, Denpasar Utara, Bali, 80232, Indonesia",bank,-8.65535865,115.21653752198947,1,Denpasar Utara,Dauh Puri Kaja,80232,BANK MANDIRI
"Bank Mandiri, Jalan Jelambar Barat, RW 10, Jelambar Baru, Grogol Petamburan, Jakarta Barat, Daerah Khusus Ibukota Jakarta, 11710, Indonesia",bank,-6.143947600000001,106.78597969775456,Jalan Jelambar Barat,Daerah Khusus Ibukota Jakarta,Jakarta Barat,11710,BANK MANDIRI
"Bank Mandiri, 139, Jalan Siliwangi, Cirebon, Jawa Barat, 45124, Indonesia",bank,-6.7090751,108.5600363,139,Jawa Barat,Cirebon,45124,BANK MANDIRI
"Bank Mandiri, Jalan Letnan Jenderal Suprapto, RW 01, Tanjungmas, Semarang Utara, SEMARANG, Jawa Tengah, Jawa, 50174, Indonesia",bank,-6.9684536,110.42571950102528,Jalan Letnan Jenderal Suprapto,Jawa Tengah,SEMARANG,50174,BANK MANDIRI
"Bank Mandiri, Jalan Coaster, RW 14, Tanjungmas, Semarang Utara, SEMARANG, Jawa Tengah, Jawa, 50174, Indonesia",bank,-6.9482659,110.4273981,Jalan Coaster,Jawa Tengah,SEMARANG,50174,BANK MANDIRI
"Bank Mandiri, Jalan Woltermonginsidi, RW 01, Bangetayu Kulon, Genuk, SEMARANG, Jawa Tengah, Jawa, 50115, Indonesia",bank,-6.97741905,110.48062725,Jalan Woltermonginsidi,Jawa Tengah,SEMARANG,50115,BANK MANDIRI
"Bank Mandiri, Jalan Jenderal Achmad Yani, Cikole, Sukabumi, Jawa Barat, 43112, Indonesia",bank,-6.9224079,106.926768,Jalan Jenderal Achmad Yani,Jawa Barat,Sukabumi,43112,BANK MANDIRI
"Bank Mandiri, Jalan Debes, Dauh Puri Kangin, Denpasar Barat, Bali, 80232, Indonesia",bank,-8.6587809,115.2172371639164,Jalan Debes,Bali,Denpasar Barat,80232,BANK MANDIRI
"Bank Mandiri, 1, Jalan Veteran, Dauh Puri Kaja, Denpasar Utara, Bali, 80232, Indonesia",bank,-8.65535865,115.21653752198947,1,Denpasar Utara,Dauh Puri Kaja,80232,BANK MANDIRI
"Bank Mandiri, Jalan Pandanaran, RW 02, Pekunden, Semarang Tengah, SEMARANG, Jawa Tengah, Jawa, 50245, Indonesia",bank,-6.98652135,110.41544949218122,Jalan Pandanaran,Jawa Tengah,SEMARANG,50245,BANK MANDIRI
"Bank Mandiri, Jalan Ahmad Yani, RW 10, Wonodri, Semarang Selatan, SEMARANG, Jawa Tengah, Jawa, 50241, Indonesia",bank,-6.994240550000001,110.43053499999999,Jalan Ahmad Yani,Jawa Tengah,SEMARANG,50241,BANK MANDIRI
"Bank Mandiri, Jalan Pahlawan, RW 01, Mugassari, Semarang Selatan, SEMARANG, Jawa Tengah, Jawa, 50241, Indonesia",bank,-6.99208635,110.4216323,Jalan Pahlawan,Jawa Tengah,SEMARANG,50241,BANK MANDIRI
"Bank Mandiri, Jalan Suari, RW 02, Purwodinatan, Semarang Tengah, SEMARANG, Jawa Tengah, Jawa, 50174, Indonesia",bank,-6.969002550000001,110.42749605741446,Jalan Suari,Jawa Tengah,SEMARANG,50174,BANK MANDIRI
"Bank Mandiri, Jalan Jagalan, RW 03, Jagalan, Semarang Tengah, SEMARANG, Jawa Tengah, Jawa, 50124, Indonesia",bank,-6.9783364500000005,110.43111195192179,Jalan Jagalan,Jawa Tengah,SEMARANG,50124,BANK MANDIRI
"Bank Mandiri, Jalan Dokter Sutomo, RW 06, Randusari, Semarang Selatan, SEMARANG, Jawa Tengah, Jawa, 50232, Indonesia",bank,-6.9943467,110.40719646755912,Jalan Dokter Sutomo,Jawa Tengah,SEMARANG,50232,BANK MANDIRI
"Bank Mandiri, Jalan Pemuda, RW 03, Pandansari, Semarang Tengah, SEMARANG, Jawa Tengah, Jawa, 50132, Indonesia",bank,-6.975448050000001,110.41786246207464,Jalan Pemuda,Jawa Tengah,SEMARANG,50132,BANK MANDIRI
"Bank Mandiri, Jalan MGR Soegiyopranoto, RW 01, Bulustalan, Semarang Selatan, SEMARANG, Jawa Tengah, Jawa, 50245, Indonesia",bank,-6.9830778,110.40576759156778,Jalan MGR Soegiyopranoto,Jawa Tengah,SEMARANG,50245,BANK MANDIRI
"Bank Mandiri, Jalan Rumah Dinas Mandiri, RW 04, Kaliwiru, Candisari, SEMARANG, Jawa Tengah, Jawa, 50253, Indonesia",bank,-7.016301,110.42546264504529,Jalan Rumah Dinas Mandiri,Jawa Tengah,SEMARANG,50253,BANK MANDIRI
"Bank Mandiri, 1, Jalan Veteran, Dauh Puri Kaja, Denpasar Utara, Bali, 80232, Indonesia",bank,-8.65535865,115.21653752198947,1,Denpasar Utara,Dauh Puri Kaja,80232,BANK MANDIRI
"Bank Mandiri, Jalan Anggrek V, RW 05, Pekunden, Semarang Tengah, SEMARANG, Jawa Tengah, Jawa, 50241, Indonesia",bank,-6.9876341,110.4262528,Jalan Anggrek V,Jawa Tengah,SEMARANG,50241,BANK MANDIRI
"Bank Mandiri, Jalan Raung, RW 01, Gajah Mungkur, SEMARANG, Jawa Tengah, Jawa, 50231, Indonesia",bank,-7.0079762,110.4156594,Jalan Raung,Jawa Tengah,SEMARANG,50231,BANK MANDIRI
"Bank Mandiri, Jalan Abdul Rahman Saleh, RW 11, Kalipancur, Ngaliyan, SEMARANG, Jawa Tengah, Jawa, 50182, Indonesia",bank,-7.00981935,110.37861845,Jalan Abdul Rahman Saleh,Jawa Tengah,SEMARANG,50182,BANK MANDIRI
"Bank Mandiri, Jalan Kaligawe Raya, Kampus Universitas Islam Sultan Agung, Muktiharjo Lor, Genuk, SEMARANG, Jawa Tengah, Jawa, 50118, Indonesia",bank,-6.9572245,110.4565691,Jalan Kaligawe Raya,Jawa Tengah,SEMARANG,50118,BANK MANDIRI
"Bank Mandiri, Jalan Brigadir Jenderal Sudiarto, RW 05, Gemah, Pedurungan, SEMARANG, Jawa Tengah, Jawa, 50198, Indonesia",bank,-7.0087057,110.4633451,Jalan Brigadir Jenderal Sudiarto,Jawa Tengah,SEMARANG,50198,BANK MANDIRI
"Bank Mandiri, Jalan Pamularsih, RW 06, Salaman Mloyo, Semarang Barat, SEMARANG, Jawa Tengah, Jawa, 50141, Indonesia",bank,-6.9875578,110.3920541,Jalan Pamularsih,Jawa Tengah,SEMARANG,50141,BANK MANDIRI
"Bank Mandiri, Jalan Arteri Soekarno Hatta, RW 09, Tlogosari Kulon, Pedurungan, SEMARANG, Jawa Tengah, Jawa, 50196, Indonesia",bank,-6.9887077,110.4565141,Jalan Arteri Soekarno Hatta,Jawa Tengah,SEMARANG,50196,BANK MANDIRI
"Bank Mandiri, Jalan Profesor Dokter Hamka, RW 11, Purwoyoso, Ngaliyan, SEMARANG, Jawa Tengah, Jawa, 50151, Indonesia",bank,-6.9882851,110.3593679,Jalan Profesor Dokter Hamka,Jawa Tengah,SEMARANG,50151,BANK MANDIRI
"Bank Mandiri, Jalan MT. Haryono, RW 07, Peterongan, Semarang Selatan, SEMARANG, Jawa Tengah, Jawa, 50242, Indonesia",bank,-6.9949514,110.4324393,Jalan MT. Haryono,Jawa Tengah,SEMARANG,50242,BANK MANDIRI
"Bank Mandiri, 1, Jalan Veteran, Dauh Puri Kaja, Denpasar Utara, Bali, 80232, Indonesia",bank,-8.65535865,115.21653752198947,1,Denpasar Utara,Dauh Puri Kaja,80232,BANK MANDIRI
"Bank Mandiri, Jalan Cilangkap Raya, RW 03, Cilangkap, Cipayung, Jakarta Timur, Daerah Khusus Ibukota Jakarta, 13850, Indonesia",bank,-6.3380572,106.89900963313018,Jalan Cilangkap Raya,Daerah Khusus Ibukota Jakarta,Jakarta Timur,13850,BANK MANDIRI
"Bank Mandiri, Jalan Marmoyo, RW 04, Darmo, Wonokromo, Surabaya, Jawa Timur, 60421, Indonesia",bank,-7.296496749999999,112.73966826910095,Jalan Marmoyo,Jawa Timur,Surabaya,60421,BANK MANDIRI
"Bank Mandiri, Jalan Pandanaran, RW 01, Pekunden, Semarang Tengah, SEMARANG, Jawa Tengah, Jawa, 50245, Indonesia",bank,-6.9859902,110.4132441,Jalan Pandanaran,Jawa Tengah,SEMARANG,50245,BANK MANDIRI
"Bank Mandiri, Jalan Gatot Subroto Kawasan Industri, Kawasan Industri Candi, Purwoyoso, Ngaliyan, SEMARANG, Jawa Tengah, Jawa, 50818, Indonesia",bank,-6.9932037,110.3667171,Jalan Gatot Subroto Kawasan Industri,Jawa Tengah,SEMARANG,50818,BANK MANDIRI
"Bank Mandiri, Jalan Kedungmundu Raya, RW 05, Kedungmundu, Tembalang, SEMARANG, Jawa Tengah, Jawa, 50273, Indonesia",bank,-7.0233088,110.4584608,Jalan Kedungmundu Raya,Jawa Tengah,SEMARANG,50273,BANK MANDIRI
"Bank Mandiri, Jalan Gang Pinggir, RW 04, Kranggan, Semarang Tengah, SEMARANG, Jawa Tengah, Jawa, 50136, Indonesia",bank,-6.975126100000001,110.42808615,Jalan Gang Pinggir,Jawa Tengah,SEMARANG,50136,BANK MANDIRI
"Bank Mandiri, Jalan Bukit Jatisari Permai, RW 05, Jatisari, Mijen, SEMARANG, Jawa Tengah, Jawa, Indonesia",bank,-7.0719012,110.3099012,Jalan Bukit Jatisari Permai,Jawa Tengah,SEMARANG,Jawa,BANK MANDIRI
"Bank Mandiri, Jalan Colombo, Catur Tunggal, Depok, Sleman, Daerah Istimewa Yogyakarta, 55281, Indonesia",bank,-7.7778008,110.3872015,Jalan Colombo,Daerah Istimewa Yogyakarta,Sleman,55281,BANK MANDIRI
"Bank Mandiri, Jalan Subak Sari, Canggu, Badung, Bali, 90361, Indonesia",bank,-8.6634699,115.146034,Jalan Subak Sari,Bali,Badung,90361,BANK MANDIRI
"Bank Mandiri, 1, Jalan Veteran, Dauh Puri Kaja, Denpasar Utara, Bali, 80232, Indonesia",bank,-8.65535865,115.21653752198947,1,Denpasar Utara,Dauh Puri Kaja,80232,BANK MANDIRI
"Bank Mandiri, Jalan KH. Wahid Hasyim, RW 05, Kebon Kacang, Tanah Abang, Jakarta Pusat, Daerah Khusus Ibukota Jakarta, 10240, Indonesia",bank,-6.1873871,106.8171266,Jalan KH. Wahid Hasyim,Daerah Khusus Ibukota Jakarta,Jakarta Pusat,10240,BANK MANDIRI
"Bank Mandiri, Jalan Kebon Jati, RW 02, Kampung Bali, Tanah Abang, Jakarta Pusat, Daerah Khusus Ibukota Jakarta, 10250, Indonesia",bank,-6.1882755,106.8127551,Jalan Kebon Jati,Daerah Khusus Ibukota Jakarta,Jakarta Pusat,10250,BANK MANDIRI
"Bank Mandiri, Jalan Tanah Abang II, RW 04, Petojo Selatan, Gambir, Jakarta Pusat, Daerah Khusus Ibukota Jakarta, 10160, Indonesia",bank,-6.1755983,106.8145493,Jalan Tanah Abang II,Daerah Khusus Ibukota Jakarta,Jakarta Pusat,10160,BANK MANDIRI
"Bank Mandiri, Jalan Kartika Plaza, Tuban, Kuta, Badung, Bali, 80631, Indonesia",bank,-8.7339875,115.1670625,Jalan Kartika Plaza,Badung,Kuta,80631,BANK MANDIRI
"Bank Mandiri, Jalan Raya Kuta, Tuban, Kuta, Badung, Bali, 80631, Indonesia",bank,-8.733197350000001,115.17713380000001,Jalan Raya Kuta,Badung,Kuta,80631,BANK MANDIRI
"Bank Mandiri, Gang Astina, Ungasan, Kuta Selatan, Badung, Bali, 80163, Indonesia",bank,-8.80560585,115.1589505,Gang Astina,Badung,Kuta Selatan,80163,BANK MANDIRI
"Bank Mandiri, 1, Jalan Veteran, Dauh Puri Kaja, Denpasar Utara, Bali, 80232, Indonesia",bank,-8.65535865,115.21653752198947,1,Denpasar Utara,Dauh Puri Kaja,80232,BANK MANDIRI
"Bank Mandiri, Jalan Perniagaan Timur IV, RW 01, Roa Malaka, Tambora, Jakarta Barat, Daerah Khusus Ibukota Jakarta, 11120, Indonesia",bank,-6.1398135,106.8099725,Jalan Perniagaan Timur IV,Daerah Khusus Ibukota Jakarta,Jakarta Barat,11120,BANK MANDIRI
"Bank Mandiri, Jalan Kalibata Selatan, RW 06, Kalibata, Pancoran, Jakarta Selatan, Daerah Khusus Ibukota Jakarta, 12740, Indonesia",bank,-6.26262625,106.84288729918424,Jalan Kalibata Selatan,Daerah Khusus Ibukota Jakarta,Jakarta Selatan,12740,BANK MANDIRI
"Bank Mandiri, Jalan Diponegoro, Bumijo, Jetis, Kota Yogyakarta, Daerah Istimewa Yogyakarta, 55231, Indonesia",bank,-7.78328225,110.3617870788938,Jalan Diponegoro,Daerah Istimewa Yogyakarta,Kota Yogyakarta,55231,BANK MANDIRI
"Bank Mandiri, Jalan Nusantara Raya, Depok Jaya, Pancoran Mas, Depok, Bogor, Jawa Barat, Jawa, 16432, Indonesia",bank,-6.3909637,106.8143332,Jalan Nusantara Raya,Jawa Barat,Bogor,16432,BANK MANDIRI
"Bank Mandiri, Jalan Bintaro Tengah, RW 09, Rengas, Ciputat Timur, Tangerang Selatan, Banten, 15412, Indonesia",bank,-6.2775902,106.7527771,Jalan Bintaro Tengah,Tangerang Selatan,Ciputat Timur,15412,BANK MANDIRI
"Bank Mandiri, Jalan Raya Sruwen-Karanggede, SUSUKAN, Boyolali, Jawa Tengah, Jawa, Indonesia",bank,-7.3657862,110.6387948,Jalan Raya Sruwen-Karanggede,Jawa Tengah,Boyolali,Jawa,BANK MANDIRI
"Bank Mandiri, 1, Jalan Veteran, Dauh Puri Kaja, Denpasar Utara, Bali, 80232, Indonesia",bank,-8.65535865,115.21653752198947,1,Denpasar Utara,Dauh Puri Kaja,80232,BANK MANDIRI
"Bank Mandiri, Jalan Kapten Pierre Tendean, Gilingan, Surakarta, Jawa Tengah, Jawa, 57135, Indonesia",bank,-7.5425338,110.8201571,Jalan Kapten Pierre Tendean,Jawa Tengah,Surakarta,57135,BANK MANDIRI
"Bank Mandiri, Jalan Boulevard, Masale, Panakkukang, Makassar, Sulawesi Selatan, 90231, Indonesia",bank,-5.1563314,119.44610965,Jalan Boulevard,Sulawesi Selatan,Makassar,90231,BANK MANDIRI
"Bank Mandiri, Jalan Diponegoro, Pancuran, Kutowinangun Lor, Salatiga, Jawa Tengah, Jawa, 50711, Indonesia",bank,-7.32179835,110.501119605,Jalan Diponegoro,Jawa Tengah,Salatiga,50711,BANK MANDIRI
"Bank Mandiri, 17, Tlobong, Klaten, Jawa Tengah, Jawa, 57471, Indonesia",bank,-7.6159171,110.700611,17,Jawa Tengah,Klaten,57471,BANK MANDIRI
"Bank Mandiri, Jalan Jenderal Ahmad Yani, KARTASURA, Sukoharjo, Jawa Tengah, Jawa, 57165, Indonesia",bank,-7.5507291,110.7389038,Jalan Jenderal Ahmad Yani,Jawa Tengah,Sukoharjo,57165,BANK MANDIRI
"Bank Mandiri, 1, Jalan Veteran, Dauh Puri Kaja, Denpasar Utara, Bali, 80232, Indonesia",bank,-8.65535865,115.21653752198947,1,Denpasar Utara,Dauh Puri Kaja,80232,BANK MANDIRI
"Bank Mandiri, Jalan Jenderal Ahmad Yani, KARTASURA, Sukoharjo, Jawa Tengah, Jawa, 57165, Indonesia",bank,-7.5523531,110.7418391,Jalan Jenderal Ahmad Yani,Jawa Tengah,Sukoharjo,57165,BANK MANDIRI
"Bank Mandiri, 1, Jalan Veteran, Dauh Puri Kaja, Denpasar Utara, Bali, 80232, Indonesia",bank,-8.65535865,115.21653752198947,1,Denpasar Utara,Dauh Puri Kaja,80232,BANK MANDIRI
"Bank Mandiri, Jalan Mahendradatta, Padangsambian Klod, Padangsambian Kelod, Denpasar Barat, Bali, Nusa Tenggara, 80119, Indonesia",bank,-8.6794627,115.19025,Jalan Mahendradatta,Nusa Tenggara,Bali,80119,BANK MANDIRI
"Bank Mandiri, Jalan Profesor Dokter Satrio, RW 02, Kuningan Timur, Setiabudi, Jakarta Selatan, Daerah Khusus Ibukota Jakarta, 12940, Indonesia",bank,-6.225191,106.8283707,Jalan Profesor Dokter Satrio,Daerah Khusus Ibukota Jakarta,Jakarta Selatan,12940,BANK MANDIRI
"Bank Mandiri, Jalan KH. Fakhrudin, RW 07, Kampung Bali, Tanah Abang, Jakarta Pusat, Daerah Khusus Ibukota Jakarta, 10250, Indonesia",bank,-6.184416000000001,106.81588415,Jalan KH. Fakhrudin,Daerah Khusus Ibukota Jakarta,Jakarta Pusat,10250,BANK MANDIRI
"Bank Mandiri, Jalan Pembangunan II, RW 02, Petojo Utara, Gambir, Jakarta Pusat, Daerah Khusus Ibukota Jakarta, 10160, Indonesia",bank,-6.1628239,106.8188755,Jalan Pembangunan II,Daerah Khusus Ibukota Jakarta,Jakarta Pusat,10160,BANK MANDIRI
"Bank Mandiri, Jalan Batu Tulis XII, RW 02, Kebon Kelapa, Gambir, Jakarta Pusat, Daerah Khusus Ibukota Jakarta, 10120, Indonesia",bank,-6.1640667,106.8236802,Jalan Batu Tulis XII,Daerah Khusus Ibukota Jakarta,Jakarta Pusat,10120,BANK MANDIRI
"Bank Mandiri, Jalan Kiai Haji Zainul Arifin, RW 07, Krukut, Taman Sari, Jakarta Barat, Daerah Khusus Ibukota Jakarta, 11140, Indonesia",bank,-6.159689,106.8181695,Jalan Kiai Haji Zainul Arifin,Daerah Khusus Ibukota Jakarta,Jakarta Barat,11140,BANK MANDIRI
"Bank Mandiri, Jalan Buah Batu, Cijagra, Lengkong, Bandung, Jawa Barat, 40264, Indonesia",bank,-6.945293700000001,107.63030272024801,Jalan Buah Batu,Jawa Barat,Bandung,40264,BANK MANDIRI
"Bank Mandiri, Jalan Bank Rakyat, Kertak Baru Ulu, Banjarmasin Tengah, Banjarmasin, Kalimantan Selatan, 70111, Indonesia",bank,-3.3218685,114.59249824390471,Jalan Bank Rakyat,Kalimantan Selatan,Banjarmasin,70111,BANK MANDIRI
"Bank Mandiri, Jalan Mahendradatta, Padangsambian Klod, Padangsambian Kelod, Denpasar Barat, Bali, Nusa Tenggara, 80119, Indonesia",bank,-8.6794627,115.19025,Jalan Mahendradatta,Nusa Tenggara,Bali,80119,BANK MANDIRI
"Bank Mandiri, Jalan Lorong 104 Timur, RW 02, Koja, Jakarta Utara, Daerah Khusus Ibukota Jakarta, 14220, Indonesia",bank,-6.1142232,106.89362724250608,Jalan Lorong 104 Timur,Daerah Khusus Ibukota Jakarta,Jakarta Utara,14220,BANK MANDIRI
"Bank Mandiri, Jalan Pejagalan Raya, RW 04, Pekojan, Tambora, Jakarta Barat, Daerah Khusus Ibukota Jakarta, 11240, Indonesia",bank,-6.1382936,106.80703264839883,Jalan Pejagalan Raya,Daerah Khusus Ibukota Jakarta,Jakarta Barat,11240,BANK MANDIRI
"Bank Mandiri, Jalan Raya Bogor, RW 03, Pekayon, Pasar Rebo, Jakarta Timur, Daerah Khusus Ibukota Jakarta, 13730, Indonesia",bank,-6.35030345,106.86431164608052,Jalan Raya Bogor,Daerah Khusus Ibukota Jakarta,Jakarta Timur,13730,BANK MANDIRI
"Bank Mandiri, Jalan Genteng Kali, RW 06, Genteng, Surabaya, Jawa Timur, 60274, Indonesia",bank,-7.25660225,112.73889825,Jalan Genteng Kali,Jawa Timur,Surabaya,60274,BANK MANDIRI
"Bank Mandiri, Jalan Baliwerti, RW 05, Alon-Alon Contong, Bubutan, Surabaya, Jawa Timur, 60179, Indonesia",bank,-7.2524856,112.73594765,Jalan Baliwerti,Jawa Timur,Surabaya,60179,BANK MANDIRI
"Bank Mandiri, Jalan Kantor Pos, Mekarsari, Banjar, Jawa Barat, 46322, Indonesia",bank,-7.3742512,108.54169005,Jalan Kantor Pos,Jawa Barat,Banjar,46322,BANK MANDIRI
"Bank Mandiri, Jalan Solo - Purwodadi, Krendowahono, Sragen, Jawa Tengah, Jawa, 57274, Indonesia",bank,-7.3980021,110.8265839,Jalan Solo - Purwodadi,Jawa Tengah,Sragen,57274,BANK MANDIRI
"Bank Mandiri, Jalan Uluwatu 2, Jimbaran, Kuta Selatan, Badung, Bali, 80364, Indonesia",bank,-8.78359175,115.1727162433919,Jalan Uluwatu 2,Badung,Kuta Selatan,80364,BANK MANDIRI
"Bank Mandiri, Jalan Mahendradatta, Padangsambian Klod, Padangsambian Kelod, Denpasar Barat, Bali, Nusa Tenggara, 80119, Indonesia",bank,-8.6794627,115.19025,Jalan Mahendradatta,Nusa Tenggara,Bali,80119,BANK MANDIRI
"Bank Mandiri, Jalan Basuki Rachmad, Kutorejo, Tuban, Jawa Timur, Jawa, 62318, Indonesia",bank,-6.8998776,112.06203723036828,Jalan Basuki Rachmad,Jawa Timur,Tuban,62318,BANK MANDIRI
"Bank Mandiri, Jalan P. Diponegoro, Lubuk Pakam I-II, Lubuk Pakam, Deli Serdang, Sumatera Utara, Indonesia",bank,3.5587521000000004,98.86806674064734,Jalan P. Diponegoro,Deli Serdang,Lubuk Pakam,Sumatera Utara,BANK MANDIRI
"Bank Mandiri, Jalan Mahendradatta, Padangsambian Klod, Padangsambian Kelod, Denpasar Barat, Bali, Nusa Tenggara, 80119, Indonesia",bank,-8.6794627,115.19025,Jalan Mahendradatta,Nusa Tenggara,Bali,80119,BANK MANDIRI
"Bank Mandiri, Jalan Abdulah Soulisa, Ampera, Maluku Tengah, Maluku, 97512, Indonesia",bank,-3.29972715,128.95437950000002,Jalan Abdulah Soulisa,Maluku,Maluku Tengah,97512,BANK MANDIRI
"Bank Mandiri, Jalan Bedeng Raya, RW 09, Manggarai, Tebet, Jakarta Selatan, Daerah Khusus Ibukota Jakarta, Jawa, 12850, Indonesia",bank,-6.214783,106.8444243,Jalan Bedeng Raya,Daerah Khusus Ibukota Jakarta,Jakarta Selatan,12850,BANK MANDIRI
"Bank Mandiri, Jalan Viaduct, Braga, Sumur Bandung, Bandung, Jawa Barat, Jawa, 40111, Indonesia",bank,-6.91537705,107.60858785053182,Jalan Viaduct,Jawa Barat,Bandung,40111,BANK MANDIRI
"Bank Mandiri, Jalan K. L. Yos Sudarso, Medan Barat, Kota Medan, Sumatera Utara, 20239, Indonesia",bank,3.6300448000000003,98.66948595,Jalan K. L. Yos Sudarso,Sumatera Utara,Kota Medan,20239,BANK MANDIRI
"Bank Mandiri, Jalan Haji Oemar Said Cokrominoto, Demaan, Jepara, Jawa Tengah, Jawa, 59417, Indonesia",bank,-6.59476525,110.66509922633388,Jalan Haji Oemar Said Cokrominoto,Jawa Tengah,Jepara,59417,BANK MANDIRI
"Bank Mandiri, Jalan Diponegoro, PATI, Pati, Jawa Tengah, Jawa, 59112, Indonesia",bank,-6.74773375,111.02908963194588,Jalan Diponegoro,Jawa Tengah,Pati,59112,BANK MANDIRI
"Bank Mandiri, Jalan Ahmad Yani, RT. 01, Kelurahan Tanah Datar, Kabupaten Kampar, Riau, Sumatera, 23457, Indonesia",bank,0.5197221,101.44452779768216,Jalan Ahmad Yani,Kabupaten Kampar,Kelurahan Tanah Datar,23457,BANK MANDIRI
"Bank Mandiri, Jalan Bypass Gatot Subroto, Dangin Puri Kaja, Denpasar Utara, Bali, 80115, Indonesia",bank,-8.6359645,115.220214,Jalan Bypass Gatot Subroto,Bali,Denpasar Utara,80115,BANK MANDIRI
"BANK MANDIRI, 131, Kedungjenar, Blora, Jawa Tengah, Jawa, Indonesia",bank,-6.9697864,111.41312365353402,131,Jawa Tengah,Blora,Jawa,BANK MANDIRI
"BANK MANDIRI, 131, Kedungjenar, Blora, Jawa Tengah, Jawa, Indonesia",bank,-6.9697014,111.4131396,131,Jawa Tengah,Blora,Jawa,BANK MANDIRI
"Bank Mandiri, Jalan Taman Siswa, Universitas Negeri Semarang, Sekaran, Gunung Pati, SEMARANG, Jawa Tengah, Jawa, 50229, Indonesia",bank,-7.0486233,110.3959499,Jalan Taman Siswa,Jawa Tengah,SEMARANG,50229,BANK MANDIRI
"Bank Mandiri, Jalan Rasamala Raya, RW 06, Srondol Wetan, Banyumanik, SEMARANG, Jawa Tengah, Jawa, 50265, Indonesia",bank,-7.0685566,110.417958,Jalan Rasamala Raya,Jawa Tengah,SEMARANG,50265,BANK MANDIRI
"Bank Mandiri, Jalan Setia Budi, RW 02, Sumurboto, Banyumanik, SEMARANG, Jawa Tengah, Jawa, 50259, Indonesia",bank,-7.0605285,110.4141466,Jalan Setia Budi,Jawa Tengah,SEMARANG,50259,BANK MANDIRI
"Bank Mandiri, Jalan Raya Rembang - Lasem, Karangturi, Rembang, Jawa Tengah, Jawa, Indonesia",bank,-6.69723765,111.44371847746433,Jalan Raya Rembang - Lasem,Jawa Tengah,Rembang,Jawa,BANK MANDIRI
"Bank Mandiri, Jalan Sukowati, SRAGEN, Sragen, Jawa Tengah, Jawa, 57214, Indonesia",bank,-7.42758685,111.02298505318495,Jalan Sukowati,Jawa Tengah,Sragen,57214,BANK MANDIRI
"Bank Mandiri, Jalan Kates, BOYOLOALI, Boyolali, Jawa Tengah, Jawa, 57313, Indonesia",bank,-7.534755,110.6009026,Jalan Kates,Jawa Tengah,Boyolali,57313,BANK MANDIRI
"Bank Mandiri, Jl. Ahmad Yani, UNGARAN, Semarang, Jawa Tengah, Jawa, 50514, Indonesia",bank,-7.1340144,110.4096652,Jl. Ahmad Yani,Jawa Tengah,Semarang,50514,BANK MANDIRI
"Bank Mandiri, Jalan Bypass Gatot Subroto, Dangin Puri Kaja, Denpasar Utara, Bali, 80115, Indonesia",bank,-8.6359645,115.220214,Jalan Bypass Gatot Subroto,Bali,Denpasar Utara,80115,BANK MANDIRI
"Bank Mandiri, Jalan RS Fatmawati, RW 05, Cipete Utara, Kebayoran Baru, Jakarta Selatan, Daerah Khusus Ibukota Jakarta, 12140, Indonesia",bank,-6.2636574,106.7978718,Jalan RS Fatmawati,Daerah Khusus Ibukota Jakarta,Jakarta Selatan,12140,BANK MANDIRI
"Bank Mandiri, Jalan Karomah Mohammad Mansyur, RW 05, Tanah Sereal, Tambora, Jakarta Barat, Daerah Khusus Ibukota Jakarta, 11270, Indonesia",bank,-6.1504433,106.8078603,Jalan Karomah Mohammad Mansyur,Daerah Khusus Ibukota Jakarta,Jakarta Barat,11270,BANK MANDIRI
"Bank Mandiri, Jalan Tongkol, Bumi Waras, Bandar Lampung, Lampung, 34223, Indonesia",bank,-5.4480988,105.2648635,Jalan Tongkol,Lampung,Bandar Lampung,34223,BANK MANDIRI
"Bank Mandiri, Gang Tirtomulyo, RW 03, Pedalangan, Banyumanik, SEMARANG, Jawa Tengah, Jawa, 50268, Indonesia",bank,-7.054918,110.4321730026391,Gang Tirtomulyo,Jawa Tengah,SEMARANG,50268,BANK MANDIRI
"Bank Mandiri, Jalan Tol Serpong–Balaraja, BSD City, Kabupaten Tangerang, Banten, Jawa, 15310, Indonesia",bank,-6.3017403,106.6532666,Jalan Tol Serpong–Balaraja,Banten,Kabupaten Tangerang,15310,BANK MANDIRI
"Bank Mandiri, Jalan Bypass Gatot Subroto, Dangin Puri Kaja, Denpasar Utara, Bali, 80115, Indonesia",bank,-8.6359645,115.220214,Jalan Bypass Gatot Subroto,Bali,Denpasar Utara,80115,BANK MANDIRI
"Bank Mandiri, Jalan Boulevard Raya, RW 14, Cengkareng Timur, Cengkareng, Jakarta Barat, Daerah Khusus Ibukota Jakarta, Jawa, 11730, Indonesia",bank,-6.1363305,106.7324138,Jalan Boulevard Raya,Daerah Khusus Ibukota Jakarta,Jakarta Barat,11730,BANK MANDIRI
"Bank Mandiri, Jalan Rumah Sakit, Pasteur, Sukasari, Bandung, Jawa Barat, 40161, Indonesia",bank,-6.9000501,107.5992194,Jalan Rumah Sakit,Jawa Barat,Bandung,40161,BANK MANDIRI
"Bank Mandiri, Jalan Tanjung Pura, Darat Sekip, Pontianak Kota, Pontianak, Kalimantan Barat, 78243, Indonesia",bank,-0.02473175,109.34146277218835,Jalan Tanjung Pura,Kalimantan Barat,Pontianak,78243,BANK MANDIRI
"Bank Mandiri, 151, Jalan Jenderal Sudirman, Pekanbaru, Kabupaten Kampar, Riau, 28144, Indonesia",bank,0.5319843,101.447233,151,Kabupaten Kampar,Pekanbaru,28144,BANK MANDIRI
"Bank Mandiri, Jalan Pembangunan, Harapan, Pemangkat, Sambas, Kalimantan Barat, 79453, Indonesia",bank,1.1783206,108.9778443,Jalan Pembangunan,Kalimantan Barat,Sambas,79453,BANK MANDIRI
"Bank Mandiri, Jalan Bypass Gatot Subroto, Dangin Puri Kaja, Denpasar Utara, Bali, 80115, Indonesia",bank,-8.6359645,115.220214,Jalan Bypass Gatot Subroto,Bali,Denpasar Utara,80115,BANK MANDIRI
"Bank Mandiri, Jalan Kartini, Durian Payung, Bandar Lampung, Lampung, 35121, Indonesia",bank,-5.4141901,105.2551339,Jalan Kartini,Lampung,Bandar Lampung,35121,BANK MANDIRI
"Bank Mandiri, 139, Jalan Siliwangi, Cirebon, Jawa Barat, 45124, Indonesia",bank,-6.7089257,108.5603859,139,Jawa Barat,Cirebon,45124,BANK MANDIRI
"Bank Mandiri, Jalan Gajah Mada, Benua Melayu Darat, Pontianak Selatan, Pontianak, Kalimantan Barat, 78117, Indonesia",bank,-0.03930005,109.34426977931905,Jalan Gajah Mada,Kalimantan Barat,Pontianak,78117,BANK MANDIRI
"Bank Mandiri, Gang Veteran, Mekarsari, Banjar, Jawa Barat, 46300, Indonesia",bank,-7.3724064,108.54154771469408,Gang Veteran,Jawa Barat,Banjar,46300,BANK MANDIRI
"Bank Mandiri, Jalan Jenderal Sudirman, Tanjung, Purwokerto, Banyumas, Jawa Tengah, 53116, Indonesia",bank,-7.4253900999999995,109.23243084063455,Jalan Jenderal Sudirman,Jawa Tengah,Banyumas,53116,BANK MANDIRI
"Bank Mandiri, Jalan Jenderal Ahmad Yani, RW 14 Kelurahan Sidakaya, Desa Tambakreja, Cilacap, Jawa Tengah, 53222, Indonesia",bank,-7.73150175,109.0099661,Jalan Jenderal Ahmad Yani,Jawa Tengah,Cilacap,53222,BANK MANDIRI
"Bank Mandiri, Jalan MT. Haryono, Tuk Karangsuwung, Jawa Barat, 45181, Indonesia",bank,-6.82959245,108.62823552002095,Jalan MT. Haryono,Jawa Barat,Tuk Karangsuwung,45181,BANK MANDIRI
"Bank Mandiri, Jalan Kartini, Durian Payung, Bandar Lampung, Lampung, 35121, Indonesia",bank,-5.4141901,105.2551339,Jalan Kartini,Lampung,Bandar Lampung,35121,BANK MANDIRI
"Bank Mandiri, Jalan Pluit Karang Utara, RW 18, Pluit, Penjaringan, Jakarta Utara, Daerah Khusus Ibukota Jakarta, 14440, Indonesia",bank,-6.111347,106.7771101,Jalan Pluit Karang Utara,Daerah Khusus Ibukota Jakarta,Jakarta Utara,14440,BANK MANDIRI
"Bank Mandiri, Jalan Insinyur Haji Juanda, RW 03, Kebon Kelapa, Gambir, Jakarta Pusat, Daerah Khusus Ibukota Jakarta, 10120, Indonesia",bank,-6.1667802,106.8254601,Jalan Insinyur Haji Juanda,Daerah Khusus Ibukota Jakarta,Jakarta Pusat,10120,BANK MANDIRI
"Bank Mandiri, Jalan Surapati, Citarum, Bandung Wetan, Bandung, Jawa Barat, Jawa, 40132, Indonesia",bank,-6.899322,107.6167588,Jalan Surapati,Jawa Barat,Bandung,40132,BANK MANDIRI
"Bank Mandiri, Jalan Citarum, Citarum, Bandung Wetan, Bandung, Jawa Barat, 40113, Indonesia",bank,-6.9057003,107.621093,Jalan Citarum,Jawa Barat,Bandung,40113,BANK MANDIRI
"BANK MANDIRI, Jalan Kiara Condong, Kebonwaru, Batununggal, Bandung, Jawa Barat, Jawa, 40272, Indonesia",bank,-6.9155124,107.6441032,Jalan Kiara Condong,Jawa Barat,Bandung,40272,BANK MANDIRI
"Bank Mandiri, 139, Jalan Siliwangi, Cirebon, Jawa Barat, 45124, Indonesia",bank,-6.7089923,108.5602111,139,Jawa Barat,Cirebon,45124,BANK MANDIRI
"Bank Mandiri, Jalan Jenderal Ahmad Yani, RW 14 Kelurahan Sidakaya, Desa Tambakreja, Cilacap, Jawa Tengah, 53222, Indonesia",bank,-7.73168385,109.00976745,Jalan Jenderal Ahmad Yani,Jawa Tengah,Cilacap,53222,BANK MANDIRI
"Bank Mandiri, Jalan Merdeka, Tanjung Pandan, Belitung, Kepulauan Bangka Belitung, 33412, Indonesia",bank,-2.7407329000000002,107.6334962713226,Jalan Merdeka,Kepulauan Bangka Belitung,Belitung,33412,BANK MANDIRI
"Bank Mandiri, Jalan Bulevar Utara Kelapa Gading, RW 01, Kelapa Gading Timur, Kelapa Gading, Jakarta Utara, Daerah Khusus Ibukota Jakarta, 14240, Indonesia",bank,-6.1747103,106.8959856,Jalan Bulevar Utara Kelapa Gading,Daerah Khusus Ibukota Jakarta,Jakarta Utara,14240,BANK MANDIRI
"Bank Mandiri, 118, Jalan Asia Afrika, Kebon Pisang, Sumur Bandung, Bandung, Jawa Barat, 40261, Indonesia",bank,-6.92223875,107.61256040343511,118,Jawa Barat,Bandung,40261,BANK MANDIRI
"Bank Mandiri, Jalan Laksamana Laut Raden Eddy Martadinata, Citarum, Bandung Wetan, Bandung, Jawa Barat, Jawa, 40113, Indonesia",bank,-6.9056137,107.6209436742175,Jalan Laksamana Laut Raden Eddy Martadinata,Jawa Barat,Bandung,40113,BANK MANDIRI
"Bank Mandiri, Jalan Insinyur Haji Juanda, Citarum, Bandung Wetan, Bandung, Jawa Barat, Jawa, 40116, Indonesia",bank,-6.9030517499999995,107.61168915,Jalan Insinyur Haji Juanda,Jawa Barat,Bandung,40116,BANK MANDIRI
"Bank Mandiri, Jalan Sumatra, Medan Belawan, Kota Medan, Sumatera Utara, 20253, Indonesia",bank,3.7823843,98.6878851235647,Jalan Sumatra,Sumatera Utara,Kota Medan,20253,BANK MANDIRI
"Bank Mandiri, Gang Sastradinata, Tritan Point, Cipadung Wetan, Panyileukan, Bandung, Jawa Barat, Jawa, 40614, Indonesia",bank,-6.9305888,107.71218345,Gang Sastradinata,Jawa Barat,Bandung,40614,BANK MANDIRI
"Bank Mandiri, Jalan Dokter Sutomo, Lingkungan Krajan Kelurahan Kepatihan, Kelurahan Kepatihan, Banyuwangi, Jawa Timur, 68411, Indonesia",bank,-8.21349865,114.37592834890009,Jalan Dokter Sutomo,Jawa Timur,Banyuwangi,68411,BANK MANDIRI
"Bank Mandiri, Jalan Jendral Achmad Yani, Pucang, Sidoarjo, Jawa Timur, 61219, Indonesia",bank,-7.44506815,112.71953074579505,Jalan Jendral Achmad Yani,Jawa Timur,Sidoarjo,61219,BANK MANDIRI
"Bank Mandiri, Jalan Merdeka, Tanjung Pandan, Belitung, Kepulauan Bangka Belitung, 33412, Indonesia",bank,-2.7407329000000002,107.6334962713226,Jalan Merdeka,Kepulauan Bangka Belitung,Belitung,33412,BANK MANDIRI
"Bank Mandiri, Jalan Bulevar Utara Kelapa Gading, RW 18, Kelapa Gading Timur, Kelapa Gading, Jakarta Utara, Daerah Khusus Ibukota Jakarta, 14240, Indonesia",bank,-6.1582835,106.9063711,Jalan Bulevar Utara Kelapa Gading,Daerah Khusus Ibukota Jakarta,Jakarta Utara,14240,BANK MANDIRI
"Bank Mandiri, Jalan Pangeran Diponegoro, RW 05, Kenari, Senen, Jakarta Pusat, Daerah Khusus Ibukota Jakarta, 10430, Indonesia",bank,-6.1970284,106.847687,Jalan Pangeran Diponegoro,Daerah Khusus Ibukota Jakarta,Jakarta Pusat,10430,BANK MANDIRI
"Bank Mandiri, Jalan Boulevard Barat, RW 07, Kelapa Gading Barat, Kelapa Gading, Jakarta Utara, Daerah Khusus Ibukota Jakarta, Jawa, 14240, Indonesia",bank,-6.1561928,106.8985766,Jalan Boulevard Barat,Daerah Khusus Ibukota Jakarta,Jakarta Utara,14240,BANK MANDIRI
"Bank Mandiri, Skywalk Cihampelas Bandung, Cipaganti, Coblong, Bandung, Jawa Barat, 40131, Indonesia",bank,-6.8936697,107.60432020194213,Skywalk Cihampelas Bandung,Jawa Barat,Bandung,40131,BANK MANDIRI
"Bank Mandiri, Jalan Merdeka, Tanjung Pandan, Belitung, Kepulauan Bangka Belitung, 33412, Indonesia",bank,-2.7407329000000002,107.6334962713226,Jalan Merdeka,Kepulauan Bangka Belitung,Belitung,33412,BANK MANDIRI
"Bank Mandiri, Jalan Raya Cisoka, Selapajang, Kabupaten Tangerang, Banten, Jawa, 15730, Indonesia",bank,-6.263057,106.4227514,Jalan Raya Cisoka,Banten,Kabupaten Tangerang,15730,BANK MANDIRI
"Bank Mandiri, Jalan Raya Perancis, Benda, Tangerang, Kabupaten Tangerang, Banten, 15125, Indonesia",bank,-6.0990718,106.6872497,Jalan Raya Perancis,Kabupaten Tangerang,Tangerang,15125,BANK MANDIRI
"Bank Mandiri, Jalan Bypass Gatot Subroto, Ubung, Denpasar Utara, Bali, 80116, Indonesia",bank,-8.6360045,115.1938632,Jalan Bypass Gatot Subroto,Bali,Denpasar Utara,80116,BANK MANDIRI
"Bank Mandiri, Jalan Proyek, Biak Numfor, Papua, 98115, Indonesia",bank,-1.184514,136.0823245,Jalan Proyek,Biak Numfor,Jalan Proyek,98115,BANK MANDIRI
"Bank Mandiri, Jalan Trikora, Wamena Kota, Potikelek, Wamena, Jayawijaya, Papua Pegunungan, 99511, Indonesia",bank,-4.0920139,138.9463918,Jalan Trikora,Papua Pegunungan,Jayawijaya,99511,BANK MANDIRI
"Bank Mandiri, Jalan Jenderal Sudirman, Sanggeng, Manokwari, Papua Barat, 98312, Indonesia",bank,-0.8670105,134.0652619,Jalan Jenderal Sudirman,Papua Barat,Manokwari,98312,BANK MANDIRI
"BANK Mandiri, Jalan Dokter Sutomo, Sawang Bendar, Tahuna, Kepulauan Sangihe, Sulawesi Utara, Indonesia",bank,3.6107133,125.49043335363426,Jalan Dokter Sutomo,Kepulauan Sangihe,Tahuna,Sulawesi Utara,BANK MANDIRI
"Bank Mandiri, Kemiri, Hinekombe, Sentani, Jayapura, Papua, 99532, Indonesia",bank,-2.5606881,140.4951515,Kemiri,Jayapura,Sentani,99532,BANK MANDIRI
"Bank Mandiri, Jalan Bypass Gatot Subroto, Ubung, Denpasar Utara, Bali, 80116, Indonesia",bank,-8.6360045,115.1938632,Jalan Bypass Gatot Subroto,Bali,Denpasar Utara,80116,BANK MANDIRI
"Bank Mandiri, Jalan Budi Utomo, Timika, Mimika, Papua Tengah, 99971, Indonesia",bank,-4.54750415,136.88593512914008,Jalan Budi Utomo,Papua Tengah,Mimika,99971,BANK MANDIRI
"Bank Mandiri, Jalan Raya Bandara, Penfui, Kupang, Nusa Tenggara Timur, 86531, Indonesia",bank,-10.16884,123.6672214,Jalan Raya Bandara,Nusa Tenggara Timur,Kupang,86531,BANK MANDIRI
"Bank Mandiri, Jalan Sultan Hasanuddin, Kendari, Sulawesi Tenggara, 93121, Indonesia",bank,-3.9667534,122.5622729,Jalan Sultan Hasanuddin,Sulawesi Tenggara,Kendari,93121,BANK MANDIRI
"Bank Mandiri, Jalan Brigjen M. Yoenoes, Kadia, Kendari, Sulawesi Tenggara, 93117, Indonesia",bank,-3.992279,122.5141527,Jalan Brigjen M. Yoenoes,Sulawesi Tenggara,Kendari,93117,BANK MANDIRI
"Bank Mandiri, Jalan Mayjen Donald Isaac Panjaitan, Kendari, Sulawesi Tenggara, 93117, Indonesia",bank,-4.0238269,122.5036597,Jalan Mayjen Donald Isaac Panjaitan,Sulawesi Tenggara,Kendari,93117,BANK MANDIRI
"Bank Mandiri, Jalan G. Gamalama, Sorowako, Luwu Timur, Nikkel, Sulawesi Selatan, 92983, Indonesia",bank,-2.5272271,121.358983,Jalan G. Gamalama,Sulawesi Selatan,Nikkel,92983,BANK MANDIRI
"Bank Mandiri, Jalan Trans Sulawesi, Luwu Timur, Baruga, Sulawesi Selatan, Indonesia",bank,-2.6175017,121.10603758615696,Jalan Trans Sulawesi,Luwu Timur,Jalan Trans Sulawesi,Sulawesi Selatan,BANK MANDIRI
"BANK MANDIRI, Jalan Baso Dg. Patompo, Ujung Sabbang, Parepare, Sulawesi Selatan, Sulawesi, 91111, Indonesia",bank,-4.0068677,119.62234685,Jalan Baso Dg. Patompo,Sulawesi Selatan,Parepare,91111,BANK MANDIRI
"Bank Mandiri, Jalan Veteran, Ujung Sabbang, Parepare, Sulawesi Selatan, 91111, Indonesia",bank,-4.01085055,119.62264022391781,Jalan Veteran,Sulawesi Selatan,Parepare,91111,BANK MANDIRI
"BANK MANDIRI, Jalan Abu Bakar, Ujung Sabbang, Parepare, Sulawesi Selatan, 91111, Indonesia",bank,-4.00853565,119.6217319129228,Jalan Abu Bakar,Sulawesi Selatan,Parepare,91111,BANK MANDIRI
"Bank Mandiri, Jalan Bataraguru, Kanakea Dalam, Baubau, Sulawesi Tenggara, 97326, Indonesia",bank,-5.4621355000000005,122.60270925187075,Jalan Bataraguru,Sulawesi Tenggara,Baubau,97326,BANK MANDIRI
"Bank Mandiri, Jalan Trans Sulawesi, Luwu Utara, Desa Patoloan, Sulawesi Selatan, 92966, Indonesia",bank,-2.6016863,120.5156203,Jalan Trans Sulawesi,Sulawesi Selatan,Desa Patoloan,92966,BANK MANDIRI
"Bank Mandiri, Jalan Khairil Anwar, Lamokato, Sulawesi Tenggara, Indonesia",bank,-4.0583777,121.5987505,Jalan Khairil Anwar,Jalan Khairil Anwar,Bank Mandiri,Sulawesi Tenggara,BANK MANDIRI
"BANK MANDIRI, Jalan TA. Gani, Bantaeng, Sulawesi Selatan, 92412, Indonesia",bank,-5.5415358,119.9401151,Jalan TA. Gani,Sulawesi Selatan,Bantaeng,92412,BANK MANDIRI
"Bank Mandiri, Jalan Perintis Kemerdekaan, Berua, Biringkanaya, Makassar, Sulawesi Selatan, 90241, Indonesia",bank,-5.1191434000000005,119.51087689670466,Jalan Perintis Kemerdekaan,Sulawesi Selatan,Makassar,90241,BANK MANDIRI
"Bank Mandiri, Jalan Andalas, Parang Layang, Bontoala, Makassar, Sulawesi Selatan, 90115, Indonesia",bank,-5.1251547,119.418563,Jalan Andalas,Sulawesi Selatan,Makassar,90115,BANK MANDIRI
"Bank Mandiri, Jalan Topaz, Masale, Panakkukang, Makassar, Sulawesi Selatan, 92300, Indonesia",bank,-5.1549757,119.4386803,Jalan Topaz,Sulawesi Selatan,Makassar,92300,BANK MANDIRI
"Bank Mandiri, Jalan Nusakambangan, Pattunuang, Wajo, Makassar, Sulawesi Selatan, 90115, Indonesia",bank,-5.13265045,119.41253494391981,Jalan Nusakambangan,Sulawesi Selatan,Makassar,90115,BANK MANDIRI
"Bank Mandiri, Jalan Andalas, Parang Layang, Bontoala, Makassar, Sulawesi Selatan, 90115, Indonesia",bank,-5.124700499999999,119.41847415000001,Jalan Andalas,Sulawesi Selatan,Makassar,90115,BANK MANDIRI
"Bank Mandiri, Jalan Slamet Riyadi, Bulogading, Ujung Pandang, Makassar, Sulawesi Selatan, 90171, Indonesia",bank,-5.13391735,119.40676397947276,Jalan Slamet Riyadi,Sulawesi Selatan,Makassar,90171,BANK MANDIRI
"Bank Mandiri, Jalan Haji Oemar Said Cokroaminoto, Pattunuang, Wajo, Makassar, Sulawesi Selatan, 90115, Indonesia",bank,-5.132210049999999,119.41316415,Jalan Haji Oemar Said Cokroaminoto,Sulawesi Selatan,Makassar,90115,BANK MANDIRI
"Bank Mandiri, Jalan Khairil Anwar, Lamokato, Sulawesi Tenggara, Indonesia",bank,-4.0583777,121.5987505,Jalan Khairil Anwar,Jalan Khairil Anwar,Bank Mandiri,Sulawesi Tenggara,BANK MANDIRI
"Bank Mandiri, Gang Nyaman, Graha Indah, Balikpapan, Kalimantan Timur, 76126, Indonesia",bank,-1.21223335,116.86097057907597,Gang Nyaman,Kalimantan Timur,Balikpapan,76126,BANK MANDIRI
"Bank Mandiri, Jalan Insinyur Haji Juanda, Air Hitam, Samarinda, Kalimantan Timur, 75124, Indonesia",bank,-0.4821875,117.13305756674436,Jalan Insinyur Haji Juanda,Kalimantan Timur,Samarinda,75124,BANK MANDIRI
"Bank Mandiri, K.H. Wahid Hasyim I, Sempaja Selatan, Samarinda, Kalimantan Timur, 75123, Indonesia",bank,-0.4539317,117.15290479870299,K.H. Wahid Hasyim I,Kalimantan Timur,Samarinda,75123,BANK MANDIRI
"Bank Mandiri, Jenderal Sudirman, Jawa, Samarinda, Kalimantan Timur, 75129, Indonesia",bank,-0.5011722000000001,117.14535639743188,Jenderal Sudirman,Kalimantan Timur,Samarinda,75129,BANK MANDIRI
"Bank Mandiri, Jalan Panembahan, Malinau Kota, Malinau, Kalimantan Utara, 77554, Indonesia",bank,3.5906236500000004,116.62374800559701,Jalan Panembahan,Kalimantan Utara,Malinau,77554,BANK MANDIRI
"Bank Mandiri, Jalan Khairil Anwar, Lamokato, Sulawesi Tenggara, Indonesia",bank,-4.0583777,121.5987505,Jalan Khairil Anwar,Jalan Khairil Anwar,Bank Mandiri,Sulawesi Tenggara,BANK MANDIRI
"Bank Mandiri, Jalan Jenderal Sudirman, Klandasan Ilir, Balikpapan, Kalimantan Timur, 76121, Indonesia",bank,-1.2743696,116.84929157282146,Jalan Jenderal Sudirman,Kalimantan Timur,Balikpapan,76121,BANK MANDIRI
"Bank Mandiri, Jalan Jenderal Ahmad Yani, Klandasan Ilir, Balikpapan, Kalimantan Timur, 76121, Indonesia",bank,-1.27558755,116.83791403408338,Jalan Jenderal Ahmad Yani,Kalimantan Timur,Balikpapan,76121,BANK MANDIRI
"Bank Mandiri, Jalan APT Pranoto, Klandasan Ilir, Balikpapan, Kalimantan Timur, 76121, Indonesia",bank,-1.2767685,116.83706962665215,Jalan APT Pranoto,Kalimantan Timur,Balikpapan,76121,BANK MANDIRI
"Bank Mandiri, Jalan M.T. Haryono, Sungai Nangka, Balikpapan, Kalimantan Timur, 76128, Indonesia",bank,-1.2435882999999999,116.87182733425104,Jalan M.T. Haryono,Kalimantan Timur,Balikpapan,76128,BANK MANDIRI
"Bank Mandiri, Jalan Panglima Besar Sudirman, Amlapura, Kecamatan Karangasem, Karangasem, Bali, 80813, Indonesia",bank,-8.4539659,115.6019751,Jalan Panglima Besar Sudirman,Karangasem,Kecamatan Karangasem,80813,BANK MANDIRI
"Bank Mandiri KCP Sendawar, Jalan Gajah Mada, Barong Tongkok, Kutai Barat, Kalimantan Timur, 75575, Indonesia",bank,-0.23057135,115.69132529999999,Jalan Gajah Mada,Kalimantan Timur,Kutai Barat,75575,BANK MANDIRI KCP SENDAWAR
"Bank Mandiri, Jalan Khairil Anwar, Lamokato, Sulawesi Tenggara, Indonesia",bank,-4.0583777,121.5987505,Jalan Khairil Anwar,Jalan Khairil Anwar,Bank Mandiri,Sulawesi Tenggara,BANK MANDIRI
"Bank Mandiri, Komplek Es Terang, Teluk Dalam, Banjarmasin Tengah, Banjarmasin, Kalimantan Selatan, 70117, Indonesia",bank,-3.3219761,114.5751496,Komplek Es Terang,Kalimantan Selatan,Banjarmasin,70117,BANK MANDIRI
"Bank Mandiri, Jalan Elang, Lingk. Jeruk Manis, Kel. Cakranegara Barat, Cakranegara Utara, Mataram, Kec. Cakranegara, Nusa Tenggara Barat, 83239, Indonesia",bank,-8.5867905,116.1262578,Jalan Elang,Kec. Cakranegara,Mataram,83239,BANK MANDIRI
"Bank Mandiri, Jalan AA. Gde Ngurah, Lingk. Kampung Jawa, Kel. Cakranegara Timur, Cakranegara Utara, Mataram, Kec. Cakranegara, Nusa Tenggara Barat, 83239, Indonesia",bank,-8.588777,116.1301408,Jalan AA. Gde Ngurah,Kec. Cakranegara,Mataram,83239,BANK MANDIRI
"Bank Mandiri, Jalan Raya Trawangan, Lombok Utara, Nusa Tenggara Barat, 83352, Indonesia",bank,-8.3550583,116.042684,Jalan Raya Trawangan,Nusa Tenggara Barat,Lombok Utara,83352,BANK MANDIRI
"Bank Mandiri, Jalan Ahmad Yani, Maburai, Tabalong, Kalimantan Selatan, Kalimantan, Indonesia",bank,-2.1756661,115.4247214,Jalan Ahmad Yani,Kalimantan Selatan,Tabalong,Kalimantan,BANK MANDIRI
"Bank Mandiri, Jalan Raya Tanjung Kekait, Perum. Gubernuran Taman Sari, Dusun Balekuwu, Midang, Lombok Barat, Nusa Tenggara Barat, 83351, Indonesia",bank,-8.544292,116.106987,Jalan Raya Tanjung Kekait,Nusa Tenggara Barat,Lombok Barat,83351,BANK MANDIRI
"Bank Mandiri, Gajah Mada, Kampung Jawa, Kecamatan Praya, Lombok Tengah, Nusa Tenggara Barat, 83511, Indonesia",bank,-8.7083198,116.273012,Gajah Mada,Nusa Tenggara Barat,Lombok Tengah,83511,BANK MANDIRI
"Bank Mandiri, Jalan Khairil Anwar, Lamokato, Sulawesi Tenggara, Indonesia",bank,-4.0583777,121.5987505,Jalan Khairil Anwar,Jalan Khairil Anwar,Bank Mandiri,Sulawesi Tenggara,BANK MANDIRI
"Bank Mandiri, Jalan Letnan Jenderal R. Suprapto, Antasan Besar, Banjarmasin Tengah, Banjarmasin, Kalimantan Selatan, 70114, Indonesia",bank,-3.3203867000000002,114.58951119833654,Jalan Letnan Jenderal R. Suprapto,Kalimantan Selatan,Banjarmasin,70114,BANK MANDIRI
"Bank Mandiri, Jalan Lambung Mangkurat, Palampitan Hulu, Hulu Sungai Utara, Kalimantan Selatan, 71414, Indonesia",bank,-2.4229343500000002,115.24829823040919,Jalan Lambung Mangkurat,Kalimantan Selatan,Hulu Sungai Utara,71414,BANK MANDIRI
"Bank Mandiri, Jalan Raya Sukawati, Sukawati, Gianyar, Bali, 80582, Indonesia",bank,-8.5954161,115.2828576,Jalan Raya Sukawati,Bali,Gianyar,80582,BANK MANDIRI
"Bank Mandiri, Raya Puputan, Dangin Puri Klod, Dangin Puri Kelod, Denpasar Timur, Bali, 80234, Indonesia",bank,-8.6731557,115.2288811,Raya Puputan,Denpasar Timur,Dangin Puri Kelod,80234,BANK MANDIRI
"Bank Mandiri, Jalan Khairil Anwar, Lamokato, Sulawesi Tenggara, Indonesia",bank,-4.0583777,121.5987505,Jalan Khairil Anwar,Jalan Khairil Anwar,Bank Mandiri,Sulawesi Tenggara,BANK MANDIRI
"Bank Mandiri, Jalan Jenderal Achmad Yani, Tegal Gede, Jember, Jawa Timur, Jawa, 68131, Indonesia",bank,-8.1717222,113.7029259,Jalan Jenderal Achmad Yani,Jawa Timur,Jember,68131,BANK MANDIRI
"Bank Mandiri, Jalan Manggar, Ambulu, Jember, Jawa Timur, Indonesia",bank,-8.3474762,113.6048068,Jalan Manggar,Ambulu,Jalan Manggar,Jawa Timur,BANK MANDIRI
"Bank Mandiri, JI-208, Jenggawah, Jember, Jawa Timur, Jawa, 68171, Indonesia",bank,-8.257484,113.6504346,JI-208,Jawa Timur,Jember,68171,BANK MANDIRI
"Bank Mandiri, Jalan Ikan Tuna Raya, Pedungan, Denpasar Selatan, Bali, 80362, Indonesia",bank,-8.74090715,115.21038548933653,Jalan Ikan Tuna Raya,Bali,Denpasar Selatan,80362,BANK MANDIRI
"Bank Mandiri, Jalan WR. Supratman, Kesiman Kertalangu, Denpasar Timur, Bali, 80237, Indonesia",bank,-8.64433695,115.24830589999999,Jalan WR. Supratman,Bali,Denpasar Timur,80237,BANK MANDIRI
"Bank Mandiri, Jalan Bypass Ngurah Rai, Sanur Kaja, Denpasar Selatan, Bali, 80030, Indonesia",bank,-8.6731305,115.25929913156997,Jalan Bypass Ngurah Rai,Bali,Denpasar Selatan,80030,BANK MANDIRI
"Bank Mandiri, Jalan Khairil Anwar, Lamokato, Sulawesi Tenggara, Indonesia",bank,-4.0583777,121.5987505,Jalan Khairil Anwar,Jalan Khairil Anwar,Bank Mandiri,Sulawesi Tenggara,BANK MANDIRI
"Bank Mandiri, Jalan Mayor Jenderal Sungkono, RW 10, Pakis, Sawahan, Surabaya, Jawa Timur, 60256, Indonesia",bank,-7.2908654,112.7169553,Jalan Mayor Jenderal Sungkono,Jawa Timur,Surabaya,60256,BANK MANDIRI
"Bank Mandiri, Jalan Raya Mulyosari, Perum Sutorejo Indah, Dukuh Sutorejo, Mulyorejo, Surabaya, Jawa Timur, 60112, Indonesia",bank,-7.2706956,112.7965328,Jalan Raya Mulyosari,Jawa Timur,Surabaya,60112,BANK MANDIRI
"Bank Mandiri, Jalan Brawijaya, Dusun Muncar Desa Kedungrejo, Kedungrejo, Banyuwangi, Jawa Timur, 68471, Indonesia",bank,-8.43723185,114.33119035,Jalan Brawijaya,Jawa Timur,Banyuwangi,68471,BANK MANDIRI
"Bank Mandiri, M.T. Haryono, Sampit, Kalimantan Tengah, 74300, Indonesia",bank,-2.5410367000000003,112.96298564948057,M.T. Haryono,Kalimantan Tengah,Sampit,74300,BANK MANDIRI
"Bank Mandiri, Jalan AIS Nasution, Wilayah RT.007 KP2, Kuala Pembuang Dua, Kalimantan Tengah, Indonesia",bank,-3.3882434,112.5518275,Jalan AIS Nasution,Kuala Pembuang Dua,Wilayah RT.007 KP2,Kalimantan Tengah,BANK MANDIRI
"Bank Mandiri, Jalan Khairil Anwar, Lamokato, Sulawesi Tenggara, Indonesia",bank,-4.0583777,121.5987505,Jalan Khairil Anwar,Jalan Khairil Anwar,Bank Mandiri,Sulawesi Tenggara,BANK MANDIRI
"Bank Mandiri, Jalan Pemuda, RW 01, Embong Kaliasin, Genteng, Surabaya, Jawa Timur, 68485, Indonesia",bank,-7.2646333,112.7473341,Jalan Pemuda,Jawa Timur,Surabaya,68485,BANK MANDIRI
"Bank Mandiri, Jalan Dharmawangsa, RW 02, Airlangga, Gubeng, Surabaya, Jawa Timur, 60286, Indonesia",bank,-7.272069350000001,112.7565969,Jalan Dharmawangsa,Jawa Timur,Surabaya,60286,BANK MANDIRI
"Bank Mandiri, 4, Jalan Veteran, RW 01, Krembangan Selatan, Krembangan, Surabaya, Jawa Timur, 60161, Indonesia",bank,-7.23966265,112.73778771310634,Jalan Veteran,Surabaya,Krembangan,60161,BANK MANDIRI
"Bank Mandiri, Jalan Rajawali, RW 10, Krembangan Selatan, Krembangan, Surabaya, Jawa Timur, 60175, Indonesia",bank,-7.23676075,112.73767135,Jalan Rajawali,Jawa Timur,Surabaya,60175,BANK MANDIRI
"Bank Mandiri, Jalan Kalimati Kulon, RW 11, Nyamplungan, Pabean Cantian, Surabaya, Jawa Timur, 60145, Indonesia",bank,-7.23671285,112.73957849895524,Jalan Kalimati Kulon,Jawa Timur,Surabaya,60145,BANK MANDIRI
"Bank Mandiri, Jalan Tidar, RW 04, Petemon, Sawahan, Surabaya, Jawa Timur, 60173, Indonesia",bank,-7.2565246000000005,112.72231389999999,Jalan Tidar,Jawa Timur,Surabaya,60173,BANK MANDIRI
"Bank Mandiri, Jalan Simo Hilir Timur, RW 03, Simomulyo Baru, Sukomanunggal, Surabaya, Jawa Timur, 60188, Indonesia",bank,-7.2754294999999995,112.70552817650744,Jalan Simo Hilir Timur,Jawa Timur,Surabaya,60188,BANK MANDIRI
"Bank Mandiri, Jalan Kabupaten, Jungcangcang, Pamekasan, Jawa Timur, 69317, Indonesia",bank,-7.1583554,113.4759229,Jalan Kabupaten,Jawa Timur,Pamekasan,69317,BANK MANDIRI
"Bank Mandiri, Jalan Khairil Anwar, Lamokato, Sulawesi Tenggara, Indonesia",bank,-4.0583777,121.5987505,Jalan Khairil Anwar,Jalan Khairil Anwar,Bank Mandiri,Sulawesi Tenggara,BANK MANDIRI
"Bank Mandiri, Jalan Perak, RW 03, Perak Utara, Pabean Cantian, Surabaya, Jawa Timur, 60165, Indonesia",bank,-7.2080213,112.73457222696194,Jalan Perak,Jawa Timur,Surabaya,60165,BANK MANDIRI
"Bank Mandiri, Jalan Manukan Tama, RW 07, Manukan Kulon, Tandes, Surabaya, Jawa Timur, 60185, Indonesia",bank,-7.26180985,112.66758485,Jalan Manukan Tama,Jawa Timur,Surabaya,60185,BANK MANDIRI
"Bank Mandiri, Jalan Darmo Permai Timur XIII, RW 03, Pradahkali Kendal, Dukuh Pakis, Surabaya, Jawa Timur, Jawa, 60226, Indonesia",bank,-7.28449865,112.69439105000001,Jalan Darmo Permai Timur XIII,Jawa Timur,Surabaya,60226,BANK MANDIRI
"Bank Mandiri, Jalan Jenderal Ahmad Yani Frontage Barat, RW 01, Menanggal, Gayungan, Surabaya, Jawa Timur, 60234, Indonesia",bank,-7.34337655,112.72860562023365,Jalan Jenderal Ahmad Yani Frontage Barat,Jawa Timur,Surabaya,60234,BANK MANDIRI
"Bank Mandiri, Jalan Mayor Jenderal Sungkono, RW 02, Dukuh Pakis, Surabaya, Jawa Timur, 60256, Indonesia",bank,-7.29087975,112.7138320440472,Jalan Mayor Jenderal Sungkono,Jawa Timur,Surabaya,60256,BANK MANDIRI
"Bank Mandiri, Jalan Semolowaru, RW 08, Menur Pumpungan, Sukolilo, Surabaya, Jawa Timur, Jawa, 60118, Indonesia",bank,-7.2979551,112.76739545566227,Jalan Semolowaru,Jawa Timur,Surabaya,60118,BANK MANDIRI
"Bank Mandiri, Jalan Panglima Besar Sudirman, Purworejo, Pasuruan, Jawa Timur, 67116, Indonesia",bank,-7.6531946,112.8995904,Jalan Panglima Besar Sudirman,Jawa Timur,Pasuruan,67116,BANK MANDIRI
"Bank Mandiri, Jalan Khairil Anwar, Lamokato, Sulawesi Tenggara, Indonesia",bank,-4.0583777,121.5987505,Jalan Khairil Anwar,Jalan Khairil Anwar,Bank Mandiri,Sulawesi Tenggara,BANK MANDIRI
"Bank Mandiri, Jalan Perak, RW 03, Perak Utara, Pabean Cantian, Surabaya, Jawa Timur, 60165, Indonesia",bank,-7.201874650000001,112.73363505,Jalan Perak,Jawa Timur,Surabaya,60165,BANK MANDIRI
"Bank Mandiri, Jalan Jaksa Agung Suprapto, Rampal Celaket, Kota Malang, Jawa Timur, 65111, Indonesia",bank,-7.9668072,112.6333571,Jalan Jaksa Agung Suprapto,Jawa Timur,Kota Malang,65111,BANK MANDIRI
"Bank Mandiri, Jalan Danau Toba, Lesanpuro, Kota Malang, Jawa Timur, 65121, Indonesia",bank,-7.9794708,112.6599617,Jalan Danau Toba,Jawa Timur,Kota Malang,65121,BANK MANDIRI
"Bank Mandiri, Jalan Kyai Haji Wahid Hasyim, 06, Kel Kauman, Kec Klojen, Kota Malang, Kidul Dalem, Kota Malang, Jawa Timur, 65119, Indonesia",bank,-7.9841722,112.6289722,Jalan Kyai Haji Wahid Hasyim,Jawa Timur,Kota Malang,65119,BANK MANDIRI
"Bank Mandiri, Jalan Raya Watukosek, Ngoro, Mojokerto, Jawa Timur, 61384, Indonesia",bank,-7.5536276,112.6210295,Jalan Raya Watukosek,Jawa Timur,Mojokerto,61384,BANK MANDIRI
"Bank Mandiri, Jalan Raya Watukosek, Ngoro, Mojokerto, Jawa Timur, 61384, Indonesia",bank,-7.5536276,112.6210295,Jalan Raya Watukosek,Jawa Timur,Mojokerto,61384,BANK MANDIRI
"Bank Mandiri, 61, Jalan Imam Bonjol, RW 04, Menteng, Jakarta Pusat, Daerah Khusus Ibukota Jakarta, 10310, Indonesia",bank,-6.1975499,106.8252813,61,Daerah Khusus Ibukota Jakarta,Jakarta Pusat,10310,BANK MANDIRI
"Bank Mandiri, Jalan Karya Baru, RW 03, Srengseng, Kembangan, Jakarta Barat, Daerah Khusus Ibukota Jakarta, 11630, Indonesia",bank,-6.2166405,106.7603892,Jalan Karya Baru,Daerah Khusus Ibukota Jakarta,Jakarta Barat,11630,BANK MANDIRI
"Bank Mandiri, Jalan Kemang Pratama, Rawalumbu, Bojong Rawalumbu, Kota Bekasi, Jawa Barat, 17114, Indonesia",bank,-6.2746963,106.9868211,Jalan Kemang Pratama,Jawa Barat,Kota Bekasi,17114,BANK MANDIRI
"Bank Mandiri, Jalan A.Yani, Potrobangsan, Kota Magelang, Jawa Tengah, 56114, Indonesia",bank,-7.4485824,110.2246237,Jalan A.Yani,Jawa Tengah,Kota Magelang,56114,BANK MANDIRI
"Bank Mandiri, Jalan Teuku Umar, Bojonegoro, Jawa Timur, 61211, Indonesia",bank,-7.1527279,111.889048,Jalan Teuku Umar,Jawa Timur,Bojonegoro,61211,BANK MANDIRI
"Bank Mandiri, Jalan Boulevard Gading Serpong, Gading Serpong, Pakulonan Barat, Kabupaten Tangerang, Banten, 15810, Indonesia",bank,-6.2309278,106.6337567,Jalan Boulevard Gading Serpong,Kabupaten Tangerang,Pakulonan Barat,15810,BANK MANDIRI
"Bank Mandiri, Gang Nila 3, Raja, Kalimantan Tengah, 74111, Indonesia",bank,-2.6709229,111.6449142,Gang Nila 3,Kalimantan Tengah,Raja,74111,BANK MANDIRI
"Bank Mandiri, Jalan Joglo Raya, RW 03, Srengseng, Kembangan, Jakarta Barat, Daerah Khusus Ibukota Jakarta, 11630, Indonesia",bank,-6.2173313,106.7593598,Jalan Joglo Raya,Daerah Khusus Ibukota Jakarta,Jakarta Barat,11630,BANK MANDIRI
"Bank Mandiri, Jalan Citra Garden 7, RW 09, Kalideres, Jakarta Barat, Daerah Khusus Ibukota Jakarta, 11830, Indonesia",bank,-6.1464711,106.7022966,Jalan Citra Garden 7,Daerah Khusus Ibukota Jakarta,Jakarta Barat,11830,BANK MANDIRI
"Bank Mandiri, Jalan Warung Jati Barat, RW 11, Ragunan, Pasar Minggu, Jakarta Selatan, Daerah Khusus Ibukota Jakarta, Jawa, 12550, Indonesia",bank,-6.283269,106.8267242,Jalan Warung Jati Barat,Daerah Khusus Ibukota Jakarta,Jakarta Selatan,12550,BANK MANDIRI
"Bank Mandiri, Jalan Wijaya II, RW 03, Melawai, Kebayoran Baru, Jakarta Selatan, Daerah Khusus Ibukota Jakarta, 12160, Indonesia",bank,-6.2528827,106.8003193,Jalan Wijaya II,Daerah Khusus Ibukota Jakarta,Jakarta Selatan,12160,BANK MANDIRI
"Bank Mandiri, Jalan Pemuda, RW 08, Jati, Pulo Gadung, Jakarta Timur, Daerah Khusus Ibukota Jakarta, 13250, Indonesia",bank,-6.1938315,106.8917893,Jalan Pemuda,Daerah Khusus Ibukota Jakarta,Jakarta Timur,13250,BANK MANDIRI
"Bank Mandiri, Jalan Buaran Raya, RW 14, Klender, Duren Sawit, Jakarta Timur, Daerah Khusus Ibukota Jakarta, 13450, Indonesia",bank,-6.220276,106.9222927,Jalan Buaran Raya,Daerah Khusus Ibukota Jakarta,Jakarta Timur,13450,BANK MANDIRI
"Bank Mandiri, Jalan Kencana Raya, RW 09, Cengkareng Barat, Cengkareng, Jakarta Barat, Daerah Khusus Ibukota Jakarta, 11820, Indonesia",bank,-6.1277326,106.72647,Jalan Kencana Raya,Daerah Khusus Ibukota Jakarta,Jakarta Barat,11820,BANK MANDIRI
"Bank Mandiri, Gang Belimbing, RW 09, Kemanggisan, Palmerah, Jakarta Barat, Daerah Khusus Ibukota Jakarta, 11480, Indonesia",bank,-6.1922032,106.7824531,Gang Belimbing,Daerah Khusus Ibukota Jakarta,Jakarta Barat,11480,BANK MANDIRI
"Bank Mandiri, Jalan Lingkar Luar Barat, RW 01, Kembangan Utara, Kembangan, Jakarta Barat, Daerah Khusus Ibukota Jakarta, Jawa, 11750, Indonesia",bank,-6.1767165,106.7289524,Jalan Lingkar Luar Barat,Daerah Khusus Ibukota Jakarta,Jakarta Barat,11750,BANK MANDIRI
"Bank Mandiri, Gang Nila 3, Raja, Kalimantan Tengah, 74111, Indonesia",bank,-2.6709229,111.6449142,Gang Nila 3,Kalimantan Tengah,Raja,74111,BANK MANDIRI
"Bank Mandiri, Jalan Meruya Ilir, RW 05, Meruya Utara, Kembangan, Jakarta Barat, Daerah Khusus Ibukota Jakarta, 11530, Indonesia",bank,-6.1982681,106.7625541,Jalan Meruya Ilir,Daerah Khusus Ibukota Jakarta,Jakarta Barat,11530,BANK MANDIRI
"Bank Mandiri, Jalan Bukit Barisan, RW 11, Cibubur, Ciracas, Jakarta Timur, Daerah Khusus Ibukota Jakarta, 13720, Indonesia",bank,-6.3523393,106.8830152,Jalan Bukit Barisan,Daerah Khusus Ibukota Jakarta,Jakarta Timur,13720,BANK MANDIRI
"Bank Mandiri, Jalan Aipda Karel Satsuit Tubun, RW 01, Slipi, Palmerah, Jakarta Barat, Daerah Khusus Ibukota Jakarta, 10260, Indonesia",bank,-6.1935039,106.8048616,Jalan Aipda Karel Satsuit Tubun,Daerah Khusus Ibukota Jakarta,Jakarta Barat,10260,BANK MANDIRI
"Bank Mandiri, Jalan Taman Aries, RW 09, Meruya Utara, Kembangan, Jakarta Barat, Daerah Khusus Ibukota Jakarta, 11620, Indonesia",bank,-6.1918975,106.7460951,Jalan Taman Aries,Daerah Khusus Ibukota Jakarta,Jakarta Barat,11620,BANK MANDIRI
"Bank Mandiri, Jalan Belimbing, RW 09, Rawamangun, Pulo Gadung, Jakarta Timur, Daerah Khusus Ibukota Jakarta, 13220, Indonesia",bank,-6.1995079,106.8863513,Jalan Belimbing,Daerah Khusus Ibukota Jakarta,Jakarta Timur,13220,BANK MANDIRI
"Bank Mandiri, Jalan Pemuda, RW 04, Jati, Pulo Gadung, Jakarta Timur, Daerah Khusus Ibukota Jakarta, 13250, Indonesia",bank,-6.1932691,106.8979113,Jalan Pemuda,Daerah Khusus Ibukota Jakarta,Jakarta Timur,13250,BANK MANDIRI
"Bank Mandiri, Jalan Kapuk Cengkareng, RW 11, Cengkareng Timur, Cengkareng, Jakarta Barat, Daerah Khusus Ibukota Jakarta, Jawa, 11730, Indonesia",bank,-6.1302288,106.7351389,Jalan Kapuk Cengkareng,Daerah Khusus Ibukota Jakarta,Jakarta Barat,11730,BANK MANDIRI
"Bank Mandiri, Jalan Lingkar Barat, RW 14, Cengkareng Timur, Cengkareng, Jakarta Barat, Daerah Khusus Ibukota Jakarta, 11730, Indonesia",bank,-6.1383913,106.7306962,Jalan Lingkar Barat,Daerah Khusus Ibukota Jakarta,Jakarta Barat,11730,BANK MANDIRI
"Bank Mandiri, Jalan Pondasi, RW 02, Kayu Putih, Pulo Gadung, Jakarta Timur, Daerah Khusus Ibukota Jakarta, 13210, Indonesia",bank,-6.1854318,106.8847825,Jalan Pondasi,Daerah Khusus Ibukota Jakarta,Jakarta Timur,13210,BANK MANDIRI
"Bank Mandiri, Gang Nila 3, Raja, Kalimantan Tengah, 74111, Indonesia",bank,-2.6709229,111.6449142,Gang Nila 3,Kalimantan Tengah,Raja,74111,BANK MANDIRI
"Bank Mandiri, Jalan Bekasi Raya, RW 01, Ujung Menteng, Cakung, Jakarta Timur, Daerah Khusus Ibukota Jakarta, 13960, Indonesia",bank,-6.1873588,106.9607991,Jalan Bekasi Raya,Daerah Khusus Ibukota Jakarta,Jakarta Timur,13960,BANK MANDIRI
"Bank Mandiri, Jalan Joglo Raya, RW 03, Joglo, Kembangan, Jakarta Barat, Daerah Khusus Ibukota Jakarta, 11630, Indonesia",bank,-6.2177376,106.757412,Jalan Joglo Raya,Daerah Khusus Ibukota Jakarta,Jakarta Barat,11630,BANK MANDIRI
"Bank Mandiri, Jalan Peta Barat, RW 07, Kalideres, Jakarta Barat, Daerah Khusus Ibukota Jakarta, 11830, Indonesia",bank,-6.143531,106.6978374,Jalan Peta Barat,Daerah Khusus Ibukota Jakarta,Jakarta Barat,11830,BANK MANDIRI
"Bank Mandiri, Jalan Teratai Putih I, RW 04, Malaka Sari, Duren Sawit, Jakarta Timur, Daerah Khusus Ibukota Jakarta, 13940, Indonesia",bank,-6.2185545,106.9310914,Jalan Teratai Putih I,Daerah Khusus Ibukota Jakarta,Jakarta Timur,13940,BANK MANDIRI
"Bank Mandiri, Jalan Teluk Gong Raya, RW 02, Kapuk Muara, Penjaringan, Jakarta Utara, Daerah Khusus Ibukota Jakarta, 14460, Indonesia",bank,-6.1382293,106.7739987,Jalan Teluk Gong Raya,Daerah Khusus Ibukota Jakarta,Jakarta Utara,14460,BANK MANDIRI
"Bank Mandiri, Jalan Darmajaya Pejaten, RW 05, Pejaten Barat, Pasar Minggu, Jakarta Selatan, Daerah Khusus Ibukota Jakarta, 12510, Indonesia",bank,-6.2780065,106.8451235,Jalan Darmajaya Pejaten,Daerah Khusus Ibukota Jakarta,Jakarta Selatan,12510,BANK MANDIRI
"Bank Mandiri, Blok K, RW 09, Pluit, Penjaringan, Jakarta Utara, Daerah Khusus Ibukota Jakarta, 14440, Indonesia",bank,-6.1247118,106.7967001,Blok K,Daerah Khusus Ibukota Jakarta,Jakarta Utara,14440,BANK MANDIRI
"Bank Mandiri, Jalan Pahlawan Revolusi, RW 05, Klender, Duren Sawit, Jakarta Timur, Daerah Khusus Ibukota Jakarta, 13470, Indonesia",bank,-6.2170275,106.8998054,Jalan Pahlawan Revolusi,Daerah Khusus Ibukota Jakarta,Jakarta Timur,13470,BANK MANDIRI
"Bank Mandiri, Jalan Margasatwa, RW 08, Ragunan, Pasar Minggu, Jakarta Selatan, Daerah Khusus Ibukota Jakarta, 13840, Indonesia",bank,-6.3105398,106.8139831,Jalan Margasatwa,Daerah Khusus Ibukota Jakarta,Jakarta Selatan,13840,BANK MANDIRI
"Bank Mandiri, Gang Nila 3, Raja, Kalimantan Tengah, 74111, Indonesia",bank,-2.6709229,111.6449142,Gang Nila 3,Kalimantan Tengah,Raja,74111,BANK MANDIRI
"Bank Mandiri, Jalan Ampera Raya, RW 02, Ragunan, Pasar Minggu, Jakarta Selatan, Daerah Khusus Ibukota Jakarta, 12560, Indonesia",bank,-6.2877441,106.8187224,Jalan Ampera Raya,Daerah Khusus Ibukota Jakarta,Jakarta Selatan,12560,BANK MANDIRI
"Bank Mandiri, Jalan Mitra Sunter Boulevard, RW 11, Sunter Jaya, Tanjung Priok, Jakarta Utara, Daerah Khusus Ibukota Jakarta, 14350, Indonesia",bank,-6.1493019,106.8857718,Jalan Mitra Sunter Boulevard,Daerah Khusus Ibukota Jakarta,Jakarta Utara,14350,BANK MANDIRI
"Bank Mandiri, Jalan Laksamana Malahayati, RW 10, Pondok Kelapa, Duren Sawit, Jakarta Timur, Daerah Khusus Ibukota Jakarta, 17412, Indonesia",bank,-6.2478354,106.9284725,Jalan Laksamana Malahayati,Daerah Khusus Ibukota Jakarta,Jakarta Timur,17412,BANK MANDIRI
"Bank Mandiri, Jalan Danau Sunter Utara, RW 11, Sunter Jaya, Tanjung Priok, Jakarta Utara, Daerah Khusus Ibukota Jakarta, 14350, Indonesia",bank,-6.1418822,106.8875516,Jalan Danau Sunter Utara,Daerah Khusus Ibukota Jakarta,Jakarta Utara,14350,BANK MANDIRI
"Bank Mandiri, Jalan Mangga Dua Raya, RW 05, Ancol, Pademangan, Jakarta Utara, Daerah Khusus Ibukota Jakarta, 14430, Indonesia",bank,-6.1349871,106.826743,Jalan Mangga Dua Raya,Daerah Khusus Ibukota Jakarta,Jakarta Utara,14430,BANK MANDIRI
"Bank Mandiri, Jalan Irigasi, RW 20, Pegadungan, Kalideres, Jakarta Barat, Daerah Khusus Ibukota Jakarta, 11830, Indonesia",bank,-6.1330023,106.6946268,Jalan Irigasi,Daerah Khusus Ibukota Jakarta,Jakarta Barat,11830,BANK MANDIRI
"Bank Mandiri, Jalan Pondok Kelapa 10, RW 04, Pondok Kelapa, Duren Sawit, Jakarta Timur, Daerah Khusus Ibukota Jakarta, 17412, Indonesia",bank,-6.2429279,106.9344741,Jalan Pondok Kelapa 10,Daerah Khusus Ibukota Jakarta,Jakarta Timur,17412,BANK MANDIRI
"Bank Mandiri, Jalan Robert Wolter Monginsidi, RW 04, Rawa Barat, Kebayoran Baru, Jakarta Selatan, Daerah Khusus Ibukota Jakarta, 12170, Indonesia",bank,-6.2387753,106.8116637,Jalan Robert Wolter Monginsidi,Daerah Khusus Ibukota Jakarta,Jakarta Selatan,12170,BANK MANDIRI
"Bank Mandiri, Jalan Cireundeu Raya, RW 01, Cireundeu, Ciputat Timur, Tangerang Selatan, Banten, 16513, Indonesia",bank,-6.3133081,106.7700232,Jalan Cireundeu Raya,Tangerang Selatan,Ciputat Timur,16513,BANK MANDIRI
"Bank Mandiri, Gang Nila 3, Raja, Kalimantan Tengah, 74111, Indonesia",bank,-2.6709229,111.6449142,Gang Nila 3,Kalimantan Tengah,Raja,74111,BANK MANDIRI
"Bank Mandiri, Jalan Gandaria Tengah III, RW 03, Kramat Pela, Kebayoran Baru, Jakarta Selatan, Daerah Khusus Ibukota Jakarta, 12120, Indonesia",bank,-6.2466542,106.7900437,Jalan Gandaria Tengah III,Daerah Khusus Ibukota Jakarta,Jakarta Selatan,12120,BANK MANDIRI
"Bank Mandiri, Jalan Bangun Nusa Raya, RW 02, Cengkareng Timur, Cengkareng, Jakarta Barat, Daerah Khusus Ibukota Jakarta, 11730, Indonesia",bank,-6.1512433,106.7285299,Jalan Bangun Nusa Raya,Daerah Khusus Ibukota Jakarta,Jakarta Barat,11730,BANK MANDIRI
"Bank Mandiri, Jalan Iskandarsyah Raya, RW 02, Melawai, Kebayoran Baru, Jakarta Selatan, Daerah Khusus Ibukota Jakarta, 12160, Indonesia",bank,-6.2436773,106.8036157,Jalan Iskandarsyah Raya,Daerah Khusus Ibukota Jakarta,Jakarta Selatan,12160,BANK MANDIRI
"Bank Mandiri, Jalan Robert Wolter Monginsidi, RW 02, Rawa Barat, Kebayoran Baru, Jakarta Selatan, Daerah Khusus Ibukota Jakarta, 12710, Indonesia",bank,-6.2385894,106.8168309,Jalan Robert Wolter Monginsidi,Daerah Khusus Ibukota Jakarta,Jakarta Selatan,12710,BANK MANDIRI
"Bank Mandiri, Jalan Pluit Kencana, RW 06, Pluit, Penjaringan, Jakarta Utara, Daerah Khusus Ibukota Jakarta, 14440, Indonesia",bank,-6.1217991,106.7884027,Jalan Pluit Kencana,Daerah Khusus Ibukota Jakarta,Jakarta Utara,14440,BANK MANDIRI
"Bank Mandiri, Jalan Pantai Indah Utara 2, RW 08, Kapuk Muara, Penjaringan, Jakarta Utara, Daerah Khusus Ibukota Jakarta, 14460, Indonesia",bank,-6.1163822,106.7673254,Jalan Pantai Indah Utara 2,Daerah Khusus Ibukota Jakarta,Jakarta Utara,14460,BANK MANDIRI
"Bank Mandiri, Jalan Mangga Dua Raya, RW 05, Ancol, Pademangan, Jakarta Utara, Daerah Khusus Ibukota Jakarta, 11110, Indonesia",bank,-6.1363519,106.8217474,Jalan Mangga Dua Raya,Daerah Khusus Ibukota Jakarta,Jakarta Utara,11110,BANK MANDIRI
"Bank Mandiri, Jalan Bintaro, RW 05, Ancol, Pademangan, Jakarta Utara, Daerah Khusus Ibukota Jakarta, 14430, Indonesia",bank,-6.1358678,106.8313886,Jalan Bintaro,Daerah Khusus Ibukota Jakarta,Jakarta Utara,14430,BANK MANDIRI
"Bank Mandiri, Gang Nila 3, Raja, Kalimantan Tengah, 74111, Indonesia",bank,-2.6709229,111.6449142,Gang Nila 3,Kalimantan Tengah,Raja,74111,BANK MANDIRI
"Bank Mandiri, Jalan Taman Sunter Indah, RW 12, Sunter Jaya, Tanjung Priok, Jakarta Utara, Daerah Khusus Ibukota Jakarta, Jawa, 14350, Indonesia",bank,-6.1507953,106.8783045,Jalan Taman Sunter Indah,Daerah Khusus Ibukota Jakarta,Jakarta Utara,14350,BANK MANDIRI
"Bank Mandiri, Jalan Jenderal Gatot Subroto, RW 01, Senayan, Kebayoran Baru, Jakarta Selatan, Daerah Khusus Ibukota Jakarta, 12930, Indonesia",bank,-6.2247214,106.8148631,Jalan Jenderal Gatot Subroto,Daerah Khusus Ibukota Jakarta,Jakarta Selatan,12930,BANK MANDIRI
"Bank Mandiri, Jalan Danau Agung 2, RW 16, Sunter Agung, Tanjung Priok, Jakarta Utara, Daerah Khusus Ibukota Jakarta, 14350, Indonesia",bank,-6.144963,106.8641183,Jalan Danau Agung 2,Daerah Khusus Ibukota Jakarta,Jakarta Utara,14350,BANK MANDIRI
"Bank Mandiri, Jalan Cilosari, RW 04, Cikini, Menteng, Jakarta Pusat, Daerah Khusus Ibukota Jakarta, 10330, Indonesia",bank,-6.1967053,106.8407985,Jalan Cilosari,Daerah Khusus Ibukota Jakarta,Jakarta Pusat,10330,BANK MANDIRI
"Bank Mandiri, Jalan Gatot Subroto, RW 06, Petamburan, Tanah Abang, Jakarta Pusat, Daerah Khusus Ibukota Jakarta, 10260, Indonesia",bank,-6.2017204,106.8010272,Jalan Gatot Subroto,Daerah Khusus Ibukota Jakarta,Jakarta Pusat,10260,BANK MANDIRI
"Bank mandiri, Jalan Ahmad Yani, Sukarasa, Tangerang, Banten, 15112, Indonesia",bank,-6.1715668,106.6349311,Jalan Ahmad Yani,Banten,Tangerang,15112,BANK MANDIRI
"Bank Mandiri, Jalan WR Supratman, RW 04, Cempaka Putih, Ciputat Timur, Tangerang Selatan, Banten, 15419, Indonesia",bank,-6.3040909,106.7549297,Jalan WR Supratman,Tangerang Selatan,Ciputat Timur,15419,BANK MANDIRI
"Bank Mandiri, Gang Nila 3, Raja, Kalimantan Tengah, 74111, Indonesia",bank,-2.6709229,111.6449142,Gang Nila 3,Kalimantan Tengah,Raja,74111,BANK MANDIRI
"Bank Mandiri, Jalan Profesor Dokter Satrio, RW 04, Karet Kuningan, Setiabudi, Jakarta Selatan, Daerah Khusus Ibukota Jakarta, Jawa, 12940, Indonesia",bank,-6.2240532,106.8267999,Jalan Profesor Dokter Satrio,Daerah Khusus Ibukota Jakarta,Jakarta Selatan,12940,BANK MANDIRI
"Bank Mandiri, RT.2/RW.2, Jalan Jenderal Gatot Subroto, RW 02, Karet Semanggi, Setiabudi, Jakarta Selatan, Daerah Khusus Ibukota Jakarta, 12930, Indonesia",bank,-6.2291063,106.8199904,RT.2/RW.2,Jakarta Selatan,Setiabudi,12930,BANK MANDIRI
"Bank Mandiri, Kav 32-34, Jalan Jenderal Gatot Subroto, RW 03, Kuningan Timur, Setiabudi, Jakarta Selatan, Daerah Khusus Ibukota Jakarta, 12950, Indonesia",bank,-6.2336779,106.8234042,Kav 32-34,Jakarta Selatan,Setiabudi,12950,BANK MANDIRI
"Bank Mandiri, Jalan Kisamaun, Babakan, Tangerang, Banten, 15111, Indonesia",bank,-6.1861006,106.6330124,Jalan Kisamaun,Banten,Tangerang,15111,BANK MANDIRI
"Bank Mandiri, Gang Nila 3, Raja, Kalimantan Tengah, 74111, Indonesia",bank,-2.6709229,111.6449142,Gang Nila 3,Kalimantan Tengah,Raja,74111,BANK MANDIRI
"Bank Mandiri, Jalan Dokter Saharjo, RW 01, Tebet Barat, Tebet, Jakarta Selatan, Daerah Khusus Ibukota Jakarta, 12860, Indonesia",bank,-6.2261615,106.847761,Jalan Dokter Saharjo,Daerah Khusus Ibukota Jakarta,Jakarta Selatan,12860,BANK MANDIRI
"Bank Mandiri, Jalan Hajjah R. Rasuna Said, RW 02, Kuningan Timur, Setiabudi, Jakarta Selatan, Daerah Khusus Ibukota Jakarta, 15920, Indonesia",bank,-6.2288708,106.8328386,Jalan Hajjah R. Rasuna Said,Daerah Khusus Ibukota Jakarta,Jakarta Selatan,15920,BANK MANDIRI
"Bank Mandiri, 11, Jalan KH. Wahid Hasyim, RW 04, Gondangdia, Menteng, Jakarta Pusat, Daerah Khusus Ibukota Jakarta, 10310, Indonesia",bank,-6.1873262,106.8237141,11,Jakarta Pusat,Menteng,10310,BANK MANDIRI
"Bank Mandiri, Jembatan Dukuh Atas, RW 03, Setiabudi, Jakarta Selatan, Daerah Khusus Ibukota Jakarta, 10220, Indonesia",bank,-6.2051994,106.8230931,Jembatan Dukuh Atas,Daerah Khusus Ibukota Jakarta,Jakarta Selatan,10220,BANK MANDIRI
"Bank Mandiri, Jalan Hajjah R. Rasuna Said, RW 07, Karet Kuningan, Setiabudi, Jakarta Selatan, Daerah Khusus Ibukota Jakarta, Jawa, 15920, Indonesia",bank,-6.2183895,106.830767,Jalan Hajjah R. Rasuna Said,Daerah Khusus Ibukota Jakarta,Jakarta Selatan,15920,BANK MANDIRI
"Bank Mandiri, 29-31, Jalan Jenderal Sudirman, RW 01, Karet, Setiabudi, Jakarta Selatan, Daerah Khusus Ibukota Jakarta, Jawa, 12920, Indonesia",bank,-6.2140252,106.819509,29-31,Daerah Khusus Ibukota Jakarta,Jakarta Selatan,12920,BANK MANDIRI
"Bank Mandiri, Jalan Jenderal Sudirman, RW 11, Karet Tengsin, Tanah Abang, Jakarta Pusat, Daerah Khusus Ibukota Jakarta, 10220, Indonesia",bank,-6.2095699,106.8209015,Jalan Jenderal Sudirman,Daerah Khusus Ibukota Jakarta,Jakarta Pusat,10220,BANK MANDIRI
"Bank Mandiri, Jalan Jagakarsa, RW 03, Jagakarsa, Jakarta Selatan, Daerah Khusus Ibukota Jakarta, 12620, Indonesia",bank,-6.3274999,106.8242267,Jalan Jagakarsa,Daerah Khusus Ibukota Jakarta,Jakarta Selatan,12620,BANK MANDIRI
"Bank Mandiri, Gang Nila 3, Raja, Kalimantan Tengah, 74111, Indonesia",bank,-2.6709229,111.6449142,Gang Nila 3,Kalimantan Tengah,Raja,74111,BANK MANDIRI
"Bank Mandiri, Jalan Cikini Raya, RW 05, Cikini, Menteng, Jakarta Pusat, Daerah Khusus Ibukota Jakarta, Jawa, 10330, Indonesia",bank,-6.1929883,106.8388683,Jalan Cikini Raya,Daerah Khusus Ibukota Jakarta,Jakarta Pusat,10330,BANK MANDIRI
"Bank Mandiri, Jalan Tentara Pelajar, RW 01, Gelora, Tanah Abang, Jakarta Pusat, Daerah Khusus Ibukota Jakarta, 10270, Indonesia",bank,-6.2062672,106.7995992,Jalan Tentara Pelajar,Daerah Khusus Ibukota Jakarta,Jakarta Pusat,10270,BANK MANDIRI
"Bank Mandiri, Jalan Tebet Barat Dalam X, RW 05, Tebet Barat, Tebet, Jakarta Selatan, Daerah Khusus Ibukota Jakarta, 12810, Indonesia",bank,-6.2425391999999995,106.85203025,Jalan Tebet Barat Dalam X,Daerah Khusus Ibukota Jakarta,Jakarta Selatan,12810,BANK MANDIRI
"Bank Mandiri, Jalan Bhakti Abri, RW 04, Pegangsaan Dua, Kelapa Gading, Jakarta Utara, Daerah Khusus Ibukota Jakarta, 14250, Indonesia",bank,-6.18211855,106.91602280000001,Jalan Bhakti Abri,Daerah Khusus Ibukota Jakarta,Jakarta Utara,14250,BANK MANDIRI
"Bank Mandiri, Jalan Tanah Abang Timur, RW 04, Gambir, Jakarta Pusat, Daerah Khusus Ibukota Jakarta, 10110, Indonesia",bank,-6.17664865,106.82071831301627,Jalan Tanah Abang Timur,Daerah Khusus Ibukota Jakarta,Jakarta Pusat,10110,BANK MANDIRI
"Bank Mandiri, Jalan Caman Raya, Perum Dosen IKIP, Jatibening, Kota Bekasi, Jawa Barat, 17412, Indonesia",bank,-6.259557,106.9485698,Jalan Caman Raya,Jawa Barat,Kota Bekasi,17412,BANK MANDIRI
"Bank Mandiri, Gang Nila 3, Raja, Kalimantan Tengah, 74111, Indonesia",bank,-2.6709229,111.6449142,Gang Nila 3,Kalimantan Tengah,Raja,74111,BANK MANDIRI
"Bank Mandiri, Jalan Mampang Prapatan Raya, RW 05, Mampang Prapatan, Jakarta Selatan, Daerah Khusus Ibukota Jakarta, Jawa, 12790, Indonesia",bank,-6.24508725,106.82628696455853,Jalan Mampang Prapatan Raya,Daerah Khusus Ibukota Jakarta,Jakarta Selatan,12790,BANK MANDIRI
"Bank Mandiri, Jalan Penegak III, RW 02, Palmeriam, Matraman, Jakarta Timur, Daerah Khusus Ibukota Jakarta, 13140, Indonesia",bank,-6.2008206,106.85588511034632,Jalan Penegak III,Daerah Khusus Ibukota Jakarta,Jakarta Timur,13140,BANK MANDIRI
"Bank Mandiri, Jalan Cempaka Putih Permai, RW 05, Cempaka Putih Timur, Cempaka Putih, Jakarta Pusat, Daerah Khusus Ibukota Jakarta, 10640, Indonesia",bank,-6.17131695,106.86584073794417,Jalan Cempaka Putih Permai,Daerah Khusus Ibukota Jakarta,Jakarta Pusat,10640,BANK MANDIRI
"Bank Mandiri, Jalan Radio Dalam, RW 13, Gandaria Utara, Kebayoran Baru, Jakarta Selatan, Daerah Khusus Ibukota Jakarta, 12140, Indonesia",bank,-6.2560392,106.78994735,Jalan Radio Dalam,Daerah Khusus Ibukota Jakarta,Jakarta Selatan,12140,BANK MANDIRI
"Bank Mandiri, Jalan Cipinang Jaya, RW 07, Cipinang Besar Selatan, Jatinegara, Jakarta Timur, Daerah Khusus Ibukota Jakarta, 13410, Indonesia",bank,-6.2246006000000005,106.8844929657738,Jalan Cipinang Jaya,Daerah Khusus Ibukota Jakarta,Jakarta Timur,13410,BANK MANDIRI
"Bank Mandiri, Jalan Tebet Barat Dalam II A, RW 03, Tebet Barat, Tebet, Jakarta Selatan, Daerah Khusus Ibukota Jakarta, Jawa, 12810, Indonesia",bank,-6.23721265,106.84469995450752,Jalan Tebet Barat Dalam II A,Daerah Khusus Ibukota Jakarta,Jakarta Selatan,12810,BANK MANDIRI
"Bank Mandiri, Jalan Tebet Barat IX, RW 04, Tebet Barat, Tebet, Jakarta Selatan, Daerah Khusus Ibukota Jakarta, 12810, Indonesia",bank,-6.23834715,106.84982405461491,Jalan Tebet Barat IX,Daerah Khusus Ibukota Jakarta,Jakarta Selatan,12810,BANK MANDIRI
"Bank Mandiri, Jalan Kemang Raya, RW 05, Bangka, Mampang Prapatan, Jakarta Selatan, Daerah Khusus Ibukota Jakarta, 12730, Indonesia",bank,-6.2590567,106.81497350200104,Jalan Kemang Raya,Daerah Khusus Ibukota Jakarta,Jakarta Selatan,12730,BANK MANDIRI
"Bank Mandiri, Jalan Sultan Agung, RW 10, Pasar Manggis, Setiabudi, Jakarta Selatan, Daerah Khusus Ibukota Jakarta, 12850, Indonesia",bank,-6.2084128,106.8440694,Jalan Sultan Agung,Daerah Khusus Ibukota Jakarta,Jakarta Selatan,12850,BANK MANDIRI
"Bank Mandiri, Jalan Jatinegara Barat II, RW 03, Bali Mester, Jatinegara, Jakarta Timur, Daerah Khusus Ibukota Jakarta, 13310, Indonesia",bank,-6.22020275,106.86760225153677,Jalan Jatinegara Barat II,Daerah Khusus Ibukota Jakarta,Jakarta Timur,13310,BANK MANDIRI
"Bank Mandiri, Jalan Cikini III, RW 05, Cikini, Menteng, Jakarta Pusat, Daerah Khusus Ibukota Jakarta, 10330, Indonesia",bank,-6.1912929000000005,106.83776564731996,Jalan Cikini III,Daerah Khusus Ibukota Jakarta,Jakarta Pusat,10330,BANK MANDIRI
"Bank Mandiri, Jalan Jatinegara Barat Raya, RW 01, Kampung Melayu, Jatinegara, Jakarta Timur, Daerah Khusus Ibukota Jakarta, Jawa, 13320, Indonesia",bank,-6.22214585,106.86544145378687,Jalan Jatinegara Barat Raya,Daerah Khusus Ibukota Jakarta,Jakarta Timur,13320,BANK MANDIRI
"Bank Mandiri, Jalan Minangkabau Timur Raya, RW 08, Pasar Manggis, Setiabudi, Jakarta Selatan, Daerah Khusus Ibukota Jakarta, 12850, Indonesia",bank,-6.2136871,106.8441669863821,Jalan Minangkabau Timur Raya,Daerah Khusus Ibukota Jakarta,Jakarta Selatan,12850,BANK MANDIRI
"Bank Mandiri, Jalan Komplek Perumahan BPK, RW 09, Rawasari, Cempaka Putih, Jakarta Pusat, Daerah Khusus Ibukota Jakarta, 10570, Indonesia",bank,-6.1858121,106.87070714999999,Jalan Komplek Perumahan BPK,Daerah Khusus Ibukota Jakarta,Jakarta Pusat,10570,BANK MANDIRI
"Bank Mandiri, Jalan Matraman, RW 06, Bali Mester, Jatinegara, Jakarta Timur, Daerah Khusus Ibukota Jakarta, 13320, Indonesia",bank,-6.214828150000001,106.86441807550591,Jalan Matraman,Daerah Khusus Ibukota Jakarta,Jakarta Timur,13320,BANK MANDIRI
"Bank Mandiri, Jalan Kebon Sirih Barat I, RW 02, Kebon Sirih, Menteng, Jakarta Pusat, Daerah Khusus Ibukota Jakarta, 10340, Indonesia",bank,-6.18358345,106.8259530268584,Jalan Kebon Sirih Barat I,Daerah Khusus Ibukota Jakarta,Jakarta Pusat,10340,BANK MANDIRI
"Bank Mandiri, Jalan Haji Tutty Alawiyah, RW 02, Duren Tiga, Pancoran, Jakarta Selatan, Daerah Khusus Ibukota Jakarta, 12760, Indonesia",bank,-6.25721755,106.82778809999999,Jalan Haji Tutty Alawiyah,Daerah Khusus Ibukota Jakarta,Jakarta Selatan,12760,BANK MANDIRI
"Bank Mandiri, Jalan Buncit Raya, RW 09, Kalibata, Pancoran, Jakarta Selatan, Daerah Khusus Ibukota Jakarta, 12740, Indonesia",bank,-6.26446885,106.83100759798904,Jalan Buncit Raya,Daerah Khusus Ibukota Jakarta,Jakarta Selatan,12740,BANK MANDIRI
"Bank Mandiri, Jalan Pemuda, RW 08, Jati, Pulo Gadung, Jakarta Timur, Daerah Khusus Ibukota Jakarta, 13250, Indonesia",bank,-6.19380095,106.89472615031808,Jalan Pemuda,Daerah Khusus Ibukota Jakarta,Jakarta Timur,13250,BANK MANDIRI
"Bank Mandiri, Jalan Alaydrus, RW 02, Petojo Utara, Gambir, Jakarta Pusat, Daerah Khusus Ibukota Jakarta, 10160, Indonesia",bank,-6.164381499999999,106.81609817733711,Jalan Alaydrus,Daerah Khusus Ibukota Jakarta,Jakarta Pusat,10160,BANK MANDIRI
"Bank Mandiri, Jalan Kingkit I, RW 04, Kebon Kelapa, Gambir, Jakarta Pusat, Daerah Khusus Ibukota Jakarta, Jawa, 10120, Indonesia",bank,-6.1666874,106.82739200399287,Jalan Kingkit I,Daerah Khusus Ibukota Jakarta,Jakarta Pusat,10120,BANK MANDIRI
"Bank Mandiri, Jalan Pegambiran, RW 10, Jati, Pulo Gadung, Jakarta Timur, Daerah Khusus Ibukota Jakarta, 13220, Indonesia",bank,-6.20065215,106.89075260000001,Jalan Pegambiran,Daerah Khusus Ibukota Jakarta,Jakarta Timur,13220,BANK MANDIRI
"Bank Mandiri, Jalan Ende, RW 16, Tanjung Priok, Jakarta Utara, Daerah Khusus Ibukota Jakarta, 14310, Indonesia",bank,-6.1104362,106.88814147606581,Jalan Ende,Daerah Khusus Ibukota Jakarta,Jakarta Utara,14310,BANK MANDIRI
"Bank Mandiri, Jalan Tomang Raya, RW 01, Jati Pulo, Palmerah, Jakarta Barat, Daerah Khusus Ibukota Jakarta, 11440, Indonesia",bank,-6.1789261,106.79782610064521,Jalan Tomang Raya,Daerah Khusus Ibukota Jakarta,Jakarta Barat,11440,BANK MANDIRI
"Bank Mandiri, Jalan Bendungan Hilir, RW 01, Bendungan Hilir, Tanah Abang, Jakarta Pusat, Daerah Khusus Ibukota Jakarta, 10210, Indonesia",bank,-6.21201125,106.81251843318034,Jalan Bendungan Hilir,Daerah Khusus Ibukota Jakarta,Jakarta Pusat,10210,BANK MANDIRI
"Bank Mandiri, Jalan Lapangan Tembak, RW 02, Cibubur, Ciracas, Jakarta Timur, Daerah Khusus Ibukota Jakarta, 13730, Indonesia",bank,-6.349108149999999,106.87656705916265,Jalan Lapangan Tembak,Daerah Khusus Ibukota Jakarta,Jakarta Timur,13730,BANK MANDIRI
"Bank Mandiri, Gang Taqwa, RW 08, Kelapa Dua Wetan, Ciracas, Jakarta Timur, Daerah Khusus Ibukota Jakarta, 13730, Indonesia",bank,-6.340160600000001,106.88782165,Gang Taqwa,Daerah Khusus Ibukota Jakarta,Jakarta Timur,13730,BANK MANDIRI
"Bank Mandiri, Jalan Sungai Barito, RW 01, Semper Barat, Cilincing, Jakarta Utara, Daerah Khusus Ibukota Jakarta, 14130, Indonesia",bank,-6.12944955,106.91913534550795,Jalan Sungai Barito,Daerah Khusus Ibukota Jakarta,Jakarta Utara,14130,BANK MANDIRI
"Bank Mandiri, Jalan Raya Ragunan, RW 03, Pasar Minggu, Jakarta Selatan, Daerah Khusus Ibukota Jakarta, 12510, Indonesia",bank,-6.2850785,106.83853595,Jalan Raya Ragunan,Daerah Khusus Ibukota Jakarta,Jakarta Selatan,12510,BANK MANDIRI
"Bank Mandiri, Jalan Pahlawan Revolusi, RW 05, Pondok Bambu, Duren Sawit, Jakarta Timur, Daerah Khusus Ibukota Jakarta, 13430, Indonesia",bank,-6.23987025,106.90043210076885,Jalan Pahlawan Revolusi,Daerah Khusus Ibukota Jakarta,Jakarta Timur,13430,BANK MANDIRI
"Bank Mandiri, Jalan Kelapa Kopyor 14, RW 07, Pondok Kelapa, Duren Sawit, Jakarta Timur, Daerah Khusus Ibukota Jakarta, 13440, Indonesia",bank,-6.24699105,106.92148879999999,Jalan Kelapa Kopyor 14,Daerah Khusus Ibukota Jakarta,Jakarta Timur,13440,BANK MANDIRI
"Bank Mandiri, Jalan Perumahan Green Ville, RW 14, Duri Kepa, Kebon Jeruk, Jakarta Barat, Daerah Khusus Ibukota Jakarta, 11510, Indonesia",bank,-6.17052065,106.77513818997342,Jalan Perumahan Green Ville,Daerah Khusus Ibukota Jakarta,Jakarta Barat,11510,BANK MANDIRI
"Bank Mandiri, Jalan Panjang Raya, RW 02, Kelapa Dua, Kebon Jeruk, Jakarta Barat, Daerah Khusus Ibukota Jakarta, 11540, Indonesia",bank,-6.2026933,106.7697772,Jalan Panjang Raya,Daerah Khusus Ibukota Jakarta,Jakarta Barat,11540,BANK MANDIRI
"Bank Mandiri, Jalan RS Fatmawati, RW 03, Cilandak Barat, Cilandak, Jakarta Selatan, Daerah Khusus Ibukota Jakarta, 12430, Indonesia",bank,-6.28096345,106.79672373191391,Jalan RS Fatmawati,Daerah Khusus Ibukota Jakarta,Jakarta Selatan,12430,BANK MANDIRI
"Bank Mandiri, Jalan Cucut, RW 08, Tanjung Priok, Jakarta Utara, Daerah Khusus Ibukota Jakarta, 14310, Indonesia",bank,-6.1114618,106.88151481029502,Jalan Cucut,Daerah Khusus Ibukota Jakarta,Jakarta Utara,14310,BANK MANDIRI
"Bank Mandiri, Jalan Interkota Indah, RW 07, Duri Kosambi, Cengkareng, Jakarta Barat, Daerah Khusus Ibukota Jakarta, 11750, Indonesia",bank,-6.1659934,106.72448356478469,Jalan Interkota Indah,Daerah Khusus Ibukota Jakarta,Jakarta Barat,11750,BANK MANDIRI
"Bank Mandiri, Jalan Melawai Raya, RW 01, Melawai, Kebayoran Baru, Jakarta Selatan, Daerah Khusus Ibukota Jakarta, Jawa, 12160, Indonesia",bank,-6.24567315,106.80053129005393,Jalan Melawai Raya,Daerah Khusus Ibukota Jakarta,Jakarta Selatan,12160,BANK MANDIRI
"Bank Mandiri, Jalan Kolonel Soegiono, RW 03, Duren Sawit, Jakarta Timur, Daerah Khusus Ibukota Jakarta, 13450, Indonesia",bank,-6.2293810999999994,106.90866147413813,Jalan Kolonel Soegiono,Daerah Khusus Ibukota Jakarta,Jakarta Timur,13450,BANK MANDIRI
"Bank Mandiri, Jalan Raya Kebayoran Lama, RW 11, Grogol Selatan, Kebayoran Lama, Jakarta Selatan, Daerah Khusus Ibukota Jakarta, 12220, Indonesia",bank,-6.23056885,106.77976566147687,Jalan Raya Kebayoran Lama,Daerah Khusus Ibukota Jakarta,Jakarta Selatan,12220,BANK MANDIRI
"Bank Mandiri, Jalan Tanjung Gedong, RW 16, Tomang, Grogol Petamburan, Jakarta Barat, Daerah Khusus Ibukota Jakarta, 11450, Indonesia",bank,-6.1670116,106.79322237739375,Jalan Tanjung Gedong,Daerah Khusus Ibukota Jakarta,Jakarta Barat,11450,BANK MANDIRI
"Bank Mandiri, Jalan Plumpang Semper, RW 01, Tugu Selatan, Koja, Jakarta Utara, Daerah Khusus Ibukota Jakarta, 14260, Indonesia",bank,-6.1294261,106.90731897382105,Jalan Plumpang Semper,Daerah Khusus Ibukota Jakarta,Jakarta Utara,14260,BANK MANDIRI
"Bank Mandiri, Jalan Panglima Polim III, RW 04, Blok N, Kebayoran Baru, Jakarta Selatan, Daerah Khusus Ibukota Jakarta, 12160, Indonesia",bank,-6.2464803,106.80033669992082,Jalan Panglima Polim III,Daerah Khusus Ibukota Jakarta,Jakarta Selatan,12160,BANK MANDIRI
"Bank Mandiri, Jalan Bintaro Utama I, RW 08, Bintaro, Pesanggrahan, Jakarta Selatan, Daerah Khusus Ibukota Jakarta, 12330, Indonesia",bank,-6.27122715,106.75713810040622,Jalan Bintaro Utama I,Daerah Khusus Ibukota Jakarta,Jakarta Selatan,12330,BANK MANDIRI
"Bank Mandiri, Jalan Pademangan IV Gang 6, RW 08, Pademangan Timur, Pademangan, Jakarta Utara, Daerah Khusus Ibukota Jakarta, 14410, Indonesia",bank,-6.1404007499999995,106.83970340348576,Jalan Pademangan IV Gang 6,Daerah Khusus Ibukota Jakarta,Jakarta Utara,14410,BANK MANDIRI
"Bank Mandiri, Jalan Palatehan, RW 01, Blok K, Kebayoran Baru, Jakarta Selatan, Daerah Khusus Ibukota Jakarta, 12130, Indonesia",bank,-6.243091700000001,106.80182229985041,Jalan Palatehan,Daerah Khusus Ibukota Jakarta,Jakarta Selatan,12130,BANK MANDIRI
"Bank Mandiri, Jalan Kredit, RW 04, Wijaya Kusuma, Grogol Petamburan, Jakarta Barat, Daerah Khusus Ibukota Jakarta, 11460, Indonesia",bank,-6.15857865,106.76969920104312,Jalan Kredit,Daerah Khusus Ibukota Jakarta,Jakarta Barat,11460,BANK MANDIRI
"Bank Mandiri, Jalan Parang Tritis I, RW 11, Ancol, Pademangan, Jakarta Utara, Daerah Khusus Ibukota Jakarta, 14430, Indonesia",bank,-6.12855785,106.8221949,Jalan Parang Tritis I,Daerah Khusus Ibukota Jakarta,Jakarta Utara,14430,BANK MANDIRI
"Bank Mandiri, Jalan Lodan Raya, RW 02, Ancol, Pademangan, Jakarta Utara, Daerah Khusus Ibukota Jakarta, 14430, Indonesia",bank,-6.12960135,106.81662675,Jalan Lodan Raya,Daerah Khusus Ibukota Jakarta,Jakarta Utara,14430,BANK MANDIRI
"Bank Mandiri, Jalan Paradise Raya IV, RW 12, Sunter Agung, Tanjung Priok, Jakarta Utara, Daerah Khusus Ibukota Jakarta, 14350, Indonesia",bank,-6.138480899999999,106.86762274641798,Jalan Paradise Raya IV,Daerah Khusus Ibukota Jakarta,Jakarta Utara,14350,BANK MANDIRI
"Bank Mandiri, Jalan Pluit Selatan Raya, RW 06, Pluit, Penjaringan, Jakarta Utara, Daerah Khusus Ibukota Jakarta, 14440, Indonesia",bank,-6.1259489,106.7896438,Jalan Pluit Selatan Raya,Daerah Khusus Ibukota Jakarta,Jakarta Utara,14440,BANK MANDIRI
"Bank Mandiri, Jalan Pluit Karang Indah Timur, RW 14, Pluit, Penjaringan, Jakarta Utara, Daerah Khusus Ibukota Jakarta, 14440, Indonesia",bank,-6.120892700000001,106.78303647550342,Jalan Pluit Karang Indah Timur,Daerah Khusus Ibukota Jakarta,Jakarta Utara,14440,BANK MANDIRI
"Bank Mandiri, Jalan Griya Elok, RW 20, Sunter Agung, Tanjung Priok, Jakarta Utara, Daerah Khusus Ibukota Jakarta, Jawa, 14350, Indonesia",bank,-6.1400959,106.85601935,Jalan Griya Elok,Daerah Khusus Ibukota Jakarta,Jakarta Utara,14350,BANK MANDIRI
"Bank Mandiri, Jalan WR Supratman, RW 04, Cempaka Putih, Ciputat Timur, Tangerang Selatan, Banten, 15419, Indonesia",bank,-6.3041461,106.75492755440783,Jalan WR Supratman,Tangerang Selatan,Ciputat Timur,15419,BANK MANDIRI
"Bank Mandiri, Jalan Insinyur Haji Juanda, RW 01, Rempoa, Ciputat Timur, Tangerang Selatan, Banten, 15419, Indonesia",bank,-6.29656005,106.76590260016317,Jalan Insinyur Haji Juanda,Tangerang Selatan,Ciputat Timur,15419,BANK MANDIRI
"Bank Mandiri, Jalan Muara Karang Raya, RW 18, Pluit, Penjaringan, Jakarta Utara, Daerah Khusus Ibukota Jakarta, 14440, Indonesia",bank,-6.1162399999999995,106.7766833718377,Jalan Muara Karang Raya,Daerah Khusus Ibukota Jakarta,Jakarta Utara,14440,BANK MANDIRI
"Bank Mandiri, Jalan Teluk Permata 10, RW 15, Pejagalan, Penjaringan, Jakarta Utara, Daerah Khusus Ibukota Jakarta, 14450, Indonesia",bank,-6.139962499999999,106.77757554930845,Jalan Teluk Permata 10,Daerah Khusus Ibukota Jakarta,Jakarta Utara,14450,BANK MANDIRI
"Bank Mandiri, Jalan RS Fatmawati, RW 05, Cipete Utara, Kebayoran Baru, Jakarta Selatan, Daerah Khusus Ibukota Jakarta, 12140, Indonesia",bank,-6.26101195,106.7969336508368,Jalan RS Fatmawati,Daerah Khusus Ibukota Jakarta,Jakarta Selatan,12140,BANK MANDIRI
"Bank Mandiri, Jalan Agung Utara Raya, RW 10, Sunter Agung, Tanjung Priok, Jakarta Utara, Daerah Khusus Ibukota Jakarta, 14350, Indonesia",bank,-6.1397882500000005,106.86075650322019,Jalan Agung Utara Raya,Daerah Khusus Ibukota Jakarta,Jakarta Utara,14350,BANK MANDIRI
"Bank Mandiri, 3, Jalan Sisingamangaraja, RW 08, Gunung, Kebayoran Baru, Jakarta Selatan, Daerah Khusus Ibukota Jakarta, 12130, Indonesia",bank,-6.23887195,106.79806285000001,Jalan Sisingamangaraja,Jakarta Selatan,Kebayoran Baru,12130,BANK MANDIRI
"Bank Mandiri, Jalan Jenderal Sudirman, Bintaro Jaya, Pondok Jaya, Pondok Aren, Tangerang Selatan, Banten, 15220, Indonesia",bank,-6.278200099999999,106.72159294682213,Jalan Jenderal Sudirman,Tangerang Selatan,Pondok Aren,15220,BANK MANDIRI
"Bank Mandiri, 10, Purwakarta, Jawa Barat, Jawa, 41115, Indonesia",bank,-6.5439475,107.4437652,10,Jawa,Jawa Barat,41115,BANK MANDIRI
"Bank Mandiri, Kapten A. Rivai, Ilir Timur I, Palembang, Sumatera Selatan, Sumatera, 30135, Indonesia",bank,-2.9786254,104.748141,Kapten A. Rivai,Sumatera Selatan,Palembang,30135,BANK MANDIRI
"Bank Mandiri, Jalan Brigjen Hasan Kasim, Kalidoni, Palembang, Sumatera Selatan, Sumatera, 30114, Indonesia",bank,-2.9498981,104.7856482,Jalan Brigjen Hasan Kasim,Sumatera Selatan,Palembang,30114,BANK MANDIRI
"Bank Mandiri, Jalan Siaran, Perumahan Pusri Sako, Sako, Palembang, Sumatera Selatan, 30163, Indonesia",bank,-2.9306922,104.7898469,Jalan Siaran,Sumatera Selatan,Palembang,30163,BANK MANDIRI
"Bank Mandiri, Jalan Jenderal Sudirman, Pangkalpinang, Kepulauan Bangka Belitung, 33125, Indonesia",bank,-2.13113055,106.11548205345395,Jalan Jenderal Sudirman,Kepulauan Bangka Belitung,Pangkalpinang,33125,BANK MANDIRI
"Bank Mandiri, Taifur Yusuf, Cianjur, Jawa Barat, 43211, Indonesia",bank,-6.819039350000001,107.1402563,Taifur Yusuf,Jawa Barat,Cianjur,43211,BANK MANDIRI
"Bank Mandiri, Jalan Mentok, Pangkalpinang, Bangka, Kepulauan Bangka Belitung, 33125, Indonesia",bank,-2.1352772,106.10330869462499,Jalan Mentok,Kepulauan Bangka Belitung,Bangka,33125,BANK MANDIRI
"Bank Mandiri, Jalan Jenderal Sudirman, Dusun Mawar, Desa Gadung, Toboali, Bangka Selatan, Kepulauan Bangka Belitung, 33183, Indonesia",bank,-3.0081759,106.4619943,Jalan Jenderal Sudirman,Kepulauan Bangka Belitung,Bangka Selatan,33183,BANK MANDIRI
"Bank Mandiri, Kapten A. Rivai, Ilir Timur I, Palembang, Sumatera Selatan, 30135, Indonesia",bank,-2.9795964,104.7479012,Kapten A. Rivai,Sumatera Selatan,Palembang,30135,BANK MANDIRI
"Bank Mandiri, Kapten A. Rivai, Bukit Kecil, Palembang, Sumatera Selatan, 30135, Indonesia",bank,-2.9813869,104.74451969337264,Kapten A. Rivai,Sumatera Selatan,Palembang,30135,BANK MANDIRI
"Bank Mandiri, Jalan Candi Welan, RW. 03, Kel. 24 ILIR, Kec. Bukit Kecil, Palembang, Ilir Timur I, Palembang, Sumatera Selatan, 30124, Indonesia",bank,-2.9808417,104.75554415931552,Jalan Candi Welan,Sumatera Selatan,Palembang,30124,BANK MANDIRI
"BANK MANDIRI, Jalan Dokter M. Isa, RW 04 Kel.Kuto Batu, Ilir Timur II, Palembang, Sumatera Selatan, 30110, Indonesia",bank,-2.97584745,104.77052472211159,Jalan Dokter M. Isa,Sumatera Selatan,Palembang,30110,BANK MANDIRI
"Bank Mandiri, Jalan Lintas Sumatera, Bandar Jaya, Lampung Tengah, Lampung, 34162, Indonesia",bank,-4.9332349,105.2119519,Jalan Lintas Sumatera,Lampung,Lampung Tengah,34162,BANK MANDIRI
"Bank Mandiri, Jalan Lintas Sumatera, Bandar Jaya, Lampung Tengah, Lampung, 34162, Indonesia",bank,-4.9479866,105.2155331,Jalan Lintas Sumatera,Lampung,Lampung Tengah,34162,BANK MANDIRI
"Bank Mandiri, Jalan Kota Agung - Balimbing, Sukabanjar, Tanggamus, Lampung, Indonesia",bank,-5.3675699,104.7791147,Jalan Kota Agung - Balimbing,Sukabanjar,Jalan Kota Agung - Balimbing,Lampung,BANK MANDIRI
"Bank Mandiri, Hypermart Nagoya Hill, Baloi, Lubuk Baja Kota, Batam, Kepulauan Riau, Sumatera, 29400, Indonesia",bank,1.1443908,104.0123483,Hypermart Nagoya Hill,Kepulauan Riau,Batam,29400,BANK MANDIRI
"Bank Mandiri, Jalan A.H Nasution, Iringmulyo, Metro, Lampung, 34111, Indonesia",bank,-5.11385395,105.31149524218476,Jalan A.H Nasution,Lampung,Metro,34111,BANK MANDIRI
"Bank Mandiri, Gang Dahlia V, Kotabumi, Lampung Utara, Lampung, Indonesia",bank,-4.8221419,104.8794189,Gang Dahlia V,Lampung Utara,Kotabumi,Lampung,BANK MANDIRI
"Bank Mandiri, Jalan Ahmad Yani, Wiyono, Pesawaran, Lampung, 35371, Indonesia",bank,-5.3794397,105.1128323,Jalan Ahmad Yani,Lampung,Pesawaran,35371,BANK MANDIRI
"Bank Mandiri, Jalan Satria, Jati Indah, Lampung Selatan, Lampung, Indonesia",bank,-5.4223551,105.4170938,Jalan Satria,Lampung Selatan,Jati Indah,Lampung,BANK MANDIRI
"Bank Mandiri, Sagulung, Batu Aji, Batam, Kepulauan Riau, 29439, Indonesia",bank,1.0369471,103.97541565270043,Sagulung,Kepulauan Riau,Batam,29439,BANK MANDIRI
"Bank Mandiri, Jalan Kartini, Dumai, Kecamatan Dumai Timur, Kota Dumai, Riau, 28826, Indonesia",bank,1.6708695,101.4476186,Jalan Kartini,Kota Dumai,Kecamatan Dumai Timur,28826,BANK MANDIRI
"Bank Mandiri, Jalan Yos Sudarso, Lubuklinggau Timur I, Lubuklinggau, Sumatera Selatan, 31625, Indonesia",bank,-3.2866991,102.8813704,Jalan Yos Sudarso,Sumatera Selatan,Lubuklinggau,31625,BANK MANDIRI
"Bank Mandiri, Jalan Kemas Abdul Malik, Pagar Alam Utara, Pagar Alam, Sumatera Selatan, Indonesia",bank,-4.0201447,103.2527555,Jalan Kemas Abdul Malik,Pagar Alam,Pagar Alam Utara,Sumatera Selatan,BANK MANDIRI
"Bank Mandiri, Jalan Ahmad Yani, Bengkalis, Kecamatan Bengkalis, Kabupaten Bengkalis, Riau, 28752, Indonesia",bank,1.4733922,102.1126516,Jalan Ahmad Yani,Kabupaten Bengkalis,Kecamatan Bengkalis,28752,BANK MANDIRI
"Bank Mandiri, Jalan Letnan Idham, Muara Enim, Sumatera Selatan, 31471, Indonesia",bank,-3.6556678,103.7743885,Jalan Letnan Idham,Sumatera Selatan,Muara Enim,31471,BANK MANDIRI
"Bank Mandiri, Jalan Sultan Thaha, Kelurahan Wirotho Agung, Tebo, Jambi, 37253, Indonesia",bank,-1.3088661,102.1075256,Jalan Sultan Thaha,Jambi,Tebo,37253,BANK MANDIRI
"Bank Mandiri, Jalan Yos Sudarso, Lubuklinggau Timur I, Lubuklinggau, Sumatera Selatan, 31625, Indonesia",bank,-3.2834871,102.8868196,Jalan Yos Sudarso,Sumatera Selatan,Lubuklinggau,31625,BANK MANDIRI
"Bank Mandiri, Jalan S. Parman, Penurunan, Ratu Samban, Bengkulu, 38228, Indonesia",bank,-3.80042815,102.27077869885395,Jalan S. Parman,Bengkulu,Ratu Samban,38228,BANK MANDIRI
"Bank Mandiri, Chevron Rumbai, Kelurahan Lembah Damai, Kabupaten Kampar, Riau, 28271, Indonesia",bank,0.5798777,101.4413397,Chevron Rumbai,Riau,Kabupaten Kampar,28271,BANK MANDIRI
"Bank Mandiri, Jalan Jenderal Sudirman, Kelurahan Tanah Datar, Kabupaten Kampar, Riau, 28144, Indonesia",bank,0.5205547,101.4470794,Jalan Jenderal Sudirman,Riau,Kabupaten Kampar,28144,BANK MANDIRI
"Bank Mandiri, Jalan Haji Imam Munandar, Pekanbaru, Kabupaten Kampar, Riau, 28282, Indonesia",bank,0.5009441,101.4756916,Jalan Haji Imam Munandar,Riau,Kabupaten Kampar,28282,BANK MANDIRI
"Bank Mandiri, Jalan Jenderal Sudirman, Kelurahan Sukaramai, Kabupaten Kampar, Riau, 28144, Indonesia",bank,0.5270991,101.4472005,Jalan Jenderal Sudirman,Riau,Kabupaten Kampar,28144,BANK MANDIRI
"Bank Mandiri, Jalan Uin Suska Riau, Pekanbaru, Kabupaten Kampar, Riau, 28293, Indonesia",bank,0.4646205,101.356233,Jalan Uin Suska Riau,Riau,Kabupaten Kampar,28293,BANK MANDIRI
"Bank Mandiri, Jalan Hang Tuah, Duri, Kecamatan Mandau, Kabupaten Bengkalis, Riau, 28784, Indonesia",bank,1.2812382,101.1943423,Jalan Hang Tuah,Kabupaten Bengkalis,Kecamatan Mandau,28784,BANK MANDIRI
"Bank Mandiri, Jalan A. Yani, Bangkinang Kota, Kabupaten Kampar, Riau, 28411, Indonesia",bank,0.336492,101.0204283,Jalan A. Yani,Riau,Kabupaten Kampar,28411,BANK MANDIRI
"Bank Mandiri, Jalan Melati, Kelurahan Simpang Baru, Kabupaten Kampar, Riau, 16547, Indonesia",bank,0.4952742,101.3737518,Jalan Melati,Riau,Kabupaten Kampar,16547,BANK MANDIRI
"Bank Mandiri, Jalan Mohammad Yamin, Kelurahan Sukaramai, Kabupaten Kampar, Riau, 28144, Indonesia",bank,0.5319674,101.4470780091275,Jalan Mohammad Yamin,Riau,Kabupaten Kampar,28144,BANK MANDIRI
"Bank Mandiri, Jalan Jendral Sudirman, Ranah Dalam 1, Padang, Sumatera Barat, 25112, Indonesia",bank,-0.9483796,100.3628683,Jalan Jendral Sudirman,Sumatera Barat,Padang,25112,BANK MANDIRI
"Bank Mandiri, Jalan Bagindo Aziz Chan, Ranah Dalam 1, Padang, Sumatera Barat, 25119, Indonesia",bank,-0.951832,100.3642237,Jalan Bagindo Aziz Chan,Sumatera Barat,Padang,25119,BANK MANDIRI
"Bank Mandiri, Jalan Batang Arau, Kampung Pondok, Padang, Sumatera Barat, 25118, Indonesia",bank,-0.9637905,100.3609438,Jalan Batang Arau,Sumatera Barat,Padang,25118,BANK MANDIRI
"Bank Mandiri, Jalan Lintas Sumatera, Muaro Kalaban, Sawahlunto, Kupitan, Sumatera Barat, Indonesia",bank,-0.68054145,100.77670834497638,Jalan Lintas Sumatera,Kupitan,Sawahlunto,Sumatera Barat,BANK MANDIRI
"Bank Mandiri, Jalan Marsan Sejahtera, Kelurahan Sidomulyo Barat, Kabupaten Kampar, Riau, 28294, Indonesia",bank,0.4636841,101.4096042,Jalan Marsan Sejahtera,Riau,Kabupaten Kampar,28294,BANK MANDIRI
"Bank Mandiri, Jalan Datuk Tabano, Pasar Atas (Pasar Inpres) Bangkinang, Bangkinang, Kabupaten Kampar, Riau, 28412, Indonesia",bank,0.3422111,101.0241055,Jalan Datuk Tabano,Kabupaten Kampar,Bangkinang,28412,BANK MANDIRI
"Bank Mandiri, Jalan HR. Soebrantas, Pekanbaru, Kabupaten Kampar, Riau, 28297, Indonesia",bank,0.46368770000000004,101.38570417149774,Jalan HR. Soebrantas,Riau,Kabupaten Kampar,28297,BANK MANDIRI
"Bank Mandiri, Padang - Bukittinggi, Korong Pasa Mudiak, KORONG PASA MUDIAK, Padang Pariaman, Sumatera Barat, 25582, Indonesia",bank,-0.6658984,100.2858545,Padang - Bukittinggi,Sumatera Barat,Padang Pariaman,25582,BANK MANDIRI
"Bank Mandiri, Jalan Setia Budi, Tanjung Rejo, Medan Sunggal, Kota Medan, Sumatera Utara, 20133, Indonesia",bank,3.564632,98.6385032,Jalan Setia Budi,Sumatera Utara,Kota Medan,20133,BANK MANDIRI
"Bank Mandiri, Jalan Kapten Muslim, Sei Sikambing, Medan Helvetia, Kota Medan, Sumatera Utara, 20123, Indonesia",bank,3.6009221,98.6454973,Jalan Kapten Muslim,Sumatera Utara,Kota Medan,20123,BANK MANDIRI
"Bank Mandiri, Jalan Raya Medan Banda Aceh, Langsa Kota, Langsa, Aceh, 24412, Indonesia",bank,4.4705866,97.96962103753117,Jalan Raya Medan Banda Aceh,Aceh,Langsa,24412,BANK MANDIRI
"Bank Mandiri, Jalan Serma Lian Kosong, Wek II, Padang Sidempuan, Kota Padang Sidempuan, Sumatera Utara, 22718, Indonesia",bank,1.3803952499999999,99.27114199080859,Jalan Serma Lian Kosong,Sumatera Utara,Kota Padang Sidempuan,22718,BANK MANDIRI
"Bank Mandiri, Tebing Tinggi, Jalan Dokter Sutomo, Tebing Tinggi, Kota Tebing Tinggi, Sumatera Utara, 20600, Indonesia",bank,3.3271571,99.1646721,Tebing Tinggi,Sumatera Utara,Kota Tebing Tinggi,20600,BANK MANDIRI
"Bank Mandiri, Jalan Raya Medan-Tebing Tinggi, Lingkungan Tempel, Simpang Tiga Pekan, Perbaungan, Serdang Bedagai, Sumatera Utara, Indonesia",bank,3.5674782,98.9554842,Jalan Raya Medan-Tebing Tinggi,Serdang Bedagai,Perbaungan,Sumatera Utara,BANK MANDIRI
"Bank Mandiri, Jalan Otto Iskandardinata, Balonggede, Regol, Bandung, Jawa Barat, 40251, Indonesia",bank,-6.924475,107.60406507220456,Jalan Otto Iskandardinata,Jawa Barat,Bandung,40251,BANK MANDIRI
"Bank Mandiri, 16-D, Jalan Zainul Arifin, Little India, Petisah, Medan Petisah, Kota Medan, Sumatera Utara, 20112, Indonesia",bank,3.5838498,98.6745519,16-D,Kota Medan,Medan Petisah,20112,BANK MANDIRI
"Bank Mandiri, Jalan Rajawali, Keuramat, Kuta Alam, Banda Aceh, Aceh, 23121, Indonesia",bank,5.55861925,95.32859420071188,Jalan Rajawali,Banda Aceh,Kuta Alam,23121,BANK MANDIRI
"Bank Mandiri, Jalan Merdeka, Simpang Empat, Lhokseumawe, Aceh, 24351, Indonesia",bank,5.1812764,97.1407475,Jalan Merdeka,Aceh,Lhokseumawe,24351,BANK MANDIRI
"Bank Mandiri, Jalan Cilacap, Perumahan Perta Arun Gas, Muara Satu, Lhokseumawe, Aceh, 24353, Indonesia",bank,5.2184508,97.049759,Jalan Cilacap,Lhokseumawe,Muara Satu,24353,BANK MANDIRI
"Bank Mandiri, Jalan Merdeka, Lancang Garam, Lhokseumawe, Aceh, 24351, Indonesia",bank,5.1778781,97.150246,Jalan Merdeka,Aceh,Lhokseumawe,24351,BANK MANDIRI
"Bank Mandiri, Jalan Raya Medan Banda Aceh, Bireuen, Kota Juang, Bireuen, Aceh, 24186, Indonesia",bank,5.20151945,96.70079859614233,Jalan Raya Medan Banda Aceh,Bireuen,Kota Juang,24186,BANK MANDIRI
"Bank Mandiri, Mata Ie, Bitai, Darul Imarah, Aceh Besar, Aceh, 23352, Indonesia",bank,5.5144002,95.30322190077499,Mata Ie,Aceh Besar,Darul Imarah,23352,BANK MANDIRI
"Bank Mandiri, Jalan K.H. Zainul Arifin, Stabat Baru, Langkat, Sumatera Utara, 20811, Indonesia",bank,3.7531312999999997,98.45322385,Jalan K.H. Zainul Arifin,Sumatera Utara,Langkat,20811,BANK MANDIRI
"Bank Mandiri, Jalan Oerip Sumoharjo, Kec. Kota Lama, Bonipoi, Kupang, Nusa Tenggara Timur, 85221, Indonesia",bank,-10.161769849999999,123.58265065604516,Jalan Oerip Sumoharjo,Nusa Tenggara Timur,Kupang,85221,BANK MANDIRI
"Bank Mandiri, Jalan Adi Sucipto, Lingk. Kebon Roek, Kel. Dayan Peken, Mataram, Kec. Ampenan, Nusa Tenggara Barat, 83111, Indonesia",bank,-8.5661779,116.0776277,Jalan Adi Sucipto,Nusa Tenggara Barat,Kec. Ampenan,83111,BANK MANDIRI
"Bank Mandiri, 105, Jalan Gajah Mada, Pemecutan, Denpasar Barat, Bali, 80232, Indonesia",bank,-8.6554598,115.21180081385354,105,Denpasar Barat,Pemecutan,80232,BANK MANDIRI
"Bank Mandiri, Jalan I. Gusti Ngurah Rai, Gianyar, Bali, 80512, Indonesia",bank,-8.5415979,115.3261588,Jalan I. Gusti Ngurah Rai,Gianyar,Jalan I. Gusti Ngurah Rai,80512,BANK MANDIRI
"Bank Mandiri, Jalan AMD, Kalanganyar, Pandeglang, Banten, 42264, Indonesia",bank,-6.376155,105.8277107,Jalan AMD,Banten,Pandeglang,42264,BANK MANDIRI
"Bank Mandiri, Jalan WR. Supratman, Kesiman Kertalangu, Denpasar Timur, Bali, 80237, Indonesia",bank,-8.6398931,115.2525967,Jalan WR. Supratman,Bali,Denpasar Timur,80237,BANK MANDIRI
"Bank Mandiri, Jalan Kencana Utama, RW 07, Kembangan Selatan, Kembangan, Jakarta Barat, Daerah Khusus Ibukota Jakarta, 11610, Indonesia",bank,-6.1905488,106.7503107,Jalan Kencana Utama,Daerah Khusus Ibukota Jakarta,Jakarta Barat,11610,BANK MANDIRI
"BANK MANDIRI, Jalan Terusan Jakarta, Antapani Kulon, Antapani, Bandung, Jawa Barat, 40291, Indonesia",bank,-6.9131158,107.6585605,Jalan Terusan Jakarta,Jawa Barat,Bandung,40291,BANK MANDIRI
"Bank Mandiri, Jalan Soekarno-Hatta, Karang Rejo, Balikpapan, Kalimantan Timur, 76125, Indonesia",bank,-1.2416579,116.837221,Jalan Soekarno-Hatta,Kalimantan Timur,Balikpapan,76125,BANK MANDIRI
"Bank Mandiri, Jalan Panglima Besar Sudirman, Nyomplong, Sukabumi, Jawa Barat, 43111, Indonesia",bank,-6.9211998,106.9225435,Jalan Panglima Besar Sudirman,Jawa Barat,Sukabumi,43111,BANK MANDIRI
"Bank Mandiri, Jalan Parakan, Pondok Benda, Pamulang, Tangerang Selatan, Banten, 15434, Indonesia",bank,-6.3435612,106.7118938,Jalan Parakan,Tangerang Selatan,Pamulang,15434,BANK MANDIRI
"Bank Mandiri, Jalan Gajahmada, Genteng, Banyuwangi, Jawa Timur, 68465, Indonesia",bank,-8.3642711,114.1468671,Jalan Gajahmada,Jawa Timur,Banyuwangi,68465,BANK MANDIRI
"Bank Mandiri, Jalan WR. Supratman, Kesiman Kertalangu, Denpasar Timur, Bali, 80237, Indonesia",bank,-8.6398931,115.2525967,Jalan WR. Supratman,Bali,Denpasar Timur,80237,BANK MANDIRI
"Mandiri, Jalan Abdul Haris Nasution, Cigending, Ujungberung, Bandung, Jawa Barat, 40614, Indonesia",bank,-6.9132852,107.695072,Jalan Abdul Haris Nasution,Jawa Barat,Bandung,40614,MANDIRI
"Bank Mandiri, Jalan MH Thamrin, Bone, Watampone, Sulawesi Selatan, Sulawesi, 92712, Indonesia",bank,-4.5390251,120.3303282,Jalan MH Thamrin,Sulawesi Selatan,Watampone,92712,BANK MANDIRI
"Bank Mandiri, Jalan Teuku Umar, Tanjungpinang Kota, Tanjungpinang, Kepulauan Riau, Sumatera, 29112, Indonesia",bank,0.9299299,104.4429408,Jalan Teuku Umar,Kepulauan Riau,Tanjungpinang,29112,BANK MANDIRI
"Bank Mandiri, Jalan Jenderal Sudirman, Ruko Kodim, Purwokerto, Banyumas, Jawa Tengah, 53114, Indonesia",bank,-7.4272981,109.242285,Jalan Jenderal Sudirman,Jawa Tengah,Banyumas,53114,BANK MANDIRI
"Bank Mandiri, Jalan Kantor, Cirebon, Jawa Barat, Jawa, 45118, Indonesia",bank,-6.718067,108.57006976243545,Jalan Kantor,Jawa,Jawa Barat,45118,BANK MANDIRI
"Mandiri, Jalan Abdul Haris Nasution, Cigending, Ujungberung, Bandung, Jawa Barat, 40614, Indonesia",bank,-6.9132852,107.695072,Jalan Abdul Haris Nasution,Jawa Barat,Bandung,40614,MANDIRI
