display_name,type,lat,lon,alamat,zip,bank,country,provinsi,kota
"Maybank, Jalan Griya Utama, RW 20, Sunter Agung, Tanjung Priok, Jakarta Utara, Daerah Khusus Ibukota Jakarta, Jawa, 17705, Indonesia",bank,-6.1425816,106.8565679,Jalan Griya Utama,17705,MAYBANK,Indonesia,Daerah Khusus Ibukota Jakarta,Jakarta Utara
"Maybank, Jalan Angkasa Raya, RW 03, Gunung Sahari Selatan, Kemayoran, Jakarta Pusat, Daerah Khusus Ibukota Jakarta, 10610, Indonesia",bank,-6.15734955,106.84518004443518,Jalan Angkasa Raya,10610,MAYBANK,Indonesia,Daerah Khusus Ibukota Jakarta,Jakarta Pusat
"Maybank, Jalan Tampak Siring, RW 17, Kalideres, Jakarta Barat, Daerah Khusus Ibukota Jakarta, 11840, Indonesia",bank,-6.1485632,106.7137671,Jalan Tampak Siring,11840,MAYBANK,Indonesia,Daerah Khusus Ibukota Jakarta,Jakarta Barat
"Maybank, Jalan Bisma Raya, RW 19, Sunter Agung, Tanjung Priok, Jakarta Utara, Daerah Khusus Ibukota Jakarta, 14350, Indonesia",bank,-6.1334717,106.8657732,Jalan Bisma Raya,14350,MAYBANK,Indonesia,Daerah Khusus Ibukota Jakarta,Jakarta Utara
"Maybank, Jalan Podomoro Avenue, RW 05, Tanjung Duren Selatan, Grogol Petamburan, Jakarta Barat, Daerah Khusus Ibukota Jakarta, 11470, Indonesia",bank,-6.1757842,106.789881,Jalan Podomoro Avenue,11470,MAYBANK,Indonesia,Daerah Khusus Ibukota Jakarta,Jakarta Barat
"Maybank, Jalan Metro Pondok Indah, RW 14, Pondok Pinang, Kebayoran Lama, Jakarta Selatan, Daerah Khusus Ibukota Jakarta, 12310, Indonesia",bank,-6.284758500000001,106.780589325,Jalan Metro Pondok Indah,12310,MAYBANK,Indonesia,Daerah Khusus Ibukota Jakarta,Jakarta Selatan
"Maybank, Niaga Gapura Road, Citraland, Lidah Kulon, Lakarsantri, Surabaya, Jawa Timur, 60213, Indonesia",bank,-7.2916388,112.6547924,Niaga Gapura Road,60213,MAYBANK,Indonesia,Jawa Timur,Surabaya
"Maybank, Jalan Jenderal Ahmad Yani, Cicaheum, Kiaracondong, Bandung, Jawa Barat, Jawa, 40125, Indonesia",bank,-6.90537675,107.64995997826438,Jalan Jenderal Ahmad Yani,40125,MAYBANK,Indonesia,Jawa Barat,Bandung
"Maybank, Jalan Arif Rahman Hakim, Sukaramai, Medan Area, Kota Medan, Sumatera Utara, 20143, Indonesia",bank,3.5864412,98.7052743,Jalan Arif Rahman Hakim,20143,MAYBANK,Indonesia,Sumatera Utara,Kota Medan
"Maybank, Jalan Jenderal Sudirman, Terban, Gondokusuman, Kota Yogyakarta, Daerah Istimewa Yogyakarta, 55223, Indonesia",bank,-7.7833080500000005,110.37339670403364,Jalan Jenderal Sudirman,55223,MAYBANK,Indonesia,Daerah Istimewa Yogyakarta,Kota Yogyakarta
"Maybank, Jalan Pangeran Jayakarta, RW 10, Mangga Dua Selatan, Sawah Besar, Jakarta Pusat, Daerah Khusus Ibukota Jakarta, Jawa, 10730, Indonesia",bank,-6.1426802,106.8298631,Jalan Pangeran Jayakarta,10730,MAYBANK,Indonesia,Daerah Khusus Ibukota Jakarta,Jakarta Pusat
"Maybank, Jalan Cideng Timur, RW 04, Petojo Utara, Gambir, Jakarta Pusat, Daerah Khusus Ibukota Jakarta, Jawa, 10160, Indonesia",bank,-6.1643909,106.8108612,Jalan Cideng Timur,10160,MAYBANK,Indonesia,Daerah Khusus Ibukota Jakarta,Jakarta Pusat
"Maybank, Jalan Jenderal Sudirman, Terban, Gondokusuman, Kota Yogyakarta, Daerah Istimewa Yogyakarta, 55223, Indonesia",bank,-7.7833080500000005,110.37339670403364,Jalan Jenderal Sudirman,55223,MAYBANK,Indonesia,Daerah Istimewa Yogyakarta,Kota Yogyakarta
"Maybank, Jalan Magelang, Karangwaru, Tegalrejo, Kota Yogyakarta, Daerah Istimewa Yogyakarta, 55241, Indonesia",bank,-7.77348765,110.36112815,Jalan Magelang,55241,MAYBANK,Indonesia,Daerah Istimewa Yogyakarta,Kota Yogyakarta
"Maybank, Jalan Dewi Sartika, Bogor Tengah, Bogor, Jawa Barat, 16121, Indonesia",bank,-6.5955245,106.79183065,Jalan Dewi Sartika,16121,MAYBANK,Indonesia,Jawa Barat,Bogor
"Maybank, E.A. Mangindaan, Wenang Selatan, Manado, Sulawesi Utara, 95111, Indonesia",bank,1.4832529,124.8348079,E.A. Mangindaan,95111,MAYBANK,Indonesia,Sulawesi Utara,Manado
"Maybank, Komplek Veteran, Sungai Baru, Banjarmasin Tengah, Banjarmasin, Kalimantan Selatan, 70233, Indonesia",bank,-3.3227953,114.5988639,Komplek Veteran,70233,MAYBANK,Indonesia,Kalimantan Selatan,Banjarmasin
"Maybank, Jalan Tanjung Pura, Darat Sekip, Pontianak Kota, Pontianak, Kalimantan Barat, 78243, Indonesia",bank,-0.0270374,109.3426357,Jalan Tanjung Pura,78243,MAYBANK,Indonesia,Kalimantan Barat,Pontianak
"Maybank, Jalan Proklamasi, RW 02, Pegangsaan, Menteng, Jakarta Pusat, Daerah Khusus Ibukota Jakarta, 10320, Indonesia",bank,-6.20071465,106.84420522382013,Jalan Proklamasi,10320,MAYBANK,Indonesia,Daerah Khusus Ibukota Jakarta,Jakarta Pusat
"Maybank, Jalan Kiai Haji Zainul Arifin, RW 07, Krukut, Taman Sari, Jakarta Barat, Daerah Khusus Ibukota Jakarta, 11140, Indonesia",bank,-6.1599376,106.8166924,Jalan Kiai Haji Zainul Arifin,11140,MAYBANK,Indonesia,Daerah Khusus Ibukota Jakarta,Jakarta Barat
"Maybank, Jalan Raung, RW 01, Gajah Mungkur, Semarang, Jawa Tengah, Jawa, 50231, Indonesia",bank,-7.0078937,110.4156259,Jalan Raung,50231,MAYBANK,Indonesia,Jawa Tengah,Semarang
"Maybank, pecinan, RW 04, Kranggan, Semarang Tengah, Semarang, Jawa Tengah, Jawa, 50137, Indonesia",bank,-6.975380100000001,110.42781575000001,RW 04,50137,MAYBANK,Indonesia,Jawa Tengah,Semarang
"Maybank, Jalan Majapahit, RW 05, Gayamsari, Semarang, Jawa Tengah, Jawa, 50198, Indonesia",bank,-7.0022451,110.4482369353649,Jalan Majapahit,50198,MAYBANK,Indonesia,Jawa Tengah,Semarang
"Maybank, Jalan Anjasmoro Tengah II, RW 06, Karang Ayu, Semarang Barat, Semarang, Jawa Tengah, Jawa, 50144, Indonesia",bank,-6.977327949999999,110.39060949853246,Jalan Anjasmoro Tengah II,50144,MAYBANK,Indonesia,Jawa Tengah,Semarang
"Maybank, Jalan Simpang, RW 02, Sekayu, Semarang Tengah, Semarang, Jawa Tengah, Jawa, 50131, Indonesia",bank,-6.9828344,110.41148531003373,Jalan Simpang,50131,MAYBANK,Indonesia,Jawa Tengah,Semarang
"Maybank, Jalan Cokrokembang, RW 02, Krobokan, Semarang Barat, Semarang, Jawa Tengah, Jawa, 50141, Indonesia",bank,-6.9806621,110.39886374942759,Jalan Cokrokembang,50141,MAYBANK,Indonesia,Jawa Tengah,Semarang
"Maybank, Jalan Setia Budi, RW 08, Srondol Kulon, Banyumanik, Semarang, Jawa Tengah, Jawa, 50259, Indonesia",bank,-7.0497944,110.4186662,Jalan Setia Budi,50259,MAYBANK,Indonesia,Jawa Tengah,Semarang
"Maybank, Jalan Basuki Rahmad, Ronggomulyo, Tuban, Jawa Timur, Jawa, 62318, Indonesia",bank,-6.898292400000001,112.05668650605239,Jalan Basuki Rahmad,62318,MAYBANK,Indonesia,Jawa Timur,Tuban
"Maybank, Jalan Karomah Mohammad Mansyur, RW 02, Duri Utara, Tambora, Jakarta Barat, Daerah Khusus Ibukota Jakarta, Jawa, 11270, Indonesia",bank,-6.1538273,106.80785097825203,Jalan Karomah Mohammad Mansyur,11270,MAYBANK,Indonesia,Daerah Khusus Ibukota Jakarta,Jakarta Barat
"Maybank, Jalan Laksamana Laut Raden Eddy Martadinata, Citarum, Bandung Wetan, Bandung, Jawa Barat, Jawa, 40117, Indonesia",bank,-6.9069352,107.612842,Jalan Laksamana Laut Raden Eddy Martadinata,40117,MAYBANK,Indonesia,Jawa Barat,Bandung
"Maybank, Jalan BSB City, RW 03, Pesantren, Mijen, Semarang, Jawa Tengah, Jawa, 50181, Indonesia",bank,-7.0276493,110.3337568,Jalan BSB City,50181,MAYBANK,Indonesia,Jawa Tengah,Semarang
"Maybank, Jalan Ahmad Yani, Belakang Balok, Bukittinggi, Sumatera Barat, 26136, Indonesia",bank,-0.3021974,100.3686743,Jalan Ahmad Yani,26136,MAYBANK,Indonesia,Sumatera Barat,Bukittinggi
"Maybank, Jalan Jenderal Achmad Yani, Nyomplong, Sukabumi, Jawa Barat, 43111, Indonesia",bank,-6.9218552,106.9242238,Jalan Jenderal Achmad Yani,43111,MAYBANK,Indonesia,Jawa Barat,Sukabumi
"Maybank, Jalan Gladagan, Pancuran, Kutowinangun Lor, Salatiga, Jawa Tengah, Jawa, 50742, Indonesia",bank,-7.32313685,110.50277872755447,Jalan Gladagan,50742,MAYBANK,Indonesia,Jawa Tengah,Salatiga
"Maybank, Jalan Pahlawan Seribu, BSD City, Serpong Utara, Tangerang Selatan, Banten, Jawa, 15322, Indonesia",bank,-6.28181085,106.6632353833067,Jalan Pahlawan Seribu,15322,MAYBANK,Indonesia,Banten,Tangerang Selatan
"Maybank, Jalan Mambruk, SORONG, Klagete, Sorong, Papua Barat Daya, 98412, Indonesia",bank,-0.8837743,131.2868303,Jalan Mambruk,98412,MAYBANK,Indonesia,Papua Barat Daya,Sorong
"Maybank, Jalan Insinyur Haji Juanda, RW 03, Kebon Kelapa, Gambir, Jakarta Pusat, Daerah Khusus Ibukota Jakarta, 10120, Indonesia",bank,-6.1666687499999995,106.8252478,Jalan Insinyur Haji Juanda,10120,MAYBANK,Indonesia,Daerah Khusus Ibukota Jakarta,Jakarta Pusat
"Maybank, Jalan Letnan Jenderal MT Haryono, RW 02, Pancoran, Jakarta Selatan, Daerah Khusus Ibukota Jakarta, 12780, Indonesia",bank,-6.24391355,106.84422445,Jalan Letnan Jenderal MT Haryono,12780,MAYBANK,Indonesia,Daerah Khusus Ibukota Jakarta,Jakarta Selatan
"Maybank, Jalan Gading Kirana Timur IX, RW 08, Kelapa Gading Barat, Kelapa Gading, Jakarta Utara, Daerah Khusus Ibukota Jakarta, Jawa, 14360, Indonesia",bank,-6.1473951,106.9000559,Jalan Gading Kirana Timur IX,14360,MAYBANK,Indonesia,Daerah Khusus Ibukota Jakarta,Jakarta Utara
"Maybank, Jalan Kuta Indah, RW 07, Bukit Gading Villa, Kelapa Gading, Jakarta Utara, Daerah Khusus Ibukota Jakarta, Jawa, 14250, Indonesia",bank,-6.15857965,106.90293045,Jalan Kuta Indah,14250,MAYBANK,Indonesia,Daerah Khusus Ibukota Jakarta,Jakarta Utara
"Maybank, Jalan Lingkar Kencana, Sukaasih, Bojongloa Kaler, Bandung, Jawa Barat, 40232, Indonesia",bank,-6.9346895,107.58987075,Jalan Lingkar Kencana,40232,MAYBANK,Indonesia,Jawa Barat,Bandung
"Maybank, Jalan Jenderal Ahmad Yani, Kadia, Kendari, Sulawesi Tenggara, 93117, Indonesia",bank,-3.9929936,122.502409,Jalan Jenderal Ahmad Yani,93117,MAYBANK,Indonesia,Sulawesi Tenggara,Kendari
"Maybank, Jalan Bypass Ngurah Rai, Nusa Dua, Benoa, Kuta Selatan, Badung, Bali, 80363, Indonesia",bank,-8.7961467,115.2182151,Jalan Bypass Ngurah Rai,80363,MAYBANK,Indonesia,Bali,Badung
"Maybank, Jalan Cendrawasih, RW 10, Krembangan Selatan, Krembangan, Surabaya, Jawa Timur, 60175, Indonesia",bank,-7.2381489000000006,112.73716259715248,Jalan Cendrawasih,60175,MAYBANK,Indonesia,Jawa Timur,Surabaya
"Maybank, Jalan Ploso V, RW 05, Ploso, Tambaksari, Surabaya, Jawa Timur, 60142, Indonesia",bank,-7.250358950000001,112.76395148340708,Jalan Ploso V,60142,MAYBANK,Indonesia,Jawa Timur,Surabaya
"Maybank, Jalan Perak Timur, RW 05, Perak Utara, Pabean Cantian, Surabaya, Jawa Timur, 60164, Indonesia",bank,-7.2207989,112.73283141586344,Jalan Perak Timur,60164,MAYBANK,Indonesia,Jawa Timur,Surabaya
"Maybank, Jalan Mayor Jenderal Sungkono, RW 02, Dukuh Pakis, Surabaya, Jawa Timur, 60256, Indonesia",bank,-7.29118925,112.7144878077672,Jalan Mayor Jenderal Sungkono,60256,MAYBANK,Indonesia,Jawa Timur,Surabaya
"Maybank, Jenderal Sudirman, Damai Baru, Balikpapan, Kalimantan Timur, 76124, Indonesia",bank,-1.2705034,116.85535135,Jenderal Sudirman,76124,MAYBANK,Indonesia,Kalimantan Timur,Balikpapan
"Maybank, 11, Karangasem, Jawa Barat, Jawa, 45154, Indonesia",bank,-6.7010375,108.4795892,Karangasem,45154,MAYBANK,Indonesia,Jawa Barat,Karangasem
"Maybank, Jalan Affandi, Catur Tunggal, Depok, Sleman, Daerah Istimewa Yogyakarta, 55281, Indonesia",bank,-7.7681657,110.3914994,Jalan Affandi,55281,MAYBANK,Indonesia,Daerah Istimewa Yogyakarta,Sleman
"Maybank, Jalan Kemang Raya, RW 01, Bangka, Mampang Prapatan, Jakarta Selatan, Daerah Khusus Ibukota Jakarta, 12150, Indonesia",bank,-6.2558381,106.8123516,Jalan Kemang Raya,12150,MAYBANK,Indonesia,Daerah Khusus Ibukota Jakarta,Jakarta Selatan
"Maybank, Jalan Puri Indah, RW 06, Kembangan Selatan, Kembangan, Jakarta Barat, Daerah Khusus Ibukota Jakarta, 11610, Indonesia",bank,-6.1855936,106.7525206,Jalan Puri Indah,11610,MAYBANK,Indonesia,Daerah Khusus Ibukota Jakarta,Jakarta Barat
"Maybank, Jalan Puri Kencana, RW 07, Kembangan Selatan, Kembangan, Jakarta Barat, Daerah Khusus Ibukota Jakarta, 11610, Indonesia",bank,-6.1903513,106.7525625,Jalan Puri Kencana,11610,MAYBANK,Indonesia,Daerah Khusus Ibukota Jakarta,Jakarta Barat
"Maybank, Jalan Melawai Raya, RW 06, Kramat Pela, Kebayoran Baru, Jakarta Selatan, Daerah Khusus Ibukota Jakarta, 12160, Indonesia",bank,-6.2456864,106.7972669,Jalan Melawai Raya,12160,MAYBANK,Indonesia,Daerah Khusus Ibukota Jakarta,Jakarta Selatan
"Maybank, Jalan Panglima Polim Raya, RW 03, Melawai, Kebayoran Baru, Jakarta Selatan, Daerah Khusus Ibukota Jakarta, 12160, Indonesia",bank,-6.2511616,106.7976129,Jalan Panglima Polim Raya,12160,MAYBANK,Indonesia,Daerah Khusus Ibukota Jakarta,Jakarta Selatan
"Maybank, Jalan Puri Lingkar Dalam, RW 02, Kembangan Selatan, Kembangan, Jakarta Barat, Daerah Khusus Ibukota Jakarta, 11610, Indonesia",bank,-6.1878514,106.7353535,Jalan Puri Lingkar Dalam,11610,MAYBANK,Indonesia,Daerah Khusus Ibukota Jakarta,Jakarta Barat
"Maybank, Jalan Meruya Ilir, RW 08, Srengseng, Kembangan, Jakarta Barat, Daerah Khusus Ibukota Jakarta, 11620, Indonesia",bank,-6.1976194,106.7529401,Jalan Meruya Ilir,11620,MAYBANK,Indonesia,Daerah Khusus Ibukota Jakarta,Jakarta Barat
"Maybank, Jalan Pantai Indah Utara 2, RW 08, Kapuk Muara, Penjaringan, Jakarta Utara, Daerah Khusus Ibukota Jakarta, 14460, Indonesia",bank,-6.1170009,106.7718744,Jalan Pantai Indah Utara 2,14460,MAYBANK,Indonesia,Daerah Khusus Ibukota Jakarta,Jakarta Utara
"Maybank, Komplek Taman Palem Lestari, RW 15, Cengkareng Barat, Cengkareng, Jakarta Barat, Daerah Khusus Ibukota Jakarta, 11730, Indonesia",bank,-6.1397334,106.7264083,Komplek Taman Palem Lestari,11730,MAYBANK,Indonesia,Daerah Khusus Ibukota Jakarta,Jakarta Barat
"Maybank, Jalan Wijaya II, RW 03, Melawai, Kebayoran Baru, Jakarta Selatan, Daerah Khusus Ibukota Jakarta, 12160, Indonesia",bank,-6.2532812,106.8001664,Jalan Wijaya II,12160,MAYBANK,Indonesia,Daerah Khusus Ibukota Jakarta,Jakarta Selatan
"Maybank, Jalan Sungai Sambas VI, RW 05, Kramat Pela, Kebayoran Baru, Jakarta Selatan, Daerah Khusus Ibukota Jakarta, 12160, Indonesia",bank,-6.2460383,106.7957689,Jalan Sungai Sambas VI,12160,MAYBANK,Indonesia,Daerah Khusus Ibukota Jakarta,Jakarta Selatan
"Maybank, Jalan Yado III, RW 04, Gandaria Utara, Kebayoran Baru, Jakarta Selatan, Daerah Khusus Ibukota Jakarta, 12140, Indonesia",bank,-6.2553996,106.7901564,Jalan Yado III,12140,MAYBANK,Indonesia,Daerah Khusus Ibukota Jakarta,Jakarta Selatan
"Maybank, Jalan Mangga Dua Raya, RW 05, Ancol, Pademangan, Jakarta Utara, Daerah Khusus Ibukota Jakarta, 14430, Indonesia",bank,-6.1358438,106.8251545,Jalan Mangga Dua Raya,14430,MAYBANK,Indonesia,Daerah Khusus Ibukota Jakarta,Jakarta Utara
"Maybank, Jalan Agung Utara Raya, RW 09, Sunter Agung, Tanjung Priok, Jakarta Utara, Daerah Khusus Ibukota Jakarta, 14350, Indonesia",bank,-6.1392534,106.8603015,Jalan Agung Utara Raya,14350,MAYBANK,Indonesia,Daerah Khusus Ibukota Jakarta,Jakarta Utara
"Maybank, Jalan Buntek, RW 16, Penjaringan, Jakarta Utara, Daerah Khusus Ibukota Jakarta, 14430, Indonesia",bank,-6.1337677,106.7941462,Jalan Buntek,14430,MAYBANK,Indonesia,Daerah Khusus Ibukota Jakarta,Jakarta Utara
"Maybank, Jalan Kyai Haji Hasyim Ashari, RW 06, Cideng, Gambir, Jakarta Pusat, Daerah Khusus Ibukota Jakarta, Jawa, 10150, Indonesia",bank,-6.1664354,106.8038195,Jalan Kyai Haji Hasyim Ashari,10150,MAYBANK,Indonesia,Daerah Khusus Ibukota Jakarta,Jakarta Pusat
"Maybank, Jalan Fakhrudin, RW 06, Kampung Bali, Tanah Abang, Jakarta Pusat, Daerah Khusus Ibukota Jakarta, 10250, Indonesia",bank,-6.185794,106.8150093,Jalan Fakhrudin,10250,MAYBANK,Indonesia,Daerah Khusus Ibukota Jakarta,Jakarta Pusat
"Maybank, 29-31, Jalan Jenderal Sudirman, RW 01, Karet, Setiabudi, Jakarta Selatan, Daerah Khusus Ibukota Jakarta, 12920, Indonesia",bank,-6.2148834,106.8192691,Jalan Jenderal Sudirman,12920,MAYBANK,Indonesia,Daerah Khusus Ibukota Jakarta,Jakarta Selatan
"Maybank, Jalan Profesor Dokter Satrio, RW 04, Karet Kuningan, Setiabudi, Jakarta Selatan, Daerah Khusus Ibukota Jakarta, Jawa, 12940, Indonesia",bank,-6.2239137,106.8263721,Jalan Profesor Dokter Satrio,12940,MAYBANK,Indonesia,Daerah Khusus Ibukota Jakarta,Jakarta Selatan
"Maybank, Jalan Ahmad Yani, Pringsewu, Lampung, 35373, Indonesia",bank,-5.3569048,104.9824655,Jalan Ahmad Yani,35373,MAYBANK,Indonesia,Lampung,Pringsewu
"Maybank, Jalan Tebet Barat Dalam, RW 03, Tebet Barat, Tebet, Jakarta Selatan, Daerah Khusus Ibukota Jakarta, Jawa, 12810, Indonesia",bank,-6.2319453,106.8457134,Jalan Tebet Barat Dalam,12810,MAYBANK,Indonesia,Daerah Khusus Ibukota Jakarta,Jakarta Selatan
"Maybank, Jalan Timor, RW 04, Gondangdia, Menteng, Jakarta Pusat, Daerah Khusus Ibukota Jakarta, 10350, Indonesia",bank,-6.1899661,106.8235891,Jalan Timor,10350,MAYBANK,Indonesia,Daerah Khusus Ibukota Jakarta,Jakarta Pusat
"Maybank, Jalan Matraman, RW 04, Palmeriam, Matraman, Jakarta Timur, Daerah Khusus Ibukota Jakarta, 13140, Indonesia",bank,-6.2027886500000005,106.85752545533089,Jalan Matraman,13140,MAYBANK,Indonesia,Daerah Khusus Ibukota Jakarta,Jakarta Timur
"Maybank, Jalan Jatinegara Timur III, RW 02, Bali Mester, Jatinegara, Jakarta Timur, Daerah Khusus Ibukota Jakarta, 13310, Indonesia",bank,-6.2203163,106.86862654834721,Jalan Jatinegara Timur III,13310,MAYBANK,Indonesia,Daerah Khusus Ibukota Jakarta,Jakarta Timur
"Maybank, Jalan Ampera Raya, RW 10, Ragunan, Pasar Minggu, Jakarta Selatan, Daerah Khusus Ibukota Jakarta, 12560, Indonesia",bank,-6.27532655,106.82112884656809,Jalan Ampera Raya,12560,MAYBANK,Indonesia,Daerah Khusus Ibukota Jakarta,Jakarta Selatan
"MayBank, Jalan Gajah Mada, RW 05, Glodok, Taman Sari, Jakarta Barat, Daerah Khusus Ibukota Jakarta, 11130, Indonesia",bank,-6.1476125,106.8158981,Jalan Gajah Mada,11130,MAYBANK,Indonesia,Daerah Khusus Ibukota Jakarta,Jakarta Barat
"MayBank, Jalan Kali Besar Barat, RW 03, Roa Malaka, Tambora, Jakarta Barat, Daerah Khusus Ibukota Jakarta, 11110, Indonesia",bank,-6.1354165,106.811221,Jalan Kali Besar Barat,11110,MAYBANK,Indonesia,Daerah Khusus Ibukota Jakarta,Jakarta Barat
"MayBank, Jalan Pluit Indah Raya, RW 04, Pluit, Penjaringan, Jakarta Utara, Daerah Khusus Ibukota Jakarta, 14450, Indonesia",bank,-6.1160663,106.7894515,Jalan Pluit Indah Raya,14450,MAYBANK,Indonesia,Daerah Khusus Ibukota Jakarta,Jakarta Utara
"Maybank, Jalan Garuda, RW 02, Kemayoran, Jakarta Pusat, Daerah Khusus Ibukota Jakarta, 10620, Indonesia",bank,-6.1627305,106.84279607694883,Jalan Garuda,10620,MAYBANK,Indonesia,Daerah Khusus Ibukota Jakarta,Jakarta Pusat
"Maybank, Jalan Tomang Raya, RW 01, Jati Pulo, Palmerah, Jakarta Barat, Daerah Khusus Ibukota Jakarta, 11440, Indonesia",bank,-6.178697,106.79832271235233,Jalan Tomang Raya,11440,MAYBANK,Indonesia,Daerah Khusus Ibukota Jakarta,Jakarta Barat
"Maybank, Jalan Palmerah Utara, RW 16, Palmerah, Jakarta Barat, Daerah Khusus Ibukota Jakarta, 17431, Indonesia",bank,-6.202515249999999,106.79804525,Jalan Palmerah Utara,17431,MAYBANK,Indonesia,Daerah Khusus Ibukota Jakarta,Jakarta Barat
"Maybank, Jalan Pemuda, RW 07, Rawamangun, Pulo Gadung, Jakarta Timur, Daerah Khusus Ibukota Jakarta, 13250, Indonesia",bank,-6.193884349999999,106.88788105,Jalan Pemuda,13250,MAYBANK,Indonesia,Daerah Khusus Ibukota Jakarta,Jakarta Timur
"Maybank, Jalan Perak, RW 12, Grogol Utara, Kebayoran Lama, Jakarta Selatan, Daerah Khusus Ibukota Jakarta, 12210, Indonesia",bank,-6.222118399999999,106.79024125,Jalan Perak,12210,MAYBANK,Indonesia,Daerah Khusus Ibukota Jakarta,Jakarta Selatan
"Maybank, Jalan Batu Jajar, RW 01, Kebon Kelapa, Gambir, Jakarta Pusat, Daerah Khusus Ibukota Jakarta, 10120, Indonesia",bank,-6.16025965,106.82197403536262,Jalan Batu Jajar,10120,MAYBANK,Indonesia,Daerah Khusus Ibukota Jakarta,Jakarta Pusat
"Maybank, Jalan KH. Samanhudi, RW 07, Pasar Baru, Sawah Besar, Jakarta Pusat, Daerah Khusus Ibukota Jakarta, 10120, Indonesia",bank,-6.1617649,106.83017345,Jalan KH. Samanhudi,10120,MAYBANK,Indonesia,Daerah Khusus Ibukota Jakarta,Jakarta Pusat
"Maybank, Jalan Danau Agung 2, RW 11, Sunter Agung, Tanjung Priok, Jakarta Utara, Daerah Khusus Ibukota Jakarta, 14350, Indonesia",bank,-6.14455975,106.863628,Jalan Danau Agung 2,14350,MAYBANK,Indonesia,Daerah Khusus Ibukota Jakarta,Jakarta Utara
"Maybank, Jalan Enggano, RW 16, Tanjung Priok, Jakarta Utara, Daerah Khusus Ibukota Jakarta, 14310, Indonesia",bank,-6.11029705,106.8874112,Jalan Enggano,14310,MAYBANK,Indonesia,Daerah Khusus Ibukota Jakarta,Jakarta Utara
"Maybank, Jalan RC. Veteran, RW 10, Bintaro, Pesanggrahan, Jakarta Selatan, Daerah Khusus Ibukota Jakarta, 12320, Indonesia",bank,-6.2586782,106.76767845,Jalan RC. Veteran,12320,MAYBANK,Indonesia,Daerah Khusus Ibukota Jakarta,Jakarta Selatan
"Maybank, Jalan Robert Wolter Monginsidi, RW 04, Petogogan, Kebayoran Baru, Jakarta Selatan, Daerah Khusus Ibukota Jakarta, Jawa, 12170, Indonesia",bank,-6.23915355,106.81167567379279,Jalan Robert Wolter Monginsidi,12170,MAYBANK,Indonesia,Daerah Khusus Ibukota Jakarta,Jakarta Selatan
"Maybank, Jalan Pluit Kencana, RW 07, Pluit, Penjaringan, Jakarta Utara, Daerah Khusus Ibukota Jakarta, 14440, Indonesia",bank,-6.121359,106.7879676743629,Jalan Pluit Kencana,14440,MAYBANK,Indonesia,Daerah Khusus Ibukota Jakarta,Jakarta Utara
"Maybank, Jalan Buntek, RW 16, Penjaringan, Jakarta Utara, Daerah Khusus Ibukota Jakarta, 14430, Indonesia",bank,-6.136575949999999,106.79417022422865,Jalan Buntek,14430,MAYBANK,Indonesia,Daerah Khusus Ibukota Jakarta,Jakarta Utara
"Maybank, Jalan Pluit Karang Sari XV, RW 08, Pluit, Penjaringan, Jakarta Utara, Daerah Khusus Ibukota Jakarta, 14440, Indonesia",bank,-6.116568900000001,106.7781903443437,Jalan Pluit Karang Sari XV,14440,MAYBANK,Indonesia,Daerah Khusus Ibukota Jakarta,Jakarta Utara
"Maybank, Jalan Gedong Sawah, Kelurahan Pabaton, Bogor Tengah, Bogor, Jawa Barat, 16121, Indonesia",bank,-6.59420995,106.79243635735094,Jalan Gedong Sawah,16121,MAYBANK,Indonesia,Jawa Barat,Bogor
"Maybank, Jalan S. Parman, Penurunan, Ratu Samban, Bengkulu, 38228, Indonesia",bank,-3.7988968,102.2679587,Jalan S. Parman,38228,MAYBANK,Indonesia,Bengkulu,Ratu Samban
"MayBank, 127, GF2, Jalan Hayam Wuruk, RW 06, Mangga Besar, Taman Sari, Jakarta Barat, Daerah Khusus Ibukota Jakarta, 11180, Indonesia",bank,-6.1462145,106.8163514,GF2,11180,MAYBANK,Indonesia,Daerah Khusus Ibukota Jakarta,Jakarta Barat
"MayBank, Jalan RS Fatmawati, RW 03, Cipete Selatan, Cilandak, Jakarta Selatan, Daerah Khusus Ibukota Jakarta, 12420, Indonesia",bank,-6.2766086,106.7979421,Jalan RS Fatmawati,12420,MAYBANK,Indonesia,Daerah Khusus Ibukota Jakarta,Jakarta Selatan
"Maybank, Jalan Kemanggisan Raya, RW 13, Palmerah, Jakarta Barat, Daerah Khusus Ibukota Jakarta, 11480, Indonesia",bank,-6.196449,106.7823987,Jalan Kemanggisan Raya,11480,MAYBANK,Indonesia,Daerah Khusus Ibukota Jakarta,Jakarta Barat
"Maybank, Jalan Sutomo, Gang Buntu, Kesawan, Sidorame Barat I, Kota Medan, Sumatera Utara, Sumatera, 20234, Indonesia",bank,3.5956988,98.6822246,Jalan Sutomo,20234,MAYBANK,Indonesia,Sumatera Utara,Kota Medan
"Maybank, Jalan Brigadir Jenderal Katamso, Musikanan, Panembahan, Kraton, Kota Yogyakarta, Daerah Istimewa Yogyakarta, 55131, Indonesia",bank,-7.8111662,110.36902952737131,Jalan Brigadir Jenderal Katamso,55131,MAYBANK,Indonesia,Daerah Istimewa Yogyakarta,Kota Yogyakarta
"Maybank, Jalan Chairil Anwar, Peunayong, Kuta Alam, Banda Aceh, Aceh, 23121, Indonesia",bank,5.5574336,95.3217608,Jalan Chairil Anwar,23121,MAYBANK,Indonesia,Aceh,Banda Aceh
"Maybank, Jalan Chairil Anwar, Peunayong, Kuta Alam, Banda Aceh, Aceh, 23121, Indonesia",bank,5.55754675,95.32179775,Jalan Chairil Anwar,23121,MAYBANK,Indonesia,Aceh,Banda Aceh
"Maybank, Jalan Siliwangi, Kec. Kota Lama, LLBK, Kupang, Nusa Tenggara Timur, 85221, Indonesia",bank,-10.1601853,123.57841854357956,Jalan Siliwangi,85221,MAYBANK,Indonesia,Nusa Tenggara Timur,Kupang
"Maybank, Jalan Raya Ubud, Ubud, Gianyar, Bali, 80571, Indonesia",bank,-8.508811099999999,115.26981720197361,Jalan Raya Ubud,80571,MAYBANK,Indonesia,Bali,Gianyar
"MayBank, Jalan Mangga Dua Raya, RW 11, Mangga Dua Selatan, Sawah Besar, Jakarta Pusat, Daerah Khusus Ibukota Jakarta, 14420, Indonesia",bank,-6.1368266,106.8293235,Jalan Mangga Dua Raya,14420,MAYBANK,Indonesia,Daerah Khusus Ibukota Jakarta,Jakarta Pusat
"MayBank, Jalan Nangka, RW 05, Cipete Utara, Kebayoran Baru, Jakarta Selatan, Daerah Khusus Ibukota Jakarta, 12420, Indonesia",bank,-6.2636816,106.7990277,Jalan Nangka,12420,MAYBANK,Indonesia,Daerah Khusus Ibukota Jakarta,Jakarta Selatan
"MayBank, Jalan Arjuna Utara, RW 01, Duri Kepa, Kebon Jeruk, Jakarta Barat, Daerah Khusus Ibukota Jakarta, Jawa, 11530, Indonesia",bank,-6.188586,106.7726251,Jalan Arjuna Utara,11530,MAYBANK,Indonesia,Daerah Khusus Ibukota Jakarta,Jakarta Barat
"MayBank, Jalan Mangga Besar I, RW 06, Mangga Besar, Taman Sari, Jakarta Barat, Daerah Khusus Ibukota Jakarta, 11180, Indonesia",bank,-6.1431275,106.8175913,Jalan Mangga Besar I,11180,MAYBANK,Indonesia,Daerah Khusus Ibukota Jakarta,Jakarta Barat
"Maybank (Jalan Cibadak), Jalan Cibadak, Karanganyar, Astanaanyar, Bandung, Jawa Barat, Jawa, 40251, Indonesia",bank,-6.9216309,107.60116357430363,Jalan Cibadak,40251,MAYBANK (JALAN CIBADAK),Indonesia,Jawa Barat,Bandung
"Maybank KCP Pulo Brayan, Jalan K. L. Yos Sudarso, Medan Barat, Kota Medan, Sumatera Utara, Sumatera, 20116, Indonesia",bank,3.6295057,98.6698065,Jalan K. L. Yos Sudarso,20116,MAYBANK KCP PULO BRAYAN,Indonesia,Sumatera Utara,Kota Medan
"MayBank, Jalan Raya Pajajaran, Bogor Utara, Bogor, Jawa Barat, Jawa, 16153, Indonesia",bank,-6.5718443,106.8081798,Jalan Raya Pajajaran,16153,MAYBANK,Indonesia,Jawa Barat,Bogor
"Maybank KCP Botania - Batam, Ruko Botania Garden Blok A1 No. 1A, Jalan Tengku Sulung, Batam, Kepulauan Riau, 29464, Indonesia",bank,1.1273127,104.1000481,Ruko Botania Garden Blok A1 No. 1A,29464,MAYBANK KCP BOTANIA - BATAM,Indonesia,Kepulauan Riau,Batam
"MayBank, Jalan Jenderal Sudirman, Babakan, Tangerang, Banten, Jawa, 11151, Indonesia",bank,-6.1938897,106.6350915,Jalan Jenderal Sudirman,11151,MAYBANK,Indonesia,Banten,Tangerang
"MayBank, Jalan Datu Tuan, Lingk. Butun Indah, Kel. Mandalika, Mataram, Kec. Sandubaya, Nusa Tenggara Barat, 83235, Indonesia",bank,-8.5917041,116.1494444,Jalan Datu Tuan,83235,MAYBANK,Indonesia,Nusa Tenggara Barat,Kec. Sandubaya
"Maybank Tungkal, Jalan Ki Hajar Dewantara, Tungkal IV Kota, Tanjung Jabung Barat, Jambi, 36512, Indonesia",bank,-0.81490555,103.46013545,Jalan Ki Hajar Dewantara,36512,MAYBANK TUNGKAL,Indonesia,Jambi,Tanjung Jabung Barat
